{
  "type": "FeatureCollection",
  "name": "Potwierdzone sprawy budowlane — Strzeszyn",
  "generated_at": "2026-08-29",
  "features": [
    {
      "type": "Feature",
      "id": "ST-WK-PZ/WNIOSEK/20076/2025::306401_1.0025.AR_22.7",
      "geometry": {
        "type": "Polygon",
        "coordinates": [
          [
            [
              16.8598267754579,
              52.4526996812909
            ],
            [
              16.8597610899153,
              52.4526512328479
            ],
            [
              16.859295882774,
              52.4528859126948
            ],
            [
              16.8596295618741,
              52.4530672690585
            ],
            [
              16.8600420028031,
              52.452859222531
            ],
            [
              16.8598267754579,
              52.4526996812909
            ]
          ]
        ]
      },
      "properties": {
        "case_id": "ST-WK-PZ/WNIOSEK/20076/2025",
        "source_type": "wniosek_decyzja",
        "received_date": "2025-10-02",
        "status": "decyzja wydana",
        "description": "Pozwolenie na budowe budynku mieszkalnego jednorodzinnego wolnostojacego",
        "address": "Karola Irzykowskiego 6",
        "parcel_id": "306401_1.0025.AR_22.7",
        "all_parcel_ids": [
          "306401_1.0025.AR_22.7"
        ],
        "location_quality": "dokładny",
        "location_source": "powiat Poznań (wfs)",
        "gunb_url": "https://wyszukiwarka.gunb.gov.pl/"
      }
    },
    {
      "type": "Feature",
      "id": "ST-WK-PZ/WNIOSEK/2720/2026::306401_1.0025.AR_01.14/1",
      "geometry": {
        "type": "Polygon",
        "coordinates": [
          [
            [
              16.8290841432696,
              52.4639406794356
            ],
            [
              16.828621802166,
              52.4638792985736
            ],
            [
              16.8285587544998,
              52.4640148397403
            ],
            [
              16.828279130133,
              52.4647975161339
            ],
            [
              16.8280703968934,
              52.4653818138988
            ],
            [
              16.8275846747909,
              52.4667536654056
            ],
            [
              16.8274233135568,
              52.4672104448608
            ],
            [
              16.8278896175474,
              52.4673011698082
            ],
            [
              16.8279220728832,
              52.4672095459937
            ],
            [
              16.8280834973243,
              52.4667557324863
            ],
            [
              16.8282659228416,
              52.4662424476353
            ],
            [
              16.8285383625282,
              52.4654757884679
            ],
            [
              16.8287722950063,
              52.4648178595159
            ],
            [
              16.8288066479427,
              52.4647211311663
            ],
            [
              16.8288222339465,
              52.4646772451517
            ],
            [
              16.8290841432696,
              52.4639406794356
            ]
          ]
        ]
      },
      "properties": {
        "case_id": "ST-WK-PZ/WNIOSEK/2720/2026",
        "source_type": "wniosek_decyzja",
        "received_date": "2026-02-12",
        "status": "decyzja wydana",
        "description": "Pozwolenie na przebudowę budynku obsługi turystów wraz z budową tarasu zewnętrznego",
        "address": "Koszalińska 32",
        "parcel_id": "306401_1.0025.AR_01.14/1",
        "all_parcel_ids": [
          "306401_1.0025.AR_01.14/1",
          "306401_1.0025.AR_08.9"
        ],
        "location_quality": "dokładny",
        "location_source": "powiat Poznań (wfs)",
        "gunb_url": "https://wyszukiwarka.gunb.gov.pl/"
      }
    },
    {
      "type": "Feature",
      "id": "ST-WK-PZ/WNIOSEK/2720/2026::306401_1.0025.AR_08.9",
      "geometry": {
        "type": "Polygon",
        "coordinates": [
          [
            [
              16.828279130133,
              52.4647975161339
            ],
            [
              16.8281439853127,
              52.4647774826191
            ],
            [
              16.8279343199409,
              52.4653635684826
            ],
            [
              16.8274480077232,
              52.4667353237229
            ],
            [
              16.827285514969,
              52.4671958666657
            ],
            [
              16.8274233135568,
              52.4672104448608
            ],
            [
              16.8275846747909,
              52.4667536654056
            ],
            [
              16.8280703968934,
              52.4653818138988
            ],
            [
              16.828279130133,
              52.4647975161339
            ]
          ]
        ]
      },
      "properties": {
        "case_id": "ST-WK-PZ/WNIOSEK/2720/2026",
        "source_type": "wniosek_decyzja",
        "received_date": "2026-02-12",
        "status": "decyzja wydana",
        "description": "Pozwolenie na przebudowę budynku obsługi turystów wraz z budową tarasu zewnętrznego",
        "address": "Koszalińska 32",
        "parcel_id": "306401_1.0025.AR_08.9",
        "all_parcel_ids": [
          "306401_1.0025.AR_01.14/1",
          "306401_1.0025.AR_08.9"
        ],
        "location_quality": "dokładny",
        "location_source": "powiat Poznań (wfs)",
        "gunb_url": "https://wyszukiwarka.gunb.gov.pl/"
      }
    },
    {
      "type": "Feature",
      "id": "ST-WK-PZ/WNIOSEK/3809/2026::306401_1.0025.AR_24.76",
      "geometry": {
        "type": "Polygon",
        "coordinates": [
          [
            [
              16.8648127391468,
              52.4574489864636
            ],
            [
              16.8644956419154,
              52.4572615128002
            ],
            [
              16.8642292806232,
              52.4574295438613
            ],
            [
              16.8644110220444,
              52.4577026308156
            ],
            [
              16.8648127391468,
              52.4574489864636
            ]
          ]
        ]
      },
      "properties": {
        "case_id": "ST-WK-PZ/WNIOSEK/3809/2026",
        "source_type": "wniosek_decyzja",
        "received_date": "2026-03-02",
        "status": "decyzja wydana",
        "description": "Pozwolenie na budowę budynku mieszkalnego, jednorodzinnego w zabudowie wolnostojącej wraz ze szczelnym podziemnym zbiornikiem na wody opadowe",
        "address": "Stanisława Dygata",
        "parcel_id": "306401_1.0025.AR_24.76",
        "all_parcel_ids": [
          "306401_1.0025.AR_24.76"
        ],
        "location_quality": "dokładny",
        "location_source": "powiat Poznań (wfs)",
        "gunb_url": "https://wyszukiwarka.gunb.gov.pl/"
      }
    },
    {
      "type": "Feature",
      "id": "ST-WK-PZ/WNIOSEK/7684/2026::306401_1.0025.AR_07.3/212",
      "geometry": {
        "type": "Polygon",
        "coordinates": [
          [
            [
              16.8636415149799,
              52.4475762196643
            ],
            [
              16.8634681907337,
              52.4472579131601
            ],
            [
              16.863406363591,
              52.4472711602233
            ],
            [
              16.8631565430685,
              52.4473245733984
            ],
            [
              16.8633281746095,
              52.4476399879917
            ],
            [
              16.8636415149799,
              52.4475762196643
            ]
          ]
        ]
      },
      "properties": {
        "case_id": "ST-WK-PZ/WNIOSEK/7684/2026",
        "source_type": "wniosek_decyzja",
        "received_date": "2026-04-22",
        "status": "decyzja wydana",
        "description": "Pozwolenie na budowę bud. mieszkalnego jednorodzinnego wraz z niezbędnymi instalacjami - przekazane wg właściwości przez Starostę Poznańskiego pismem z 20.04.2026 r.",
        "address": "Kazimierza Nieżychowskiego",
        "parcel_id": "306401_1.0025.AR_07.3/212",
        "all_parcel_ids": [
          "306401_1.0025.AR_07.3/212"
        ],
        "location_quality": "dokładny",
        "location_source": "powiat Poznań (wfs)",
        "gunb_url": "https://wyszukiwarka.gunb.gov.pl/"
      }
    },
    {
      "type": "Feature",
      "id": "ST-WK-PZ/WNIOSEK/9998/2026::306401_1.0020.AR_14.1/184",
      "geometry": {
        "type": "Polygon",
        "coordinates": [
          [
            [
              16.8788574697057,
              52.4429552977594
            ],
            [
              16.8787634262895,
              52.4428359467358
            ],
            [
              16.8783327930331,
              52.4429625459057
            ],
            [
              16.8784268332625,
              52.4430819871207
            ],
            [
              16.8785461275927,
              52.4430468076677
            ],
            [
              16.8786655664988,
              52.443011719344
            ],
            [
              16.8788574697057,
              52.4429552977594
            ]
          ]
        ]
      },
      "properties": {
        "case_id": "ST-WK-PZ/WNIOSEK/9998/2026",
        "source_type": "wniosek_decyzja",
        "received_date": "2026-05-26",
        "status": "decyzja wydana",
        "description": "Pozwolenie na budowę budynku mieszkalnego jednorodzinnego",
        "address": "Brak pełnego adresu",
        "parcel_id": "306401_1.0020.AR_14.1/184",
        "all_parcel_ids": [
          "306401_1.0020.AR_14.1/184",
          "306401_1.0020.AR_14.1/185"
        ],
        "location_quality": "dokładny",
        "location_source": "powiat Poznań (wfs)",
        "gunb_url": "https://wyszukiwarka.gunb.gov.pl/"
      }
    },
    {
      "type": "Feature",
      "id": "ST-WK-PZ/WNIOSEK/9998/2026::306401_1.0020.AR_14.1/185",
      "geometry": {
        "type": "Polygon",
        "coordinates": [
          [
            [
              16.8787634262895,
              52.4428359467358
            ],
            [
              16.8786693833779,
              52.4427165956379
            ],
            [
              16.878238751026,
              52.4428431944729
            ],
            [
              16.8783327930331,
              52.4429625459057
            ],
            [
              16.8787634262895,
              52.4428359467358
            ]
          ]
        ]
      },
      "properties": {
        "case_id": "ST-WK-PZ/WNIOSEK/9998/2026",
        "source_type": "wniosek_decyzja",
        "received_date": "2026-05-26",
        "status": "decyzja wydana",
        "description": "Pozwolenie na budowę budynku mieszkalnego jednorodzinnego",
        "address": "Brak pełnego adresu",
        "parcel_id": "306401_1.0020.AR_14.1/185",
        "all_parcel_ids": [
          "306401_1.0020.AR_14.1/184",
          "306401_1.0020.AR_14.1/185"
        ],
        "location_quality": "dokładny",
        "location_source": "powiat Poznań (wfs)",
        "gunb_url": "https://wyszukiwarka.gunb.gov.pl/"
      }
    },
    {
      "type": "Feature",
      "id": "ST-WK-PZ/ZGŁOSZENIE/1932/2026::306401_1.0025.AR_07.3/172",
      "geometry": {
        "type": "Polygon",
        "coordinates": [
          [
            [
              16.8613298925643,
              52.4442961682887
            ],
            [
              16.8611066800912,
              52.4442537534089
            ],
            [
              16.8609526514336,
              52.4443803465113
            ],
            [
              16.860606508877,
              52.4448154383436
            ],
            [
              16.8603882173057,
              52.4453288768064
            ],
            [
              16.8603354862166,
              52.4457078347257
            ],
            [
              16.8603271724736,
              52.4457677932917
            ],
            [
              16.8603488187085,
              52.4459150427367
            ],
            [
              16.8603660463598,
              52.4460340278191
            ],
            [
              16.8603907917734,
              52.4462036868014
            ],
            [
              16.8604678871751,
              52.4463739400857
            ],
            [
              16.8605478974477,
              52.4465509622664
            ],
            [
              16.8606976167168,
              52.4467057370009
            ],
            [
              16.8608461907022,
              52.4468593320888
            ],
            [
              16.8610231161101,
              52.4469916292545
            ],
            [
              16.8612185115554,
              52.447137855372
            ],
            [
              16.8614771225067,
              52.4473311567971
            ],
            [
              16.8617517513346,
              52.4475365656136
            ],
            [
              16.862021479903,
              52.447738151738
            ],
            [
              16.8622194827446,
              52.4478861988112
            ],
            [
              16.8624169125539,
              52.4480337007628
            ],
            [
              16.8626141966172,
              52.4481812009744
            ],
            [
              16.8628114819962,
              52.4483287008607
            ],
            [
              16.8630087710049,
              52.4484761105658
            ],
            [
              16.8632552732383,
              52.4486603936437
            ],
            [
              16.8634394275032,
              52.4487981492724
            ],
            [
              16.8636996432094,
              52.4489927194248
            ],
            [
              16.8637416460424,
              52.4490239512017
            ],
            [
              16.8639556795252,
              52.449184013228
            ],
            [
              16.863943424188,
              52.4492601122092
            ],
            [
              16.8642496930242,
              52.4491056771032
            ],
            [
              16.8641257312935,
              52.4490981951167
            ],
            [
              16.8636139545047,
              52.4487156105167
            ],
            [
              16.8634235919365,
              52.4485733015845
            ],
            [
              16.8630528280854,
              52.4482961485534
            ],
            [
              16.8626819264476,
              52.4480188132475
            ],
            [
              16.8624889690671,
              52.4478746802529
            ],
            [
              16.8621893678599,
              52.447650607891
            ],
            [
              16.8619268554065,
              52.4474543944052
            ],
            [
              16.8616617468596,
              52.4472562678897
            ],
            [
              16.861298944998,
              52.4469849380577
            ],
            [
              16.8610397648306,
              52.4467910015913
            ],
            [
              16.86075270099,
              52.4464977501011
            ],
            [
              16.8606120097193,
              52.446186943872
            ],
            [
              16.86056705373,
              52.4458941367507
            ],
            [
              16.8605480613073,
              52.4457637201533
            ],
            [
              16.8606068974244,
              52.4453476113638
            ],
            [
              16.8608144568364,
              52.4448623807861
            ],
            [
              16.861137341251,
              52.4444564545771
            ],
            [
              16.8613298925643,
              52.4442961682887
            ]
          ]
        ]
      },
      "properties": {
        "case_id": "ST-WK-PZ/ZGŁOSZENIE/1932/2026",
        "source_type": "zgloszenie",
        "received_date": "2026-06-15",
        "status": "Brak sprzeciwu",
        "description": "Zgłoszenie budowy sieci wodociągowej",
        "address": "Stanisława Rostworowskiego",
        "parcel_id": "306401_1.0025.AR_07.3/172",
        "all_parcel_ids": [
          "306401_1.0025.AR_07.3/172"
        ],
        "location_quality": "dokładny",
        "location_source": "powiat Poznań (wfs)",
        "gunb_url": "https://wyszukiwarka.gunb.gov.pl/"
      }
    }
  ]
}