{"type":"FeatureCollection","features":[{"type":"Feature","id":"PL-LB/WNIOSEK/5117/2025::081006_2.0006.102/7","geometry":{"type":"Polygon","coordinates":[[[15.7067418547826,51.6011241120872],[15.7067888588798,51.6010464353277],[15.7068855404301,51.6008866611265],[15.7069304307758,51.600812322899],[15.7069315396654,51.6007814845563],[15.7067806599644,51.6007507524026],[15.7073283750077,51.5997902335431],[15.7075991150288,51.599434981495],[15.7079505878658,51.5985633731528],[15.7079588638343,51.5985108284891],[15.7079675392007,51.598456124097],[15.7081384383072,51.5976122108539],[15.7082852434878,51.5966393630027],[15.708321217141,51.5965860219518],[15.7084261613273,51.5959749571434],[15.7085050919703,51.5956586132193],[15.7085800005956,51.5953899343137],[15.7086266642818,51.5952353143697],[15.7087565408396,51.5948264372409],[15.7090586218544,51.593919167648],[15.7091865168768,51.5934113348239],[15.7092846483264,51.592984850854],[15.7096724188154,51.5921880736859],[15.7100516510082,51.5913628521281],[15.7100763535279,51.5913089494387],[15.7101466442949,51.5913189512615],[15.7103421967486,51.5908848655017],[15.7104670843478,51.590620466979],[15.7109551438352,51.5896596609517],[15.7109814708699,51.5896082650882],[15.7111670528638,51.5892482163646],[15.7113153939847,51.5889708206989],[15.7113510611099,51.5889169411559],[15.7115232110761,51.5886580977117],[15.7115514235393,51.588598150878],[15.7117707215716,51.5884570447586],[15.7118446148942,51.5884208210541],[15.7122404823601,51.5882301932334],[15.7123347820412,51.5881609462188],[15.7125978913978,51.5879335493953],[15.7126549836197,51.5878842135684],[15.7130156182082,51.5875358629784],[15.7129745498963,51.5873643355853],[15.7134171390589,51.5874858722421],[15.7140213639503,51.5876454356929],[15.7145036469419,51.5877673560106],[15.7145523538285,51.5877815315552],[15.7151811292807,51.5879418384733],[15.7159121650206,51.5881354962098],[15.7163771312441,51.5882383682153],[15.7168197463712,51.5883420939877],[15.7173164925056,51.5884468356315],[15.7173985790676,51.5884271877171],[15.7174290600307,51.588392664023],[15.7174749447974,51.5882917084741],[15.7175018262346,51.5881111379917],[15.7175450633265,51.5876955889168],[15.7174133013803,51.5876945066608],[15.7174026258951,51.5875938968092],[15.7172502177618,51.5861625449724],[15.7171681050364,51.5856853791833],[15.7172547627267,51.5856814339089],[15.7171532240209,51.5849143165252],[15.7169993817423,51.584921638473],[15.7168984220537,51.5842917770344],[15.7169543098557,51.584239839654],[15.7166930873251,51.583282144506],[15.7164259559419,51.5826728028658],[15.7161133413014,51.5820424344934],[15.7152425890733,51.5804882671183],[15.7144819385809,51.5793733376172],[15.7138631064234,51.5785415885712],[15.7137527241312,51.5783932245804],[15.7131769738764,51.5776484916817],[15.7131421507565,51.5775989049832],[15.712596698528,51.5768161419728],[15.7123634684892,51.5764314861466],[15.7121622118081,51.5760062758391],[15.712064149684,51.5757593175187],[15.7120366952794,51.5755441109008],[15.7120828326085,51.5751916472778],[15.7122509218782,51.574528867064],[15.7125788055204,51.5737531151594],[15.7126741539175,51.5737436372342],[15.7127462405697,51.5735750177717],[15.7130719682259,51.5736857595944],[15.7127866562011,51.574249836231],[15.71262406219,51.5745623776921],[15.7124621283053,51.5752125366719],[15.7124188666062,51.5755457468246],[15.7124459705071,51.5757199662647],[15.7125358479864,51.575950794007],[15.7127387497628,51.5763610721819],[15.7129675552308,51.5767393720585],[15.7135219171808,51.577537989488],[15.7142020495783,51.5784345366677],[15.7148209742855,51.5792626878446],[15.7151568185141,51.5797484673677],[15.7155489418503,51.5803263981689],[15.7159809819641,51.5810658835727],[15.7163845281,51.5817999681515],[15.7167594669093,51.5825582262251],[15.7170621392323,51.5831428104305],[15.7170711534049,51.5831654971632],[15.7172739544658,51.5838762651687],[15.7173350051692,51.5842255584768],[15.717351178957,51.5843180448182],[15.7176755968822,51.5861717202395],[15.7177380340552,51.5866452306454],[15.7178217467209,51.5871593303614],[15.7178470599334,51.5876759444684],[15.7177129333288,51.5877720464593],[15.7176394178313,51.5882165450287],[15.7176332637221,51.5883388309776],[15.7176472028893,51.5885732647746],[15.7176361324093,51.5886582770607],[15.7172447728185,51.5885658367872],[15.7165870844222,51.5884215377903],[15.7161056588071,51.588309059077],[15.7156078678632,51.5881834645617],[15.7154845886116,51.5881529348935],[15.7154405504444,51.5881420571518],[15.7151709878581,51.588067923894],[15.7148283797286,51.5879826392728],[15.7145363316395,51.5879099898204],[15.714174560392,51.5878171794277],[15.7139419038138,51.5877589987191],[15.7134395259562,51.5876345914721],[15.7132415663673,51.5876081088841],[15.7131906864851,51.5876394295621],[15.7131312366765,51.5876763753693],[15.7130987921292,51.5876962580552],[15.7130664319794,51.5877215335269],[15.712797823628,51.5879477063721],[15.7124995602346,51.5882339243096],[15.7124274466101,51.588291620967],[15.7123654375242,51.5883310987891],[15.7118680998803,51.5885754665278],[15.7117711123215,51.5886574936168],[15.711713479317,51.5887185177792],[15.711607681845,51.5888555199829],[15.7115857091981,51.5888899905724],[15.7115493409244,51.5889543913849],[15.7113983310607,51.5892271293264],[15.7113816897953,51.5892611181207],[15.7114558176732,51.5892767588727],[15.7112052617357,51.5897267306208],[15.7108996075861,51.5903636438424],[15.7106481771836,51.5908877775217],[15.7104074972022,51.5913891037772],[15.7104366207757,51.591452119055],[15.7099768927422,51.5923992679552],[15.7097537533512,51.5928788235179],[15.7096537579867,51.5932039250938],[15.7095374916291,51.5936982049146],[15.7091698326573,51.5949440319241],[15.7088647576087,51.5959744667128],[15.7087170423064,51.5967024651851],[15.7087053193743,51.5967560195028],[15.708523489035,51.5979724967704],[15.7084341422063,51.5983524544504],[15.7083047267102,51.5988010587847],[15.7081299035543,51.5992442738981],[15.7079511584812,51.599602567959],[15.7070497400139,51.6011894944886],[15.7069206872996,51.6011608782532],[15.7067418547826,51.6011241120872]]]},"properties":{"case_id":"PL-LB/WNIOSEK/5117/2025","source_type":"wniosek_decyzja","received_date":"2025-09-30","decision_date":"2025-10-27","status":"decyzja wydana","description":"Przebudowa gazociągu w/c DN250 MOP5,5MPa w miejscu przekroczenia drogi wojewódzkiej nr 328 w zakresie likwidacji zwarcia galwanicznego w m. Niegosławice, w ramach zadania: Gaz. Żukowice - Żary, odc. łącznik ZZU Gaworzyce DN300 - odg. Przemków, likwidacja połączenia galwanicznego rury osłonowej z przewodową na przekroczeniu drogi","address":"Nowy Tomyśl","city":"Nowy Tomyśl","office":"Wojewoda Lubuski","case_kind":"Obiekt budowlany inny niż budynek mieszkalny jednorodzinny","parcel_ids":["081006_2.0006.102/7","081006_2.0006.11/2","081006_2.0006.570/21","081006_2.0006.570/22"],"location_quality":"dokładny","gunb_url":"https://wyszukiwarka.gunb.gov.pl/","parcel_count":4,"parcel_shard":"x062-y206","parcel_id":"081006_2.0006.102/7","location_source":"powiat żagański (wfs)"}},{"type":"Feature","id":"PL-LB/WNIOSEK/5117/2025::081006_2.0006.11/2","geometry":{"type":"Polygon","coordinates":[[[15.7070497400139,51.6011894944886],[15.7079511584812,51.599602567959],[15.7081299035543,51.5992442738981],[15.7083047267102,51.5988010587847],[15.7084341422063,51.5983524544504],[15.708523489035,51.5979724967704],[15.7087053193743,51.5967560195028],[15.709486748929,51.596925322905],[15.7078937354639,51.6013585215619],[15.7070497400139,51.6011894944886]]]},"properties":{"case_id":"PL-LB/WNIOSEK/5117/2025","source_type":"wniosek_decyzja","received_date":"2025-09-30","decision_date":"2025-10-27","status":"decyzja wydana","description":"Przebudowa gazociągu w/c DN250 MOP5,5MPa w miejscu przekroczenia drogi wojewódzkiej nr 328 w zakresie likwidacji zwarcia galwanicznego w m. Niegosławice, w ramach zadania: Gaz. Żukowice - Żary, odc. łącznik ZZU Gaworzyce DN300 - odg. Przemków, likwidacja połączenia galwanicznego rury osłonowej z przewodową na przekroczeniu drogi","address":"Nowy Tomyśl","city":"Nowy Tomyśl","office":"Wojewoda Lubuski","case_kind":"Obiekt budowlany inny niż budynek mieszkalny jednorodzinny","parcel_ids":["081006_2.0006.102/7","081006_2.0006.11/2","081006_2.0006.570/21","081006_2.0006.570/22"],"location_quality":"dokładny","gunb_url":"https://wyszukiwarka.gunb.gov.pl/","parcel_count":4,"parcel_shard":"x062-y206","parcel_id":"081006_2.0006.11/2","location_source":"powiat żagański (wfs)"}},{"type":"Feature","id":"PL-LB/WNIOSEK/5117/2025::081006_2.0006.570/21","geometry":{"type":"Polygon","coordinates":[[[15.70742612631,51.5994487882392],[15.70777361849,51.5985901483366],[15.7079505878658,51.5985633731528],[15.7075991150288,51.599434981495],[15.70742612631,51.5994487882392]]]},"properties":{"case_id":"PL-LB/WNIOSEK/5117/2025","source_type":"wniosek_decyzja","received_date":"2025-09-30","decision_date":"2025-10-27","status":"decyzja wydana","description":"Przebudowa gazociągu w/c DN250 MOP5,5MPa w miejscu przekroczenia drogi wojewódzkiej nr 328 w zakresie likwidacji zwarcia galwanicznego w m. Niegosławice, w ramach zadania: Gaz. Żukowice - Żary, odc. łącznik ZZU Gaworzyce DN300 - odg. Przemków, likwidacja połączenia galwanicznego rury osłonowej z przewodową na przekroczeniu drogi","address":"Nowy Tomyśl","city":"Nowy Tomyśl","office":"Wojewoda Lubuski","case_kind":"Obiekt budowlany inny niż budynek mieszkalny jednorodzinny","parcel_ids":["081006_2.0006.102/7","081006_2.0006.11/2","081006_2.0006.570/21","081006_2.0006.570/22"],"location_quality":"dokładny","gunb_url":"https://wyszukiwarka.gunb.gov.pl/","parcel_count":4,"parcel_shard":"x062-y206","parcel_id":"081006_2.0006.570/21","location_source":"powiat żagański (wfs)"}},{"type":"Feature","id":"PL-LB/WNIOSEK/5117/2025::081006_2.0006.570/22","geometry":{"type":"Polygon","coordinates":[[[15.70777361849,51.5985901483366],[15.70742612631,51.5994487882392],[15.7072610163493,51.5994122997235],[15.7076007264921,51.5985542465495],[15.70777361849,51.5985901483366]]]},"properties":{"case_id":"PL-LB/WNIOSEK/5117/2025","source_type":"wniosek_decyzja","received_date":"2025-09-30","decision_date":"2025-10-27","status":"decyzja wydana","description":"Przebudowa gazociągu w/c DN250 MOP5,5MPa w miejscu przekroczenia drogi wojewódzkiej nr 328 w zakresie likwidacji zwarcia galwanicznego w m. Niegosławice, w ramach zadania: Gaz. Żukowice - Żary, odc. łącznik ZZU Gaworzyce DN300 - odg. Przemków, likwidacja połączenia galwanicznego rury osłonowej z przewodową na przekroczeniu drogi","address":"Nowy Tomyśl","city":"Nowy Tomyśl","office":"Wojewoda Lubuski","case_kind":"Obiekt budowlany inny niż budynek mieszkalny jednorodzinny","parcel_ids":["081006_2.0006.102/7","081006_2.0006.11/2","081006_2.0006.570/21","081006_2.0006.570/22"],"location_quality":"dokładny","gunb_url":"https://wyszukiwarka.gunb.gov.pl/","parcel_count":4,"parcel_shard":"x062-y206","parcel_id":"081006_2.0006.570/22","location_source":"powiat żagański (wfs)"}}]}