{"type":"FeatureCollection","features":[{"type":"Feature","id":"ST-LB-GW/WNIOSEK/2412/2026::080106_2.0012.176/4","geometry":{"type":"Polygon","coordinates":[[[15.5266645297151,52.7276845109012],[15.5260097838075,52.7277583245064],[15.5256723580669,52.7273348234301],[15.5265953498112,52.7273855495998],[15.5266645297151,52.7276845109012]]]},"properties":{"case_id":"ST-LB-GW/WNIOSEK/2412/2026","source_type":"wniosek_decyzja","received_date":"2026-05-11","decision_date":"2026-06-29","status":"decyzja wydana","description":"Wniosek o zmianę pozwolenia na budowę do dec.nr 119/2020 na dz.nr 176/4 obręb 12 Lipki Wielkie gm. Santok. Zmiana w zakresie lokalizacji budynku mieszkalnego na działce oraz zmianę charakterystycznych danych budynku tj. Powierzchni zabudowy użytkowej i kubatury.","address":"Międzychód","city":"Międzychód","office":"Starosta Powiatu Gorzów Wielkopolski","case_kind":"Budynek mieszkalny jednorodzinny","parcel_ids":["080106_2.0012.176/4"],"location_quality":"dokładny","gunb_url":"https://wyszukiwarka.gunb.gov.pl/","parcel_count":1,"parcel_shard":"x062-y210","parcel_id":"080106_2.0012.176/4","location_source":"powiat gorzowski (wfs)"}}]}