{"type":"FeatureCollection","features":[{"type":"Feature","id":"ST-WK-CZ/WNIOSEK/7332/2026::300204_5.0011.166/4","geometry":{"type":"Polygon","coordinates":[[[15.9921978510799,53.0184555351381],[15.9921832657578,53.0181770638563],[15.9925849634903,53.0181604113923],[15.992534511552,53.0184491312449],[15.9921978510799,53.0184555351381]]]},"properties":{"case_id":"ST-WK-CZ/WNIOSEK/7332/2026","source_type":"wniosek_decyzja","received_date":"2026-04-09","decision_date":"2026-05-27","status":"decyzja wydana","description":"przebudowa wieży","address":"Przesieki","city":"Przesieki","office":"Starosta Powiatu Czarnków","case_kind":"Obiekt budowlany inny niż budynek mieszkalny jednorodzinny","parcel_ids":["300204_5.0011.166/4"],"location_quality":"dokładny","gunb_url":"https://wyszukiwarka.gunb.gov.pl/","parcel_count":1,"parcel_shard":"x063-y212","parcel_id":"300204_5.0011.166/4","location_source":"powiat czarnkowsko - trzcianecki (wfs)"}}]}