{"type":"FeatureCollection","features":[{"type":"Feature","id":"ST-WK-CZ/WNIOSEK/7869/2026::300203_2.0005.137","geometry":{"type":"Polygon","coordinates":[[[15.9019051280296,52.8130180602845],[15.9001957485563,52.813509511207],[15.8990945844481,52.8123456694139],[15.900722547334,52.8118714602407],[15.9019051280296,52.8130180602845]]]},"properties":{"case_id":"ST-WK-CZ/WNIOSEK/7869/2026","source_type":"wniosek_decyzja","received_date":"2026-04-20","decision_date":"2026-08-06","status":"decyzja wydana","description":"elektrownia fotowoltaiczna o mocy do 2 MW wraz z magazynami energii elektrycznej","address":"Kawczyn","city":"Kawczyn","office":"Starosta Powiatu Czarnków","case_kind":"Obiekt budowlany inny niż budynek mieszkalny jednorodzinny","parcel_ids":["300203_2.0005.137"],"location_quality":"dokładny","gunb_url":"https://wyszukiwarka.gunb.gov.pl/","parcel_count":1,"parcel_shard":"x063-y211","parcel_id":"300203_2.0005.137","location_source":"powiat czarnkowsko - trzcianecki (wfs)"}},{"type":"Feature","id":"ST-WK-CZ/WNIOSEK/12222/2026::300203_2.0005.215","geometry":{"type":"Polygon","coordinates":[[[15.9176713433469,52.8092214718554],[15.9177986269923,52.8098004268404],[15.9179255777788,52.8103774969228],[15.9180147309387,52.8104415264308],[15.9162191813063,52.8102267925526],[15.9159605886473,52.8092848538044],[15.9176713433469,52.8092214718554]]]},"properties":{"case_id":"ST-WK-CZ/WNIOSEK/12222/2026","source_type":"wniosek_decyzja","received_date":"2026-06-15","decision_date":"2026-08-06","status":"decyzja wydana","description":"budowa drogi gminnej","address":"Kawczyn","city":"Kawczyn","office":"Starosta Powiatu Czarnków","case_kind":"Obiekt budowlany inny niż budynek mieszkalny jednorodzinny","parcel_ids":["300203_2.0005.215","300203_2.0005.220"],"location_quality":"dokładny","gunb_url":"https://wyszukiwarka.gunb.gov.pl/","parcel_count":2,"parcel_shard":"x063-y211","parcel_id":"300203_2.0005.215","location_source":"powiat czarnkowsko - trzcianecki (wfs)"}},{"type":"Feature","id":"ST-WK-CZ/WNIOSEK/12222/2026::300203_2.0005.220","geometry":{"type":"Polygon","coordinates":[[[15.9166219791482,52.8038386514553],[15.9170102004499,52.8055297267775],[15.9174010502502,52.8072314748207],[15.9174477126065,52.8074543543899],[15.9174846298372,52.8076299471047],[15.9174994792075,52.8077012799782],[15.9175975740471,52.8081692003111],[15.917610119587,52.808222666594],[15.9177047267855,52.8086363974892],[15.9178129474842,52.8091309413614],[15.9178975789339,52.8095138018871],[15.9179819096902,52.8098969291679],[15.9181019438491,52.8104487487074],[15.9180147309387,52.8104415264308],[15.9179255777788,52.8103774969228],[15.9177986269923,52.8098004268404],[15.9176713433469,52.8092214718554],[15.9175194369316,52.8085356498125],[15.9175005806368,52.8084419717147],[15.9174515137986,52.8082055590424],[15.9174438482421,52.8081704637394],[15.9171999442347,52.807071393247],[15.9171764069565,52.8069653745856],[15.9168182656457,52.8053521436571],[15.9168089319085,52.8053078347373],[15.9164757138884,52.8038561466469],[15.9166219791482,52.8038386514553]]]},"properties":{"case_id":"ST-WK-CZ/WNIOSEK/12222/2026","source_type":"wniosek_decyzja","received_date":"2026-06-15","decision_date":"2026-08-06","status":"decyzja wydana","description":"budowa drogi gminnej","address":"Kawczyn","city":"Kawczyn","office":"Starosta Powiatu Czarnków","case_kind":"Obiekt budowlany inny niż budynek mieszkalny jednorodzinny","parcel_ids":["300203_2.0005.215","300203_2.0005.220"],"location_quality":"dokładny","gunb_url":"https://wyszukiwarka.gunb.gov.pl/","parcel_count":2,"parcel_shard":"x063-y211","parcel_id":"300203_2.0005.220","location_source":"powiat czarnkowsko - trzcianecki (wfs)"}},{"type":"Feature","id":"ST-WK-CZ/WNIOSEK/25786/2025::300203_2.0006.522","geometry":{"type":"Polygon","coordinates":[[[15.9731933658684,52.8084308340404],[15.9730580330683,52.8081286268548],[15.9737007978456,52.8080287202132],[15.9738457685291,52.8083173668507],[15.9731933658684,52.8084308340404]]]},"properties":{"case_id":"ST-WK-CZ/WNIOSEK/25786/2025","source_type":"wniosek_decyzja","received_date":"2025-12-15","decision_date":"2026-01-27","status":"decyzja wydana","description":"budynek mieszkalny jednorodzinny w zabudowie wolnostojącej","address":"Kamiennik","city":"Kamiennik","office":"Starosta Powiatu Czarnków","case_kind":"Budynek mieszkalny jednorodzinny","parcel_ids":["300203_2.0006.522"],"location_quality":"dokładny","gunb_url":"https://wyszukiwarka.gunb.gov.pl/","parcel_count":1,"parcel_shard":"x063-y211","parcel_id":"300203_2.0006.522","location_source":"powiat czarnkowsko - trzcianecki (wfs)"}},{"type":"Feature","id":"ST-WK-CZ/WNIOSEK/11659/2026::300203_2.0007.116/1","geometry":{"type":"Polygon","coordinates":[[[15.9538261472057,52.773627675419],[15.9538516759568,52.7733854447707],[15.9539292351831,52.7733540849388],[15.954387450085,52.7734493488747],[15.954239072744,52.773711890286],[15.9538261472057,52.773627675419]]]},"properties":{"case_id":"ST-WK-CZ/WNIOSEK/11659/2026","source_type":"wniosek_decyzja","received_date":"2026-06-11","decision_date":"2026-08-03","status":"decyzja wydana","description":"wolnostojący budynek rekreacji indywidualnej","address":"Kwiejce","city":"Kwiejce","office":"Starosta Powiatu Czarnków","case_kind":"Obiekt budowlany inny niż budynek mieszkalny jednorodzinny","parcel_ids":["300203_2.0007.116/1"],"location_quality":"dokładny","gunb_url":"https://wyszukiwarka.gunb.gov.pl/","parcel_count":1,"parcel_shard":"x063-y211","parcel_id":"300203_2.0007.116/1","location_source":"powiat czarnkowsko - trzcianecki (wfs)"}},{"type":"Feature","id":"ST-WK-CZ/WNIOSEK/3933/2026::300203_2.0007.178","geometry":{"type":"Polygon","coordinates":[[[15.950429470142,52.7836158015027],[15.95033306949,52.7837543761896],[15.9506067057805,52.7838519130112],[15.9504034924015,52.784042399972],[15.9498831935742,52.7838720940381],[15.9501598888958,52.7835224268142],[15.9502628674726,52.7835615052282],[15.950429470142,52.7836158015027]]]},"properties":{"case_id":"ST-WK-CZ/WNIOSEK/3933/2026","source_type":"wniosek_decyzja","received_date":"2026-02-27","decision_date":"2026-04-23","status":"decyzja wydana","description":"zmiana pozwolenia na budowę nr 528/2018, AB.6740.473.2018.Cz z dnia 23.08.2018 - przebudowa bud. mieszkalnego i adaptacja poddasza na cele mieszkania","address":"Kwiejce","city":"Kwiejce","office":"Starosta Powiatu Czarnków","case_kind":"Budynek mieszkalny jednorodzinny","parcel_ids":["300203_2.0007.178"],"location_quality":"dokładny","gunb_url":"https://wyszukiwarka.gunb.gov.pl/","parcel_count":1,"parcel_shard":"x063-y211","parcel_id":"300203_2.0007.178","location_source":"powiat czarnkowsko - trzcianecki (wfs)"}},{"type":"Feature","id":"ST-WK-CZ/ZGŁOSZENIE/3885/2025::300203_2.0007.219/2","geometry":{"type":"Polygon","coordinates":[[[15.9485796084612,52.7977776762777],[15.9490589373627,52.7978439436631],[15.9491670463565,52.797858357185],[15.9496403461716,52.7978791953959],[15.9503292230913,52.7979094962364],[15.9500786832055,52.7983891189547],[15.9498203368042,52.7987700904429],[15.9476591159248,52.7980160007943],[15.9458184822212,52.7973825312025],[15.9458234556701,52.7973612187679],[15.9465043610062,52.796928140074],[15.9465156190946,52.7968616487948],[15.9474329754429,52.7963160868943],[15.948946607448,52.7958440292157],[15.9490009289568,52.7963812509094],[15.9489979095676,52.7971947672317],[15.9488078275413,52.7975472183129],[15.9485796084612,52.7977776762777]]]},"properties":{"case_id":"ST-WK-CZ/ZGŁOSZENIE/3885/2025","source_type":"zgloszenie","received_date":"2025-11-18","decision_date":null,"status":"Brak sprzeciwu","description":"rozbudowa budynku mieszkalnego","address":"33, Kwiejce","city":"Kwiejce","office":"Starosta Powiatu Czarnków","case_kind":"rozbudowa istniejącego/istniejących obiektów budowlanych","parcel_ids":["300203_2.0007.219/2"],"location_quality":"dokładny","gunb_url":"https://wyszukiwarka.gunb.gov.pl/","parcel_count":1,"parcel_shard":"x063-y211","parcel_id":"300203_2.0007.219/2","location_source":"powiat czarnkowsko - trzcianecki (wfs)"}},{"type":"Feature","id":"ST-WK-CZ/WNIOSEK/11657/2026::300203_2.0008.45/3","geometry":{"type":"Polygon","coordinates":[[[15.9969746305842,52.7509307999494],[15.9970221480111,52.7507479410209],[15.9973340026753,52.7507641296035],[15.9973675428689,52.7511801468387],[15.9969746305842,52.7509307999494]]]},"properties":{"case_id":"ST-WK-CZ/WNIOSEK/11657/2026","source_type":"wniosek_decyzja","received_date":"2026-06-10","decision_date":"2026-07-17","status":"decyzja wydana","description":"budynek letniskowy","address":"Kwiejce Nowe","city":"Kwiejce Nowe","office":"Starosta Powiatu Czarnków","case_kind":"Obiekt budowlany inny niż budynek mieszkalny jednorodzinny","parcel_ids":["300203_2.0008.45/3"],"location_quality":"dokładny","gunb_url":"https://wyszukiwarka.gunb.gov.pl/","parcel_count":1,"parcel_shard":"x063-y211","parcel_id":"300203_2.0008.45/3","location_source":"powiat czarnkowsko - trzcianecki (wfs)"}},{"type":"Feature","id":"ST-WK-CZ/WNIOSEK/24269/2025::300204_4.0001.1373/111","geometry":{"type":"Polygon","coordinates":[[[15.9987162839664,52.8822101992583],[15.998604881287,52.8821851633508],[15.9993054677907,52.881040068807],[15.9992796905728,52.8810044272573],[15.9993209305317,52.8810147748831],[15.9994761511869,52.8810460918069],[15.99941859036,52.8810624833274],[15.9993248072323,52.881215693317],[15.9993512962764,52.881249980805],[16.0008575061457,52.8815712570811],[16.0007405823375,52.8816225699945],[16.0003188281311,52.8815325675385],[15.9999685878516,52.8814578686139],[15.999618348764,52.8813831686497],[15.9993240948848,52.8813203987615],[15.999245570376,52.8813425385756],[15.9990566314051,52.8816540024887],[15.9989535401742,52.881822478619],[15.9988503016836,52.8819910457615],[15.9987162839664,52.8822101992583]]]},"properties":{"case_id":"ST-WK-CZ/WNIOSEK/24269/2025","source_type":"wniosek_decyzja","received_date":"2025-11-24","decision_date":"2025-12-01","status":"decyzja wydana","description":"zmiana pozwolenia na budowę","address":"Krzyż Wielkopolski","city":"Krzyż Wielkopolski","office":"Starosta Powiatu Czarnków","case_kind":"Obiekt budowlany inny niż budynek mieszkalny jednorodzinny","parcel_ids":["300204_4.0001.1373/111"],"location_quality":"dokładny","gunb_url":"https://wyszukiwarka.gunb.gov.pl/","parcel_count":1,"parcel_shard":"x063-y211","parcel_id":"300204_4.0001.1373/111","location_source":"powiat czarnkowsko - trzcianecki (wfs)"}},{"type":"Feature","id":"ST-WK-CZ/WNIOSEK/5071/2026::300204_4.0001.1373/118","geometry":{"type":"Polygon","coordinates":[[[15.9994158291058,52.8817306058811],[15.9990566314051,52.8816540024887],[15.999245570376,52.8813425385756],[15.9993240948848,52.8813203987615],[15.999618348764,52.8813831686497],[15.9994158291058,52.8817306058811]]]},"properties":{"case_id":"ST-WK-CZ/WNIOSEK/5071/2026","source_type":"wniosek_decyzja","received_date":"2026-03-11","decision_date":"2026-05-14","status":"decyzja wydana","description":"Budynek mieszkalny jednorodzinny","address":"Książ Wielkopolski","city":"Książ Wielkopolski","office":"Starosta Powiatu Czarnków","case_kind":"Budynek mieszkalny jednorodzinny","parcel_ids":["300204_4.0001.1373/118"],"location_quality":"dokładny","gunb_url":"https://wyszukiwarka.gunb.gov.pl/","parcel_count":1,"parcel_shard":"x063-y211","parcel_id":"300204_4.0001.1373/118","location_source":"powiat czarnkowsko - trzcianecki (wfs)"}},{"type":"Feature","id":"ST-WK-CZ/WNIOSEK/3439/2026::300204_4.0001.493/4","geometry":{"type":"Polygon","coordinates":[[[15.993510864415,52.8755487169334],[15.9939734427433,52.8757681448574],[15.9935637367548,52.8760763284015],[15.9931487542188,52.8758723987981],[15.9931455953095,52.8757312831649],[15.993510864415,52.8755487169334]]]},"properties":{"case_id":"ST-WK-CZ/WNIOSEK/3439/2026","source_type":"wniosek_decyzja","received_date":"2026-02-12","decision_date":"2026-03-17","status":"decyzja wydana","description":"rozbudowa budynku usługowo-warsztatowego","address":"Krzyż Wielkopolski","city":"Krzyż Wielkopolski","office":"Starosta Powiatu Czarnków","case_kind":"Obiekt budowlany inny niż budynek mieszkalny jednorodzinny","parcel_ids":["300204_4.0001.493/4"],"location_quality":"dokładny","gunb_url":"https://wyszukiwarka.gunb.gov.pl/","parcel_count":1,"parcel_shard":"x063-y211","parcel_id":"300204_4.0001.493/4","location_source":"powiat czarnkowsko - trzcianecki (wfs)"}}]}