{"type":"FeatureCollection","features":[{"type":"Feature","id":"ST-WK-CZ/ZGŁOSZENIE/3829/2025::300208_5.0004.11/3","geometry":{"type":"Polygon","coordinates":[[[16.2232121861919,53.0124027811803],[16.226444266572,53.0116041516298],[16.2262211467426,53.0112396001672],[16.2259011586512,53.010874429274],[16.2252807107076,53.0105646586061],[16.2250785605578,53.0104717479853],[16.2243018122584,53.0097037137094],[16.2243763919747,53.0096854210296],[16.2263597660659,53.0092012598632],[16.2287714302911,53.0086752567561],[16.228942960561,53.0086383508879],[16.2293132974323,53.0089903292138],[16.2294186125256,53.0091380018954],[16.2296413429493,53.0092307183743],[16.2299306689325,53.0097890178171],[16.2304700590337,53.0103032679378],[16.2309555805978,53.0106960949329],[16.2310869635428,53.0108471285191],[16.2311221071428,53.0108980929288],[16.2310728475507,53.0112811306927],[16.2309833895474,53.0115786434882],[16.2322934935338,53.0121260227274],[16.2323484479388,53.0123021919487],[16.2324445984329,53.0124117096139],[16.2328139081639,53.0124912708759],[16.2329954067991,53.0127102657864],[16.2333775383899,53.0128583040664],[16.2339853335864,53.0134014632309],[16.2337423089026,53.0136580089243],[16.2338306887058,53.0137349103524],[16.2337470357384,53.0139936676495],[16.2342151387613,53.0141908969775],[16.2340246203504,53.0143303232711],[16.2344510744298,53.0146398228768],[16.2347071030218,53.0147026712789],[16.2347473159057,53.0147337751107],[16.2347388674517,53.0147679601318],[16.2346511233134,53.0148963568056],[16.2348136810236,53.015056689467],[16.2330608543614,53.0156427647577],[16.232591364096,53.0157966962096],[16.2325541642263,53.0158103143547],[16.2337616010092,53.0171515501455],[16.2342576059041,53.0182942742525],[16.2337338370189,53.018446853259],[16.2334237838085,53.0185448853069],[16.2331032873016,53.0180081230593],[16.2331854002095,53.017801016769],[16.2317237678697,53.0160532853603],[16.2253800192526,53.0180249062081],[16.2240561309665,53.0164738107294],[16.2224405890752,53.0143932548344],[16.2213435406184,53.0129187932202],[16.2232121861919,53.0124027811803]]]},"properties":{"case_id":"ST-WK-CZ/ZGŁOSZENIE/3829/2025","source_type":"zgloszenie","received_date":"2025-11-04","decision_date":null,"status":"Brak sprzeciwu","description":"Budowa linii napowietrznej nn 0,4kV oraz kablowanie nn 0,4kV, demontaż istnejącej lini nn 0,4 kV","address":"Dzierżążno Wielkie","city":"Dzierżążno Wielkie","office":"Starosta Powiatu Czarnków","case_kind":"budowa nowego/nowych obiektów budowlanych","parcel_ids":["300208_5.0004.11/3","300208_5.0004.19","300208_5.0004.20","300208_5.0004.41","300208_5.0004.63/1","300208_5.0004.64/2","300208_5.0004.67/3"],"location_quality":"dokładny","gunb_url":"https://wyszukiwarka.gunb.gov.pl/","parcel_count":7,"parcel_shard":"x064-y212","parcel_id":"300208_5.0004.11/3","location_source":"powiat czarnkowsko - trzcianecki (wfs)"}},{"type":"Feature","id":"ST-WK-CZ/ZGŁOSZENIE/3829/2025::300208_5.0004.19","geometry":{"type":"Polygon","coordinates":[[[16.230970579754,53.0204125908596],[16.2306168327048,53.0200648292359],[16.230087424823,53.0194959062291],[16.2321510945324,53.018916582347],[16.2334237838085,53.0185448853069],[16.2337338370189,53.018446853259],[16.2342576059041,53.0182942742525],[16.2347299999189,53.0191909481762],[16.233284013013,53.0196411869383],[16.230970579754,53.0204125908596]]]},"properties":{"case_id":"ST-WK-CZ/ZGŁOSZENIE/3829/2025","source_type":"zgloszenie","received_date":"2025-11-04","decision_date":null,"status":"Brak sprzeciwu","description":"Budowa linii napowietrznej nn 0,4kV oraz kablowanie nn 0,4kV, demontaż istnejącej lini nn 0,4 kV","address":"Dzierżążno Wielkie","city":"Dzierżążno Wielkie","office":"Starosta Powiatu Czarnków","case_kind":"budowa nowego/nowych obiektów budowlanych","parcel_ids":["300208_5.0004.11/3","300208_5.0004.19","300208_5.0004.20","300208_5.0004.41","300208_5.0004.63/1","300208_5.0004.64/2","300208_5.0004.67/3"],"location_quality":"dokładny","gunb_url":"https://wyszukiwarka.gunb.gov.pl/","parcel_count":7,"parcel_shard":"x064-y212","parcel_id":"300208_5.0004.19","location_source":"powiat czarnkowsko - trzcianecki (wfs)"}},{"type":"Feature","id":"ST-WK-CZ/ZGŁOSZENIE/3829/2025::300208_5.0004.20","geometry":{"type":"Polygon","coordinates":[[[16.2283063653937,53.0213411365887],[16.2282125016293,53.0212942739936],[16.2292748234361,53.020946283228],[16.2298743753393,53.0207659569512],[16.230970579754,53.0204125908596],[16.233284013013,53.0196411869383],[16.2347299999189,53.0191909481762],[16.2347626886458,53.0192480101813],[16.2333298463898,53.0196884260821],[16.2327928072794,53.01987313681],[16.2323569559404,53.0200192055439],[16.2309726371204,53.0204692833309],[16.2299163693536,53.0208121411319],[16.2296003898723,53.0209130173914],[16.229310650224,53.0210036747872],[16.228945811527,53.0211219618785],[16.2283063653937,53.0213411365887]]]},"properties":{"case_id":"ST-WK-CZ/ZGŁOSZENIE/3829/2025","source_type":"zgloszenie","received_date":"2025-11-04","decision_date":null,"status":"Brak sprzeciwu","description":"Budowa linii napowietrznej nn 0,4kV oraz kablowanie nn 0,4kV, demontaż istnejącej lini nn 0,4 kV","address":"Dzierżążno Wielkie","city":"Dzierżążno Wielkie","office":"Starosta Powiatu Czarnków","case_kind":"budowa nowego/nowych obiektów budowlanych","parcel_ids":["300208_5.0004.11/3","300208_5.0004.19","300208_5.0004.20","300208_5.0004.41","300208_5.0004.63/1","300208_5.0004.64/2","300208_5.0004.67/3"],"location_quality":"dokładny","gunb_url":"https://wyszukiwarka.gunb.gov.pl/","parcel_count":7,"parcel_shard":"x064-y212","parcel_id":"300208_5.0004.20","location_source":"powiat czarnkowsko - trzcianecki (wfs)"}},{"type":"Feature","id":"ST-WK-CZ/ZGŁOSZENIE/3829/2025::300208_5.0004.41","geometry":{"type":"Polygon","coordinates":[[[16.2301246151443,53.0265893588739],[16.2300777663971,53.0265121926857],[16.2301361237764,53.0264938242971],[16.2303089665354,53.0264444577705],[16.2306633398865,53.0262447357824],[16.2311792600156,53.0259445093588],[16.2314376768445,53.0257909412329],[16.231777050297,53.025585757203],[16.2320000422249,53.0254498098746],[16.23239362862,53.0252066762747],[16.2320465511184,53.0250210047588],[16.2316846876502,53.0252736944558],[16.2316174419713,53.0253200451181],[16.2315931741935,53.0253367427458],[16.2311120038938,53.0254461541611],[16.2308388653732,53.0255066781435],[16.2305542673606,53.0255678592867],[16.2305296289419,53.0255663167993],[16.2304673667221,53.0254914018048],[16.2311090581181,53.0253834085942],[16.2311650453185,53.0253739988616],[16.2312672452185,53.0253544967488],[16.2315282526888,53.0252972428622],[16.2316586459006,53.025207190288],[16.2320186844698,53.024958473877],[16.2321566398041,53.0248720618358],[16.232375273384,53.0247403131175],[16.2326283086586,53.0245938593481],[16.2328409067923,53.0244419604935],[16.2328757663764,53.0244139604348],[16.2330981437134,53.0242354938824],[16.2332810103159,53.0240990583791],[16.2333606364694,53.0240396493806],[16.2338363482585,53.0237156250934],[16.2341752194999,53.0234824017131],[16.2342102391077,53.023453143307],[16.2344122179141,53.023271721592],[16.2346048341161,53.0231170772304],[16.2347453192494,53.0230050778442],[16.2347840821478,53.0229741193649],[16.2349624529356,53.0228317994246],[16.2349988853499,53.0228027523571],[16.2352232883579,53.0225872974915],[16.2352723094232,53.0225241781277],[16.2352815624853,53.0225053934016],[16.2352738982392,53.0224206846322],[16.2352367257444,53.0223076425419],[16.235275129558,53.0222975175814],[16.2353143787939,53.0224156992545],[16.235329881777,53.0225362752845],[16.2353210060795,53.0225662725036],[16.2352876365349,53.0226049312976],[16.2350464554859,53.0228244564164],[16.2347969641183,53.0230233246127],[16.2346524044052,53.0231387814453],[16.2344913563218,53.0233164026143],[16.2343511128775,53.0234202260177],[16.2339653636142,53.0237060302954],[16.2341686775016,53.0238075992988],[16.2346007676122,53.023716071786],[16.234795280089,53.0235658053493],[16.2350790119148,53.0233465759548],[16.2352229108518,53.0232199386372],[16.2355103824163,53.023014021722],[16.2358161455134,53.0226681742256],[16.2359628384948,53.0224971536947],[16.2359795090809,53.02247028885],[16.2359388894975,53.0223058881491],[16.2358874183148,53.0221841989082],[16.2357813368842,53.0212812864738],[16.2357728501891,53.0212059495048],[16.2358010649299,53.0211666883379],[16.2358419834073,53.0211183138957],[16.2359336471345,53.0213858129857],[16.2359074582534,53.0216958343722],[16.2359335797983,53.0218866146996],[16.2359918978984,53.0222541022806],[16.236073984639,53.0224591515702],[16.2360154944999,53.0226544194666],[16.235879192467,53.0228506755183],[16.2357343148404,53.0229803679025],[16.2355540743712,53.0231986178014],[16.234740245533,53.0238243015973],[16.2345379510633,53.0239798108733],[16.2343882252648,53.0240590325107],[16.233985074673,53.0243852107749],[16.2334785219831,53.024692586305],[16.233215188978,53.0248530207595],[16.2326976643696,53.0251535213672],[16.2325601441204,53.0252523179455],[16.2323346770689,53.0253816155628],[16.2320393306005,53.0255528027903],[16.2317275910883,53.0257383072846],[16.2312069692844,53.0260481345906],[16.2311605073772,53.026072419559],[16.2310136911568,53.0261550330841],[16.2308641056503,53.0262328586682],[16.2305616651493,53.0263882882263],[16.2301246151443,53.0265893588739]],[[16.233915244962,53.023910724797],[16.2330798777045,53.0244196166202],[16.2333567947811,53.0245710708135],[16.23419983141,53.0240564217759],[16.233915244962,53.023910724797]],[[16.2329784633159,53.0245316988273],[16.2326877071609,53.0247067693708],[16.2323890004035,53.024886662411],[16.2326090359363,53.0250299030725],[16.2329142782495,53.0248226246846],[16.2331878517503,53.0246369765798],[16.2329784633159,53.0245316988273]]]},"properties":{"case_id":"ST-WK-CZ/ZGŁOSZENIE/3829/2025","source_type":"zgloszenie","received_date":"2025-11-04","decision_date":null,"status":"Brak sprzeciwu","description":"Budowa linii napowietrznej nn 0,4kV oraz kablowanie nn 0,4kV, demontaż istnejącej lini nn 0,4 kV","address":"Dzierżążno Wielkie","city":"Dzierżążno Wielkie","office":"Starosta Powiatu Czarnków","case_kind":"budowa nowego/nowych obiektów budowlanych","parcel_ids":["300208_5.0004.11/3","300208_5.0004.19","300208_5.0004.20","300208_5.0004.41","300208_5.0004.63/1","300208_5.0004.64/2","300208_5.0004.67/3"],"location_quality":"dokładny","gunb_url":"https://wyszukiwarka.gunb.gov.pl/","parcel_count":7,"parcel_shard":"x064-y212","parcel_id":"300208_5.0004.41","location_source":"powiat czarnkowsko - trzcianecki (wfs)"}},{"type":"Feature","id":"ST-WK-CZ/ZGŁOSZENIE/3829/2025::300208_5.0004.63/1","geometry":{"type":"Polygon","coordinates":[[[16.2346999265379,53.021181644559],[16.2333298463898,53.0196884260821],[16.2347626886458,53.0192480101813],[16.2357728501891,53.0212059495048],[16.2357813368842,53.0212812864738],[16.2346999265379,53.021181644559]]]},"properties":{"case_id":"ST-WK-CZ/ZGŁOSZENIE/3829/2025","source_type":"zgloszenie","received_date":"2025-11-04","decision_date":null,"status":"Brak sprzeciwu","description":"Budowa linii napowietrznej nn 0,4kV oraz kablowanie nn 0,4kV, demontaż istnejącej lini nn 0,4 kV","address":"Dzierżążno Wielkie","city":"Dzierżążno Wielkie","office":"Starosta Powiatu Czarnków","case_kind":"budowa nowego/nowych obiektów budowlanych","parcel_ids":["300208_5.0004.11/3","300208_5.0004.19","300208_5.0004.20","300208_5.0004.41","300208_5.0004.63/1","300208_5.0004.64/2","300208_5.0004.67/3"],"location_quality":"dokładny","gunb_url":"https://wyszukiwarka.gunb.gov.pl/","parcel_count":7,"parcel_shard":"x064-y212","parcel_id":"300208_5.0004.63/1","location_source":"powiat czarnkowsko - trzcianecki (wfs)"}},{"type":"Feature","id":"ST-WK-CZ/ZGŁOSZENIE/3829/2025::300208_5.0004.64/2","geometry":{"type":"Polygon","coordinates":[[[16.2346999265379,53.021181644559],[16.2357813368842,53.0212812864738],[16.2358874183148,53.0221841989082],[16.2355185659231,53.0222324275463],[16.235344285692,53.0220952080369],[16.2352649101316,53.0219514305804],[16.235197669124,53.0218707520656],[16.2346999265379,53.021181644559]]]},"properties":{"case_id":"ST-WK-CZ/ZGŁOSZENIE/3829/2025","source_type":"zgloszenie","received_date":"2025-11-04","decision_date":null,"status":"Brak sprzeciwu","description":"Budowa linii napowietrznej nn 0,4kV oraz kablowanie nn 0,4kV, demontaż istnejącej lini nn 0,4 kV","address":"Dzierżążno Wielkie","city":"Dzierżążno Wielkie","office":"Starosta Powiatu Czarnków","case_kind":"budowa nowego/nowych obiektów budowlanych","parcel_ids":["300208_5.0004.11/3","300208_5.0004.19","300208_5.0004.20","300208_5.0004.41","300208_5.0004.63/1","300208_5.0004.64/2","300208_5.0004.67/3"],"location_quality":"dokładny","gunb_url":"https://wyszukiwarka.gunb.gov.pl/","parcel_count":7,"parcel_shard":"x064-y212","parcel_id":"300208_5.0004.64/2","location_source":"powiat czarnkowsko - trzcianecki (wfs)"}},{"type":"Feature","id":"ST-WK-CZ/ZGŁOSZENIE/3829/2025::300208_5.0004.67/3","geometry":{"type":"Polygon","coordinates":[[[16.2359335797983,53.0218866146996],[16.2359074582534,53.0216958343722],[16.2359336471345,53.0213858129857],[16.2364257940936,53.0214118644171],[16.2365506033362,53.0215397434053],[16.2365196109435,53.0216738854262],[16.2364883046037,53.0218097325719],[16.2359335797983,53.0218866146996]]]},"properties":{"case_id":"ST-WK-CZ/ZGŁOSZENIE/3829/2025","source_type":"zgloszenie","received_date":"2025-11-04","decision_date":null,"status":"Brak sprzeciwu","description":"Budowa linii napowietrznej nn 0,4kV oraz kablowanie nn 0,4kV, demontaż istnejącej lini nn 0,4 kV","address":"Dzierżążno Wielkie","city":"Dzierżążno Wielkie","office":"Starosta Powiatu Czarnków","case_kind":"budowa nowego/nowych obiektów budowlanych","parcel_ids":["300208_5.0004.11/3","300208_5.0004.19","300208_5.0004.20","300208_5.0004.41","300208_5.0004.63/1","300208_5.0004.64/2","300208_5.0004.67/3"],"location_quality":"dokładny","gunb_url":"https://wyszukiwarka.gunb.gov.pl/","parcel_count":7,"parcel_shard":"x064-y212","parcel_id":"300208_5.0004.67/3","location_source":"powiat czarnkowsko - trzcianecki (wfs)"}},{"type":"Feature","id":"ST-WK-CZ/WNIOSEK/5387/2026::300208_5.0004.43","geometry":{"type":"Polygon","coordinates":[[[16.2333567947811,53.0245710708135],[16.2330798777045,53.0244196166202],[16.233915244962,53.023910724797],[16.23419983141,53.0240564217759],[16.2333567947811,53.0245710708135]]]},"properties":{"case_id":"ST-WK-CZ/WNIOSEK/5387/2026","source_type":"wniosek_decyzja","received_date":"2026-01-28","decision_date":"2026-03-25","status":"decyzja wydana","description":"Remont kościoła zabytkowego","address":"Dzierżążno Małe","city":"Dzierżążno Małe","office":"Starosta Powiatu Czarnków","case_kind":"Obiekt budowlany inny niż budynek mieszkalny jednorodzinny","parcel_ids":["300208_5.0004.43"],"location_quality":"dokładny","gunb_url":"https://wyszukiwarka.gunb.gov.pl/","parcel_count":1,"parcel_shard":"x064-y212","parcel_id":"300208_5.0004.43","location_source":"powiat czarnkowsko - trzcianecki (wfs)"}},{"type":"Feature","id":"ST-WK-CZ/WNIOSEK/5382/2026::300208_5.0004.76/2","geometry":{"type":"Polygon","coordinates":[[[16.2322338058247,53.0257702931988],[16.2325316287551,53.025624043255],[16.2325554610191,53.0256495891351],[16.2329930899171,53.0261041120131],[16.2333730499885,53.0265328093897],[16.2330112408418,53.0266516851575],[16.2327298685177,53.0263347524318],[16.2324440867016,53.0260146293946],[16.2322338058247,53.0257702931988]]]},"properties":{"case_id":"ST-WK-CZ/WNIOSEK/5382/2026","source_type":"wniosek_decyzja","received_date":"2026-01-18","decision_date":"2026-06-26","status":"decyzja wydana","description":"Budowa budynku mieszkalnego jednorodzinego ze szczelnym zbiornikiem bezodpływowym na nieczystosci ciekłe o pojemności do 10m3","address":"Dzierżążno Małe","city":"Dzierżążno Małe","office":"Starosta Powiatu Czarnków","case_kind":"Budynek mieszkalny jednorodzinny","parcel_ids":["300208_5.0004.76/2"],"location_quality":"dokładny","gunb_url":"https://wyszukiwarka.gunb.gov.pl/","parcel_count":1,"parcel_shard":"x064-y212","parcel_id":"300208_5.0004.76/2","location_source":"powiat czarnkowsko - trzcianecki (wfs)"}}]}