{"type":"FeatureCollection","features":[{"type":"Feature","id":"ST-WK-PI/WNIOSEK/22665/2025::301906_2.0064.317","geometry":{"type":"Polygon","coordinates":[[[16.692331114508,53.2701465989446],[16.692793268742,53.2701716174368],[16.6931791032688,53.2701234540771],[16.6932861966579,53.2700477908586],[16.6934794270774,53.2704657267263],[16.6941703326789,53.271396327596],[16.6940980803258,53.2714650040507],[16.6940131687691,53.2715309356365],[16.6941482664577,53.2718842476453],[16.6940364554293,53.2719057660335],[16.6940649118388,53.2719455317956],[16.6938577186921,53.2719781223482],[16.6925935524812,53.2721274792776],[16.6925360884386,53.2712552991874],[16.6915341825364,53.2714579240551],[16.6915245607963,53.2713950008728],[16.6913400433545,53.2701916229069],[16.6912850739378,53.2698906812947],[16.6913967359644,53.2698569483103],[16.6914055440662,53.2699514061964],[16.6915157137703,53.269966544816],[16.6917852599042,53.2700987325623],[16.692331114508,53.2701465989446]]]},"properties":{"case_id":"ST-WK-PI/WNIOSEK/22665/2025","source_type":"wniosek_decyzja","received_date":"2025-10-29","decision_date":"2025-11-07","status":"decyzja wydana","description":"przebudowa i rozbudowa obiektu pstrągowego w Tarnowie - 4 budynki - narybkowy 12, narybkowy 13a, narybkowy 13b oraz tuczowy 13c","address":"Tarnowo","city":"Tarnowo","office":"Starosta Powiatu Piła","case_kind":"Obiekt budowlany inny niż budynek mieszkalny jednorodzinny","parcel_ids":["301906_2.0064.317"],"location_quality":"dokładny","gunb_url":"https://wyszukiwarka.gunb.gov.pl/","parcel_count":1,"parcel_shard":"x066-y213","parcel_id":"301906_2.0064.317","location_source":"powiat pilski (wfs)"}},{"type":"Feature","id":"ST-WK-PI/WNIOSEK/5265/2026::301906_2.0064.48/6","geometry":{"type":"Polygon","coordinates":[[[16.6976247111735,53.2648385336482],[16.6979839090365,53.2647230225759],[16.6980489346432,53.2647633644037],[16.6987996651933,53.2652296164857],[16.698840838325,53.2653249662494],[16.6988996480453,53.2654614881884],[16.6987398461752,53.2655805264924],[16.6986238332145,53.2652891669259],[16.6984675295296,53.2653423699438],[16.698050698061,53.265208588867],[16.6978031541924,53.2650284862916],[16.6976247111735,53.2648385336482]]]},"properties":{"case_id":"ST-WK-PI/WNIOSEK/5265/2026","source_type":"wniosek_decyzja","received_date":"2026-03-18","decision_date":"2026-05-22","status":"decyzja wydana","description":"budowa budynku mieszkalnego jednorodzinnego z infrastrukturą","address":"Tarnowo","city":"Tarnowo","office":"Starosta Powiatu Piła","case_kind":"Budynek mieszkalny jednorodzinny","parcel_ids":["301906_2.0064.48/6"],"location_quality":"dokładny","gunb_url":"https://wyszukiwarka.gunb.gov.pl/","parcel_count":1,"parcel_shard":"x066-y213","parcel_id":"301906_2.0064.48/6","location_source":"powiat pilski (wfs)"}},{"type":"Feature","id":"ST-WK-PI/WNIOSEK/24911/2025::301906_2.0065.10","geometry":{"type":"Polygon","coordinates":[[[16.7095373199138,53.2713056269747],[16.7098253882817,53.2711135519656],[16.7104645335707,53.270862096888],[16.7112231468765,53.2715028772453],[16.7104956446922,53.2720350258975],[16.7095473299509,53.271301781139],[16.7095373199138,53.2713056269747]]]},"properties":{"case_id":"ST-WK-PI/WNIOSEK/24911/2025","source_type":"wniosek_decyzja","received_date":"2025-12-02","decision_date":"2026-04-03","status":"decyzja wydana","description":"budowa budynku mieszkalnego jednorodzinnego w zabudowie zagrodowej","address":"Zabrodzie","city":"Zabrodzie","office":"Starosta Powiatu Piła","case_kind":"Budynek mieszkalny jednorodzinny","parcel_ids":["301906_2.0065.10"],"location_quality":"dokładny","gunb_url":"https://wyszukiwarka.gunb.gov.pl/","parcel_count":1,"parcel_shard":"x066-y213","parcel_id":"301906_2.0065.10","location_source":"powiat pilski (wfs)"}},{"type":"Feature","id":"ST-WK-ZL/ZGŁOSZENIE/3880/2025::303102_5.0007.1074","geometry":{"type":"Polygon","coordinates":[[[16.5811864756127,53.4606847219308],[16.5854155148678,53.4619248028539],[16.5871918408995,53.462433701987],[16.5877369986671,53.4626139403629],[16.5879071875632,53.462675219273],[16.588040303895,53.4627059063124],[16.5880256399372,53.4627320271461],[16.5881947533729,53.4627781863103],[16.5882263443153,53.4627534423703],[16.5901222508838,53.4632771884913],[16.5920857553138,53.4637925794792],[16.5931221080332,53.4640602423057],[16.5932713439162,53.4640987850184],[16.5933657041396,53.4641032348864],[16.5967891565966,53.4648462733281],[16.5968599049879,53.4648616275057],[16.5969845160297,53.4648954361981],[16.5970817400815,53.4649573245047],[16.5971286751429,53.4649879730073],[16.5971483960726,53.4649947070349],[16.5979101851884,53.4652017373792],[16.598119876364,53.4652583473563],[16.5982109173583,53.4652895408062],[16.5985690750191,53.4653849105709],[16.5987690148606,53.4654458747785],[16.5991432616085,53.4655638032404],[16.5993052071668,53.4655507826508],[16.5993860313188,53.4655748707684],[16.599464735112,53.4655994514863],[16.5998023621184,53.4657048980297],[16.6001433257374,53.4658113851666],[16.600453903163,53.4659091230238],[16.6008819271694,53.4660435701713],[16.6011885861055,53.4661385995561],[16.6013589897802,53.4661910397839],[16.6014083407576,53.4662073405526],[16.6014443485225,53.4662209577983],[16.6015245194848,53.4662500209626],[16.6017322762733,53.4663262327997],[16.6019986609126,53.4664249182478],[16.6022922797841,53.4665353609551],[16.6025810825308,53.4666423546637],[16.6029463756572,53.4667760286176],[16.6035528593683,53.4670007086911],[16.6036040289266,53.4670196648997],[16.6035340104582,53.4671726616119],[16.6034189439003,53.4671299492229],[16.6033550181485,53.4671062200737],[16.6032529887846,53.4670683467912],[16.6023767209982,53.4667430700303],[16.601821077122,53.4665368052285],[16.6016768475693,53.4664859155342],[16.6013416126668,53.4663676307252],[16.6009650096197,53.4662500408829],[16.600738247649,53.4661792784031],[16.6003239928698,53.4660500148486],[16.6002417980002,53.4660243659623],[16.599844632487,53.4659006389369],[16.5992258152159,53.4657151004307],[16.5991054645858,53.4656781235394],[16.5988698510414,53.4656057323966],[16.5988140524855,53.4655885761374],[16.5985337908729,53.4655024137627],[16.5982536475756,53.4654163725768],[16.5982470854949,53.4654143872362],[16.5979595975402,53.4653435668599],[16.5976683738213,53.4652695142632],[16.5973784763566,53.4651963751809],[16.5973236404185,53.4651832400158],[16.5964596479597,53.4649966750502],[16.5963108472108,53.4649647044151],[16.5961620464202,53.464932733512],[16.5955819086073,53.4648079514454],[16.5952620671463,53.4647351257855],[16.5949006344086,53.4646524441461],[16.5925275664845,53.4641094749978],[16.5920413540598,53.4639823339081],[16.59179332174,53.463917294192],[16.5899982833146,53.4634462676312],[16.5885985118728,53.4630063499259],[16.5883535017604,53.4629440162287],[16.5881771242686,53.4628988078797],[16.5879805696773,53.462843037735],[16.5877767903264,53.4627847139841],[16.5875093414427,53.4627082822349],[16.5873193825629,53.4626538717575],[16.5867110720565,53.4624799008751],[16.5852930932227,53.4620741061094],[16.5831939633176,53.4614626711406],[16.5811835896142,53.4608731820171],[16.5810607338381,53.4608380559095],[16.5811864756127,53.4606847219308]]]},"properties":{"case_id":"ST-WK-ZL/ZGŁOSZENIE/3880/2025","source_type":"zgloszenie","received_date":"2025-12-02","decision_date":null,"status":"Brak sprzeciwu","description":"Budowa sieci elektroenergetycznej kablowej nN-0,4 kV","address":"Sypniewo","city":"Sypniewo","office":"Starosta Powiatu Złotów","case_kind":"budowa nowego/nowych obiektów budowlanych","parcel_ids":["303102_5.0007.1074","303102_5.0007.368/10","303102_5.0007.375","303102_5.0007.379/23","303102_5.0007.379/27"],"location_quality":"dokładny","gunb_url":"https://wyszukiwarka.gunb.gov.pl/","parcel_count":5,"parcel_shard":"x066-y213","parcel_id":"303102_5.0007.1074","location_source":"powiat złotowski (wfs)"}},{"type":"Feature","id":"ST-WK-ZL/ZGŁOSZENIE/3880/2025::303102_5.0007.368/10","geometry":{"type":"Polygon","coordinates":[[[16.5960091282579,53.4621699576253],[16.5958159225536,53.4624438454386],[16.595622596422,53.4627167429982],[16.5954134703692,53.4630120108789],[16.5954515112283,53.4630639513749],[16.59572616935,53.4630781437134],[16.5959831216905,53.4631086627012],[16.5965220802936,53.4631725994501],[16.5965968172698,53.4631529879303],[16.5965405263006,53.4632297013635],[16.59571356105,53.463131645563],[16.5952478268227,53.4631076579061],[16.5954583804424,53.4628102503083],[16.5956927787293,53.4624792431089],[16.5958747316903,53.4622223876618],[16.59585106493,53.4621911955695],[16.5958783757036,53.462148470697],[16.5960091282579,53.4621699576253]]]},"properties":{"case_id":"ST-WK-ZL/ZGŁOSZENIE/3880/2025","source_type":"zgloszenie","received_date":"2025-12-02","decision_date":null,"status":"Brak sprzeciwu","description":"Budowa sieci elektroenergetycznej kablowej nN-0,4 kV","address":"Sypniewo","city":"Sypniewo","office":"Starosta Powiatu Złotów","case_kind":"budowa nowego/nowych obiektów budowlanych","parcel_ids":["303102_5.0007.1074","303102_5.0007.368/10","303102_5.0007.375","303102_5.0007.379/23","303102_5.0007.379/27"],"location_quality":"dokładny","gunb_url":"https://wyszukiwarka.gunb.gov.pl/","parcel_count":5,"parcel_shard":"x066-y213","parcel_id":"303102_5.0007.368/10","location_source":"powiat złotowski (wfs)"}},{"type":"Feature","id":"ST-WK-ZL/ZGŁOSZENIE/3880/2025::303102_5.0007.375","geometry":{"type":"Polygon","coordinates":[[[16.5967553025926,53.4644203189287],[16.5963707353645,53.4635750138451],[16.5963777178828,53.4634944719636],[16.5964246886015,53.4633629868352],[16.5964869101967,53.4632867463116],[16.5965405263006,53.4632297013635],[16.5965968172698,53.4631529879303],[16.5967786309032,53.4629048465195],[16.5969779391216,53.4626330059103],[16.5971763030939,53.4623623221419],[16.5975771089032,53.4618431984121],[16.5978154522675,53.4615106158327],[16.597889004763,53.4614034600548],[16.5983813918218,53.4606798812725],[16.5986047490958,53.4603557763782],[16.599294907911,53.4592840440615],[16.5996730842803,53.4586969752594],[16.599746133504,53.4587116950532],[16.5986543459962,53.4603663720873],[16.5982310952297,53.460986893351],[16.5978648362541,53.4615236729873],[16.5974099366846,53.4621609785015],[16.5970346159144,53.4627000626122],[16.5970172224124,53.4627249508947],[16.5967252882867,53.4631442039415],[16.5966148326961,53.4632381211898],[16.5964637179342,53.4634172194472],[16.5964366609585,53.4635663096053],[16.5964609983894,53.4636135757113],[16.5968299522496,53.4644261313934],[16.5968599049879,53.4648616275057],[16.5967891565966,53.4648462733281],[16.5967553025926,53.4644203189287]]]},"properties":{"case_id":"ST-WK-ZL/ZGŁOSZENIE/3880/2025","source_type":"zgloszenie","received_date":"2025-12-02","decision_date":null,"status":"Brak sprzeciwu","description":"Budowa sieci elektroenergetycznej kablowej nN-0,4 kV","address":"Sypniewo","city":"Sypniewo","office":"Starosta Powiatu Złotów","case_kind":"budowa nowego/nowych obiektów budowlanych","parcel_ids":["303102_5.0007.1074","303102_5.0007.368/10","303102_5.0007.375","303102_5.0007.379/23","303102_5.0007.379/27"],"location_quality":"dokładny","gunb_url":"https://wyszukiwarka.gunb.gov.pl/","parcel_count":5,"parcel_shard":"x066-y213","parcel_id":"303102_5.0007.375","location_source":"powiat złotowski (wfs)"}},{"type":"Feature","id":"ST-WK-ZL/ZGŁOSZENIE/3880/2025::303102_5.0007.379/23","geometry":{"type":"Polygon","coordinates":[[[16.5989832807213,53.4646183326894],[16.5990568187019,53.4646402056956],[16.5993004774622,53.4647122451029],[16.599682787432,53.464824849818],[16.5997299413832,53.4648387263378],[16.5999910933347,53.4649166215503],[16.5993860313188,53.4655748707684],[16.5993052071668,53.4655507826508],[16.5997792635414,53.4650397563555],[16.5997484741304,53.4649832152912],[16.5997049827122,53.4649663566733],[16.5993770253816,53.4648489820868],[16.5989863542235,53.4646987150469],[16.5989567527339,53.4646904247147],[16.598821878518,53.4646463715695],[16.5988731955838,53.4645853987152],[16.5989832807213,53.4646183326894]]]},"properties":{"case_id":"ST-WK-ZL/ZGŁOSZENIE/3880/2025","source_type":"zgloszenie","received_date":"2025-12-02","decision_date":null,"status":"Brak sprzeciwu","description":"Budowa sieci elektroenergetycznej kablowej nN-0,4 kV","address":"Sypniewo","city":"Sypniewo","office":"Starosta Powiatu Złotów","case_kind":"budowa nowego/nowych obiektów budowlanych","parcel_ids":["303102_5.0007.1074","303102_5.0007.368/10","303102_5.0007.375","303102_5.0007.379/23","303102_5.0007.379/27"],"location_quality":"dokładny","gunb_url":"https://wyszukiwarka.gunb.gov.pl/","parcel_count":5,"parcel_shard":"x066-y213","parcel_id":"303102_5.0007.379/23","location_source":"powiat złotowski (wfs)"}},{"type":"Feature","id":"ST-WK-ZL/ZGŁOSZENIE/3880/2025::303102_5.0007.379/27","geometry":{"type":"Polygon","coordinates":[[[16.5989434950207,53.4645464945351],[16.599096067916,53.464591599079],[16.5990568187019,53.4646402056956],[16.5989832807213,53.4646183326894],[16.5989434950207,53.4645464945351]]]},"properties":{"case_id":"ST-WK-ZL/ZGŁOSZENIE/3880/2025","source_type":"zgloszenie","received_date":"2025-12-02","decision_date":null,"status":"Brak sprzeciwu","description":"Budowa sieci elektroenergetycznej kablowej nN-0,4 kV","address":"Sypniewo","city":"Sypniewo","office":"Starosta Powiatu Złotów","case_kind":"budowa nowego/nowych obiektów budowlanych","parcel_ids":["303102_5.0007.1074","303102_5.0007.368/10","303102_5.0007.375","303102_5.0007.379/23","303102_5.0007.379/27"],"location_quality":"dokładny","gunb_url":"https://wyszukiwarka.gunb.gov.pl/","parcel_count":5,"parcel_shard":"x066-y213","parcel_id":"303102_5.0007.379/27","location_source":"powiat złotowski (wfs)"}},{"type":"Feature","id":"ST-WK-ZL/WNIOSEK/8395/2026::303102_5.0007.368/4","geometry":{"type":"Polygon","coordinates":[[[16.5958159225536,53.4624438454386],[16.5960091282579,53.4621699576253],[16.5965894927942,53.4622656541275],[16.5963936341828,53.4625378941007],[16.5958159225536,53.4624438454386]]]},"properties":{"case_id":"ST-WK-ZL/WNIOSEK/8395/2026","source_type":"wniosek_decyzja","received_date":"2026-04-30","decision_date":"2026-07-09","status":"decyzja wydana","description":"Budowa budynku mieszkalnego jednorodzinnego wraz z niezbędną infrastrukturą techniczną","address":"Sypniewo","city":"Sypniewo","office":"Starosta Powiatu Złotów","case_kind":"Budynek mieszkalny jednorodzinny","parcel_ids":["303102_5.0007.368/4"],"location_quality":"dokładny","gunb_url":"https://wyszukiwarka.gunb.gov.pl/","parcel_count":1,"parcel_shard":"x066-y213","parcel_id":"303102_5.0007.368/4","location_source":"powiat złotowski (wfs)"}},{"type":"Feature","id":"ST-WK-ZL/WNIOSEK/4191/2026::303102_5.0007.368/7","geometry":{"type":"Polygon","coordinates":[[[16.594625297192,53.463075533472],[16.5948352064393,53.4627384884213],[16.5954583804424,53.4628102503083],[16.5952478268227,53.4631076579061],[16.594625297192,53.463075533472]]]},"properties":{"case_id":"ST-WK-ZL/WNIOSEK/4191/2026","source_type":"wniosek_decyzja","received_date":"2026-03-05","decision_date":"2026-04-27","status":"decyzja wydana","description":"Budowa budynku mieszkalnego jednorodzinnego wraz z niezbędną infrastrukturą techniczną","address":"Sypniewo","city":"Sypniewo","office":"Starosta Powiatu Złotów","case_kind":"Budynek mieszkalny jednorodzinny","parcel_ids":["303102_5.0007.368/7"],"location_quality":"dokładny","gunb_url":"https://wyszukiwarka.gunb.gov.pl/","parcel_count":1,"parcel_shard":"x066-y213","parcel_id":"303102_5.0007.368/7","location_source":"powiat złotowski (wfs)"}},{"type":"Feature","id":"ST-WK-ZL/WNIOSEK/17859/2025::303102_5.0007.868/8","geometry":{"type":"Polygon","coordinates":[[[16.6177533262546,53.461695598885],[16.6173522622486,53.4616418013427],[16.6175057219329,53.4612752170968],[16.6176626966602,53.4612965733025],[16.6179209759189,53.4613278303133],[16.6177533262546,53.461695598885]]]},"properties":{"case_id":"ST-WK-ZL/WNIOSEK/17859/2025","source_type":"wniosek_decyzja","received_date":"2025-08-29","decision_date":"2025-09-10","status":"decyzja wydana","description":"Budowa budynku mieszkalnego jednorodzinnego wraz z niezbędną infrastrukturą","address":"Sypniewo","city":"Sypniewo","office":"Starosta Powiatu Złotów","case_kind":"Budynek mieszkalny jednorodzinny","parcel_ids":["303102_5.0007.868/8"],"location_quality":"dokładny","gunb_url":"https://wyszukiwarka.gunb.gov.pl/","parcel_count":1,"parcel_shard":"x066-y213","parcel_id":"303102_5.0007.868/8","location_source":"powiat złotowski (wfs)"}},{"type":"Feature","id":"ST-WK-ZL/WNIOSEK/3429/2026::303102_5.0008.248/1","geometry":{"type":"Polygon","coordinates":[[[16.655154983534,53.4287530975244],[16.655929428444,53.4290490271958],[16.6558714421145,53.4291184981435],[16.6559900478831,53.4291736344836],[16.655363658213,53.4296881654516],[16.6544798892471,53.4292040794481],[16.655154983534,53.4287530975244]]]},"properties":{"case_id":"ST-WK-ZL/WNIOSEK/3429/2026","source_type":"wniosek_decyzja","received_date":"2026-02-24","decision_date":"2026-03-16","status":"decyzja wydana","description":"Budowa budynku mieszkalnego jednorodzinnego oraz budynku gospodarczego","address":"Brzeźnica-Kolonia","city":"Brzeźnica-Kolonia","office":"Starosta Powiatu Złotów","case_kind":"Budynek mieszkalny jednorodzinny","parcel_ids":["303102_5.0008.248/1"],"location_quality":"dokładny","gunb_url":"https://wyszukiwarka.gunb.gov.pl/","parcel_count":1,"parcel_shard":"x066-y213","parcel_id":"303102_5.0008.248/1","location_source":"powiat złotowski (wfs)"}},{"type":"Feature","id":"ST-WK-ZL/WNIOSEK/19457/2025::303102_5.0009.368/2","geometry":{"type":"Polygon","coordinates":[[[16.6902413667223,53.4122925039568],[16.6898850002841,53.4124066782109],[16.6896239630113,53.4121205569331],[16.6898883144408,53.4120345803235],[16.6902413667223,53.4122925039568]]]},"properties":{"case_id":"ST-WK-ZL/WNIOSEK/19457/2025","source_type":"wniosek_decyzja","received_date":"2025-09-23","decision_date":"2026-01-16","status":"decyzja wydana","description":"Budowa budynku mieszkalnego jednorodzinnego","address":"Brzeźnica","city":"Brzeźnica","office":"Starosta Powiatu Złotów","case_kind":"Budynek mieszkalny jednorodzinny","parcel_ids":["303102_5.0009.368/2"],"location_quality":"dokładny","gunb_url":"https://wyszukiwarka.gunb.gov.pl/","parcel_count":1,"parcel_shard":"x066-y213","parcel_id":"303102_5.0009.368/2","location_source":"powiat złotowski (wfs)"}},{"type":"Feature","id":"ST-WK-ZL/WNIOSEK/12673/2026::303102_5.0010.191/6","geometry":{"type":"Polygon","coordinates":[[[16.7216916459215,53.4166807769493],[16.7221435084804,53.416746272287],[16.7221054588419,53.4168262946466],[16.72220997127,53.4170180175121],[16.7222685604445,53.4170305965173],[16.7222254841496,53.4171377943409],[16.7214819787656,53.4169457920534],[16.7216714099989,53.4166784035586],[16.7216916459215,53.4166807769493]]]},"properties":{"case_id":"ST-WK-ZL/WNIOSEK/12673/2026","source_type":"wniosek_decyzja","received_date":"2026-07-01","decision_date":"2026-08-04","status":"decyzja wydana","description":"Budowa budynku mieszkalnego jednorodzinnego w zabudowie wolnostojącej wraz z niezbędną infrastrukturą","address":"Samborsko","city":"Samborsko","office":"Starosta Powiatu Złotów","case_kind":"Budynek mieszkalny jednorodzinny","parcel_ids":["303102_5.0010.191/6","303102_5.0010.191/7","303102_5.0010.191/8","303102_5.0010.191/9"],"location_quality":"dokładny","gunb_url":"https://wyszukiwarka.gunb.gov.pl/","parcel_count":4,"parcel_shard":"x066-y213","parcel_id":"303102_5.0010.191/6","location_source":"powiat złotowski (wfs)"}},{"type":"Feature","id":"ST-WK-ZL/WNIOSEK/12673/2026::303102_5.0010.191/7","geometry":{"type":"Polygon","coordinates":[[[16.7221435084804,53.416746272287],[16.722369814882,53.4167790682579],[16.7223247945564,53.4168909183205],[16.7222685604445,53.4170305965173],[16.72220997127,53.4170180175121],[16.7221054588419,53.4168262946466],[16.7221435084804,53.416746272287]]]},"properties":{"case_id":"ST-WK-ZL/WNIOSEK/12673/2026","source_type":"wniosek_decyzja","received_date":"2026-07-01","decision_date":"2026-08-04","status":"decyzja wydana","description":"Budowa budynku mieszkalnego jednorodzinnego w zabudowie wolnostojącej wraz z niezbędną infrastrukturą","address":"Samborsko","city":"Samborsko","office":"Starosta Powiatu Złotów","case_kind":"Budynek mieszkalny jednorodzinny","parcel_ids":["303102_5.0010.191/6","303102_5.0010.191/7","303102_5.0010.191/8","303102_5.0010.191/9"],"location_quality":"dokładny","gunb_url":"https://wyszukiwarka.gunb.gov.pl/","parcel_count":4,"parcel_shard":"x066-y213","parcel_id":"303102_5.0010.191/7","location_source":"powiat złotowski (wfs)"}},{"type":"Feature","id":"ST-WK-ZL/WNIOSEK/12673/2026::303102_5.0010.191/8","geometry":{"type":"Polygon","coordinates":[[[16.7228222328579,53.4172909341917],[16.7222254841496,53.4171377943409],[16.7222685604445,53.4170305965173],[16.7228895906926,53.4171635006789],[16.7228728288061,53.4172069871231],[16.7228222328579,53.4172909341917]]]},"properties":{"case_id":"ST-WK-ZL/WNIOSEK/12673/2026","source_type":"wniosek_decyzja","received_date":"2026-07-01","decision_date":"2026-08-04","status":"decyzja wydana","description":"Budowa budynku mieszkalnego jednorodzinnego w zabudowie wolnostojącej wraz z niezbędną infrastrukturą","address":"Samborsko","city":"Samborsko","office":"Starosta Powiatu Złotów","case_kind":"Budynek mieszkalny jednorodzinny","parcel_ids":["303102_5.0010.191/6","303102_5.0010.191/7","303102_5.0010.191/8","303102_5.0010.191/9"],"location_quality":"dokładny","gunb_url":"https://wyszukiwarka.gunb.gov.pl/","parcel_count":4,"parcel_shard":"x066-y213","parcel_id":"303102_5.0010.191/8","location_source":"powiat złotowski (wfs)"}},{"type":"Feature","id":"ST-WK-ZL/WNIOSEK/12673/2026::303102_5.0010.191/9","geometry":{"type":"Polygon","coordinates":[[[16.7222685604445,53.4170305965173],[16.7223247945564,53.4168909183205],[16.7226473414856,53.4169348083571],[16.7226942735256,53.4168494889162],[16.7229290023926,53.4168830211122],[16.7229228666643,53.4170495068174],[16.7229042909864,53.4171256237607],[16.7228895906926,53.4171635006789],[16.7222685604445,53.4170305965173]]]},"properties":{"case_id":"ST-WK-ZL/WNIOSEK/12673/2026","source_type":"wniosek_decyzja","received_date":"2026-07-01","decision_date":"2026-08-04","status":"decyzja wydana","description":"Budowa budynku mieszkalnego jednorodzinnego w zabudowie wolnostojącej wraz z niezbędną infrastrukturą","address":"Samborsko","city":"Samborsko","office":"Starosta Powiatu Złotów","case_kind":"Budynek mieszkalny jednorodzinny","parcel_ids":["303102_5.0010.191/6","303102_5.0010.191/7","303102_5.0010.191/8","303102_5.0010.191/9"],"location_quality":"dokładny","gunb_url":"https://wyszukiwarka.gunb.gov.pl/","parcel_count":4,"parcel_shard":"x066-y213","parcel_id":"303102_5.0010.191/9","location_source":"powiat złotowski (wfs)"}},{"type":"Feature","id":"ST-WK-ZL/WNIOSEK/3338/2026::303102_5.0016.8209/5","geometry":{"type":"Polygon","coordinates":[[[16.621582433203,53.3943436242674],[16.6216176290585,53.39435879049],[16.6226447374683,53.394800418155],[16.6256025610606,53.3960787486248],[16.626739397951,53.3965666179333],[16.6258600513369,53.3971746498457],[16.6254470760986,53.3975440323749],[16.6248389992649,53.3977595397825],[16.6243525277325,53.3974421993689],[16.6237570629059,53.3975290711723],[16.6233228689133,53.3977229579564],[16.6233568116118,53.3978094987534],[16.6233965101986,53.3981913507877],[16.6233098877973,53.39836882723],[16.6229177215254,53.3983603503389],[16.6221361597542,53.3983084892428],[16.6215258399672,53.3982411734855],[16.6210281983003,53.3983663643718],[16.6187941881871,53.3989790989986],[16.6173698512897,53.4000833469853],[16.6171248963975,53.3996414581769],[16.6164561227921,53.3990324912206],[16.61639810891,53.3989803554545],[16.6158383823642,53.3991470732428],[16.621582433203,53.3943436242674]]]},"properties":{"case_id":"ST-WK-ZL/WNIOSEK/3338/2026","source_type":"wniosek_decyzja","received_date":"2026-02-23","decision_date":"2026-03-17","status":"decyzja wydana","description":"Budowa drogi leśnej DSD 08-03-00026 w Leśnictwie Budy","address":"Jastrowie","city":"Jastrowie","office":"Starosta Powiatu Złotów","case_kind":"Obiekt budowlany inny niż budynek mieszkalny jednorodzinny","parcel_ids":["303102_5.0016.8209/5","303102_5.0016.8226/8","303102_5.0016.8227","303102_5.0016.8228","303102_5.0016.8414","303102_5.0016.8430","303102_5.0016.8432"],"location_quality":"dokładny","gunb_url":"https://wyszukiwarka.gunb.gov.pl/","parcel_count":7,"parcel_shard":"x066-y213","parcel_id":"303102_5.0016.8209/5","location_source":"powiat złotowski (wfs)"}},{"type":"Feature","id":"ST-WK-ZL/WNIOSEK/3338/2026::303102_5.0016.8226/8","geometry":{"type":"Polygon","coordinates":[[[16.6347557190518,53.3943634026487],[16.6375074206458,53.3921296900202],[16.6409583585079,53.3935672685349],[16.6420277136078,53.3935439640504],[16.6420203096076,53.3937248912384],[16.642556962023,53.3937112059236],[16.6425558812323,53.3937882986906],[16.6429385366821,53.3937856949863],[16.6434880420631,53.3937742662071],[16.6434823151108,53.3938510944283],[16.6432592173675,53.3938640060445],[16.64299785048,53.3939234187743],[16.6428166770611,53.3941861847572],[16.6426188823446,53.3942848635338],[16.6422092151586,53.3943313390606],[16.6418409933233,53.394699047487],[16.6416258320953,53.3947172586663],[16.6413332371463,53.3946543287405],[16.6409823837854,53.3946997619326],[16.6405046005859,53.3946142510342],[16.6401593195896,53.3946271812241],[16.639777916852,53.3944369346922],[16.6395903907553,53.3945797527374],[16.6397276178941,53.3947318428936],[16.6396365567397,53.3947645955456],[16.6392767296681,53.3949202772341],[16.6385265226286,53.3949146898095],[16.6383222996063,53.3951822867256],[16.6381810599301,53.3952055120417],[16.6381000337612,53.3951674728589],[16.6377010115823,53.395172086711],[16.6375407309114,53.3951158883677],[16.6375287393441,53.395015909733],[16.6374373883372,53.3949951863822],[16.6369406524224,53.3952582171561],[16.6368579576509,53.3955076413103],[16.6364570172283,53.3955766762555],[16.6359728525104,53.3955968345493],[16.6353321584517,53.3959253648548],[16.6346355833692,53.3957681555515],[16.6344460422973,53.3957848155384],[16.6342884088899,53.3958710469466],[16.6339917097177,53.3961923753364],[16.6335175005722,53.3963049434246],[16.6329340588903,53.3966684246358],[16.63280144265,53.3967333542488],[16.6319066889859,53.3966614205682],[16.6347557190518,53.3943634026487]]]},"properties":{"case_id":"ST-WK-ZL/WNIOSEK/3338/2026","source_type":"wniosek_decyzja","received_date":"2026-02-23","decision_date":"2026-03-17","status":"decyzja wydana","description":"Budowa drogi leśnej DSD 08-03-00026 w Leśnictwie Budy","address":"Jastrowie","city":"Jastrowie","office":"Starosta Powiatu Złotów","case_kind":"Obiekt budowlany inny niż budynek mieszkalny jednorodzinny","parcel_ids":["303102_5.0016.8209/5","303102_5.0016.8226/8","303102_5.0016.8227","303102_5.0016.8228","303102_5.0016.8414","303102_5.0016.8430","303102_5.0016.8432"],"location_quality":"dokładny","gunb_url":"https://wyszukiwarka.gunb.gov.pl/","parcel_count":7,"parcel_shard":"x066-y213","parcel_id":"303102_5.0016.8226/8","location_source":"powiat złotowski (wfs)"}},{"type":"Feature","id":"ST-WK-ZL/WNIOSEK/3338/2026::303102_5.0016.8227","geometry":{"type":"Polygon","coordinates":[[[16.6330261083985,53.3902167826084],[16.6375074206458,53.3921296900202],[16.6347557190518,53.3943634026487],[16.6319066889859,53.3966614205682],[16.6314704450082,53.3963331689357],[16.630860369338,53.3966311814793],[16.6297371194409,53.396620451502],[16.629540760631,53.3967153050297],[16.6293287236113,53.3968200492085],[16.6288286664669,53.3967819701181],[16.6280927642226,53.3964127572594],[16.6269769330406,53.3964022858753],[16.626739397951,53.3965666179333],[16.6256025610606,53.3960787486248],[16.6330261083985,53.3902167826084]]]},"properties":{"case_id":"ST-WK-ZL/WNIOSEK/3338/2026","source_type":"wniosek_decyzja","received_date":"2026-02-23","decision_date":"2026-03-17","status":"decyzja wydana","description":"Budowa drogi leśnej DSD 08-03-00026 w Leśnictwie Budy","address":"Jastrowie","city":"Jastrowie","office":"Starosta Powiatu Złotów","case_kind":"Obiekt budowlany inny niż budynek mieszkalny jednorodzinny","parcel_ids":["303102_5.0016.8209/5","303102_5.0016.8226/8","303102_5.0016.8227","303102_5.0016.8228","303102_5.0016.8414","303102_5.0016.8430","303102_5.0016.8432"],"location_quality":"dokładny","gunb_url":"https://wyszukiwarka.gunb.gov.pl/","parcel_count":7,"parcel_shard":"x066-y213","parcel_id":"303102_5.0016.8227","location_source":"powiat złotowski (wfs)"}},{"type":"Feature","id":"ST-WK-ZL/WNIOSEK/3338/2026::303102_5.0016.8228","geometry":{"type":"Polygon","coordinates":[[[16.628918544617,53.3884506160935],[16.6330261083985,53.3902167826084],[16.6256025610606,53.3960787486248],[16.6226447374683,53.394800418155],[16.6216176290585,53.39435879049],[16.621582433203,53.3943436242674],[16.628918544617,53.3884506160935]]]},"properties":{"case_id":"ST-WK-ZL/WNIOSEK/3338/2026","source_type":"wniosek_decyzja","received_date":"2026-02-23","decision_date":"2026-03-17","status":"decyzja wydana","description":"Budowa drogi leśnej DSD 08-03-00026 w Leśnictwie Budy","address":"Jastrowie","city":"Jastrowie","office":"Starosta Powiatu Złotów","case_kind":"Obiekt budowlany inny niż budynek mieszkalny jednorodzinny","parcel_ids":["303102_5.0016.8209/5","303102_5.0016.8226/8","303102_5.0016.8227","303102_5.0016.8228","303102_5.0016.8414","303102_5.0016.8430","303102_5.0016.8432"],"location_quality":"dokładny","gunb_url":"https://wyszukiwarka.gunb.gov.pl/","parcel_count":7,"parcel_shard":"x066-y213","parcel_id":"303102_5.0016.8228","location_source":"powiat złotowski (wfs)"}},{"type":"Feature","id":"ST-WK-ZL/WNIOSEK/3338/2026::303102_5.0016.8414","geometry":{"type":"Polygon","coordinates":[[[16.6022237956794,53.4033132359934],[16.597605806833,53.4012618518332],[16.6048321808667,53.395453936158],[16.6092379242333,53.397341670971],[16.6110875526832,53.3981279264397],[16.6056706868865,53.4032674130499],[16.6051567074334,53.4033758565653],[16.6047645570373,53.4035613698797],[16.6043398548792,53.4035635259404],[16.6036888461058,53.40327867538],[16.6028174804488,53.4032841619865],[16.6022237956794,53.4033132359934]]]},"properties":{"case_id":"ST-WK-ZL/WNIOSEK/3338/2026","source_type":"wniosek_decyzja","received_date":"2026-02-23","decision_date":"2026-03-17","status":"decyzja wydana","description":"Budowa drogi leśnej DSD 08-03-00026 w Leśnictwie Budy","address":"Jastrowie","city":"Jastrowie","office":"Starosta Powiatu Złotów","case_kind":"Obiekt budowlany inny niż budynek mieszkalny jednorodzinny","parcel_ids":["303102_5.0016.8209/5","303102_5.0016.8226/8","303102_5.0016.8227","303102_5.0016.8228","303102_5.0016.8414","303102_5.0016.8430","303102_5.0016.8432"],"location_quality":"dokładny","gunb_url":"https://wyszukiwarka.gunb.gov.pl/","parcel_count":7,"parcel_shard":"x066-y213","parcel_id":"303102_5.0016.8414","location_source":"powiat złotowski (wfs)"}},{"type":"Feature","id":"ST-WK-ZL/WNIOSEK/3338/2026::303102_5.0016.8430","geometry":{"type":"Polygon","coordinates":[[[16.6092379242333,53.397341670971],[16.6159963283677,53.3919397040565],[16.6192116889993,53.3933242771339],[16.621582433203,53.3943436242674],[16.6158383823642,53.3991470732428],[16.6146092052928,53.3995129252625],[16.6146202060397,53.3995754216332],[16.6146314934307,53.3996394467537],[16.6110875526832,53.3981279264397],[16.6092379242333,53.397341670971]]]},"properties":{"case_id":"ST-WK-ZL/WNIOSEK/3338/2026","source_type":"wniosek_decyzja","received_date":"2026-02-23","decision_date":"2026-03-17","status":"decyzja wydana","description":"Budowa drogi leśnej DSD 08-03-00026 w Leśnictwie Budy","address":"Jastrowie","city":"Jastrowie","office":"Starosta Powiatu Złotów","case_kind":"Obiekt budowlany inny niż budynek mieszkalny jednorodzinny","parcel_ids":["303102_5.0016.8209/5","303102_5.0016.8226/8","303102_5.0016.8227","303102_5.0016.8228","303102_5.0016.8414","303102_5.0016.8430","303102_5.0016.8432"],"location_quality":"dokładny","gunb_url":"https://wyszukiwarka.gunb.gov.pl/","parcel_count":7,"parcel_shard":"x066-y213","parcel_id":"303102_5.0016.8430","location_source":"powiat złotowski (wfs)"}},{"type":"Feature","id":"ST-WK-ZL/WNIOSEK/3338/2026::303102_5.0016.8432","geometry":{"type":"Polygon","coordinates":[[[16.6048321808667,53.395453936158],[16.6115098182009,53.3900168982071],[16.6121918796204,53.3903093592442],[16.6140831022306,53.3911073001549],[16.6157118064352,53.391817172189],[16.6159560454894,53.3919224061644],[16.6159963283677,53.3919397040565],[16.6092379242333,53.397341670971],[16.6048321808667,53.395453936158]]]},"properties":{"case_id":"ST-WK-ZL/WNIOSEK/3338/2026","source_type":"wniosek_decyzja","received_date":"2026-02-23","decision_date":"2026-03-17","status":"decyzja wydana","description":"Budowa drogi leśnej DSD 08-03-00026 w Leśnictwie Budy","address":"Jastrowie","city":"Jastrowie","office":"Starosta Powiatu Złotów","case_kind":"Obiekt budowlany inny niż budynek mieszkalny jednorodzinny","parcel_ids":["303102_5.0016.8209/5","303102_5.0016.8226/8","303102_5.0016.8227","303102_5.0016.8228","303102_5.0016.8414","303102_5.0016.8430","303102_5.0016.8432"],"location_quality":"dokładny","gunb_url":"https://wyszukiwarka.gunb.gov.pl/","parcel_count":7,"parcel_shard":"x066-y213","parcel_id":"303102_5.0016.8432","location_source":"powiat złotowski (wfs)"}},{"type":"Feature","id":"ST-WK-ZL/WNIOSEK/9942/2026::303102_5.0016.8294/12","geometry":{"type":"Polygon","coordinates":[[[16.6164027047002,53.3625520299955],[16.6168236202057,53.3626363150301],[16.6167136206513,53.3629477814257],[16.6166099774229,53.3630965542367],[16.6165313670957,53.363232536427],[16.6161942190173,53.3631613839034],[16.6161195756028,53.3632796604496],[16.615987788572,53.3632584792132],[16.6161696193921,53.3629518206522],[16.6164422314129,53.3630134914633],[16.6164980669485,53.3629972978131],[16.6165790323601,53.3628779146201],[16.6162532060913,53.3628103343423],[16.6163879237808,53.3625839943746],[16.6164027047002,53.3625520299955]]]},"properties":{"case_id":"ST-WK-ZL/WNIOSEK/9942/2026","source_type":"wniosek_decyzja","received_date":"2026-05-22","decision_date":"2026-07-17","status":"decyzja wydana","description":"Przebudowa przegrody zewnętrznej w budynku mieszkalnym wielorodzinnym","address":"Budy","city":"Budy","office":"Starosta Powiatu Złotów","case_kind":"Obiekt budowlany inny niż budynek mieszkalny jednorodzinny","parcel_ids":["303102_5.0016.8294/12"],"location_quality":"dokładny","gunb_url":"https://wyszukiwarka.gunb.gov.pl/","parcel_count":1,"parcel_shard":"x066-y213","parcel_id":"303102_5.0016.8294/12","location_source":"powiat złotowski (wfs)"}}]}