{"type":"FeatureCollection","features":[{"type":"Feature","id":"ST-WK-LE/WNIOSEK/21627/2025::301304_5.0012.225/5","geometry":{"type":"Polygon","coordinates":[[[16.7052461137244,51.736379853564],[16.7047114016063,51.7365536507371],[16.7043181640723,51.736038021604],[16.7048508247621,51.7358649227345],[16.7049619072497,51.7360104203275],[16.7051105839168,51.7361677481001],[16.705171854202,51.736283212677],[16.7052461137244,51.736379853564]]]},"properties":{"case_id":"ST-WK-LE/WNIOSEK/21627/2025","source_type":"wniosek_decyzja","received_date":"2025-10-22","decision_date":"2025-12-17","status":"decyzja wydana","description":"Rozbiórka dwóch budynków gospodarczych oraz dwóch budynków garażowych","address":"Rojęczyn","city":"Rojęczyn","office":"Starosta Powiatu Leszno","case_kind":"Obiekt budowlany inny niż budynek mieszkalny jednorodzinny","parcel_ids":["301304_5.0012.225/5"],"location_quality":"dokładny","gunb_url":"https://wyszukiwarka.gunb.gov.pl/","parcel_count":1,"parcel_shard":"x066-y206","parcel_id":"301304_5.0012.225/5","location_source":"powiat leszczyński (wfs)"}},{"type":"Feature","id":"ST-WK-RA/WNIOSEK/15782/2026::302201_4.0001.246/2","geometry":{"type":"Polygon","coordinates":[[[16.7469513312274,51.7071228530669],[16.7469629030722,51.7071212275445],[16.7470907793775,51.7071040962558],[16.7473350877762,51.7070713665083],[16.7473807116591,51.7072013239183],[16.7473923357103,51.7072343075517],[16.7473089200991,51.7072492678787],[16.7472375597591,51.7072620661109],[16.7471745133413,51.7072733732322],[16.7472432849837,51.7073975634805],[16.7473040729837,51.7075025216717],[16.7473051285118,51.707504670412],[16.7473544455253,51.7076050599781],[16.7471490844608,51.707650501379],[16.7470941310844,51.7075511984961],[16.7470888617994,51.7075416763266],[16.7470688317666,51.7075040207658],[16.7470544923612,51.7074770628363],[16.7469920676622,51.7073597004027],[16.7470703086041,51.7073414012154],[16.7470275046048,51.7072625009287],[16.7469513312274,51.7071228530669]]]},"properties":{"case_id":"ST-WK-RA/WNIOSEK/15782/2026","source_type":"wniosek_decyzja","received_date":"2026-06-23","decision_date":"2026-08-18","status":"decyzja wydana","description":"rozbiórka budynku gospodarczego","address":"Żwirki i Wigury 7, Bojanowo","city":"Bojanowo","office":"Starosta Powiatu Rawicz","case_kind":"Obiekt budowlany inny niż budynek mieszkalny jednorodzinny","parcel_ids":["302201_4.0001.246/2"],"location_quality":"dokładny","gunb_url":"https://wyszukiwarka.gunb.gov.pl/","parcel_count":1,"parcel_shard":"x066-y206","parcel_id":"302201_4.0001.246/2","location_source":"powiat rawicki (wfs)"}},{"type":"Feature","id":"ST-WK-RA/WNIOSEK/6704/2026::302201_4.0001.352/2","geometry":{"type":"Polygon","coordinates":[[[16.7481691691206,51.7074622188419],[16.7481409857447,51.7073873556965],[16.7481184731571,51.7073279512082],[16.7480801321406,51.7072249597634],[16.7480480416344,51.7071412013664],[16.7480242244709,51.7070765844898],[16.7480024341716,51.7070133145097],[16.7479698944657,51.7069204765715],[16.7479353204962,51.7068233245416],[16.7479146857482,51.7067616709621],[16.7479172897109,51.7067613097331],[16.7479151103698,51.706755108474],[16.747911927896,51.7067556498613],[16.7478844696559,51.7066790780287],[16.7478877969463,51.7066786264486],[16.747885038304,51.7066721558527],[16.7478105340978,51.7065825789151],[16.7479843467831,51.7066066500588],[16.7481485479612,51.7065872187593],[16.7482603794986,51.7065738436617],[16.7484704439153,51.7065475517235],[16.7485857507449,51.7065344442573],[16.7485887887783,51.7065339928662],[16.7485893702125,51.7065357004977],[16.7486326274048,51.7065300997363],[16.7486324814477,51.7065292907806],[16.748753575032,51.7065151009015],[16.7487544477561,51.7065179769866],[16.7488157906406,51.7065110163782],[16.748814917884,51.7065081402843],[16.7489417983416,51.7064933173695],[16.7489422351762,51.7064950251043],[16.7489862171555,51.7064903227591],[16.7489853441921,51.7064873567563],[16.7491175782124,51.7064727100516],[16.7492906086258,51.7064528232788],[16.7493915725834,51.7065177543241],[16.7494242795739,51.7066076299535],[16.7494475381653,51.7066714416022],[16.7494723953542,51.7067391177152],[16.7495080147334,51.7068387000404],[16.7495384027507,51.7069246212542],[16.7495631182061,51.706992926279],[16.749558344094,51.7069936484292],[16.7495769536558,51.7070450567848],[16.7495818726138,51.7070444244384],[16.7496049952238,51.7071116512759],[16.7496499177378,51.7072337892951],[16.749671728992,51.7072955324263],[16.749297292226,51.707264833325],[16.7484371640474,51.7073717595196],[16.7481691691206,51.7074622188419]]]},"properties":{"case_id":"ST-WK-RA/WNIOSEK/6704/2026","source_type":"wniosek_decyzja","received_date":"2026-04-08","decision_date":"2026-05-15","status":"decyzja wydana","description":"modernizacja dachu Urzędu Miejskiego w Bojanowie","address":"Rynek 12, Bojanowo","city":"Bojanowo","office":"Starosta Powiatu Rawicz","case_kind":"Obiekt budowlany inny niż budynek mieszkalny jednorodzinny","parcel_ids":["302201_4.0001.352/2","302201_4.0001.390"],"location_quality":"dokładny","gunb_url":"https://wyszukiwarka.gunb.gov.pl/","parcel_count":2,"parcel_shard":"x066-y206","parcel_id":"302201_4.0001.352/2","location_source":"powiat rawicki (wfs)"}},{"type":"Feature","id":"ST-WK-RA/WNIOSEK/6704/2026::302201_4.0001.390","geometry":{"type":"Polygon","coordinates":[[[16.7489404434041,51.7063702511364],[16.7489853441921,51.7064873567563],[16.7489862171555,51.7064903227591],[16.7489422351762,51.7064950251043],[16.7489417983416,51.7064933173695],[16.748814917884,51.7065081402843],[16.7488157906406,51.7065110163782],[16.7487544477561,51.7065179769866],[16.748753575032,51.7065151009015],[16.7486324814477,51.7065292907806],[16.7486326274048,51.7065300997363],[16.7485893702125,51.7065357004977],[16.7485887887783,51.7065339928662],[16.7485857507449,51.7065344442573],[16.7485527475408,51.7064222742529],[16.7485507989628,51.7064181100251],[16.7485212467712,51.7063370091929],[16.7485156557625,51.7063216657707],[16.7485072171741,51.7062877106429],[16.7485096280143,51.7062874070397],[16.7485085225462,51.7062845204821],[16.7485019218051,51.7062672529399],[16.748480919823,51.7062123264815],[16.7484800482394,51.7062101695444],[16.7488757107918,51.7061581378045],[16.7488985547572,51.706236512649],[16.7489081571409,51.7062689589956],[16.7489404434041,51.7063702511364]]]},"properties":{"case_id":"ST-WK-RA/WNIOSEK/6704/2026","source_type":"wniosek_decyzja","received_date":"2026-04-08","decision_date":"2026-05-15","status":"decyzja wydana","description":"modernizacja dachu Urzędu Miejskiego w Bojanowie","address":"Rynek 12, Bojanowo","city":"Bojanowo","office":"Starosta Powiatu Rawicz","case_kind":"Obiekt budowlany inny niż budynek mieszkalny jednorodzinny","parcel_ids":["302201_4.0001.352/2","302201_4.0001.390"],"location_quality":"dokładny","gunb_url":"https://wyszukiwarka.gunb.gov.pl/","parcel_count":2,"parcel_shard":"x066-y206","parcel_id":"302201_4.0001.390","location_source":"powiat rawicki (wfs)"}},{"type":"Feature","id":"ST-WK-RA/WNIOSEK/23212/2025::302201_4.0001.422/2","geometry":{"type":"Polygon","coordinates":[[[16.7493071372324,51.7055463826292],[16.749256084441,51.7054087771266],[16.7493114384845,51.7054005370032],[16.7494549379463,51.705377729002],[16.7495446229345,51.7053636465534],[16.7496413951547,51.7053480310916],[16.7496903735175,51.7054941908334],[16.7495936691282,51.7055068248852],[16.7495075922573,51.7055188612371],[16.7494520593765,51.7055264856637],[16.7494178635239,51.7055311805932],[16.7494072656477,51.7055326356224],[16.7493071372324,51.7055463826292]]]},"properties":{"case_id":"ST-WK-RA/WNIOSEK/23212/2025","source_type":"wniosek_decyzja","received_date":"2025-09-29","decision_date":"2025-11-12","status":"decyzja wydana","description":"przebudowa istniejącego budynku na budynek mieszkalny wielorodzinny","address":"Kościuszki, Bojanowo","city":"Bojanowo","office":"Starosta Powiatu Rawicz","case_kind":"Budynek mieszkalny jednorodzinny","parcel_ids":["302201_4.0001.422/2"],"location_quality":"dokładny","gunb_url":"https://wyszukiwarka.gunb.gov.pl/","parcel_count":1,"parcel_shard":"x066-y206","parcel_id":"302201_4.0001.422/2","location_source":"powiat rawicki (wfs)"}},{"type":"Feature","id":"ST-WK-RA/WNIOSEK/7438/2026::302201_4.0001.671/9","geometry":{"type":"Polygon","coordinates":[[[16.7479369953202,51.7041689654653],[16.7471617315632,51.7042823628821],[16.7470144613337,51.7039348226493],[16.7475299449953,51.7038500762312],[16.7475909307893,51.7038400534087],[16.7476544343204,51.703829616762],[16.7478322161604,51.7038003985297],[16.7478991051664,51.7037893477147],[16.7478752847522,51.7037329072911],[16.7482796950195,51.7036583932173],[16.7481973331149,51.7034599523191],[16.7487171770861,51.7033738553451],[16.7486644417757,51.7032438975307],[16.7486114160122,51.7031131307753],[16.7475838814358,51.7032820768396],[16.7475063209098,51.7030978359958],[16.7474111466246,51.7031133586867],[16.74740649912,51.7031024840145],[16.7472371236655,51.7031301896595],[16.747234218794,51.703123269373],[16.7470850454919,51.703146372112],[16.7470769089579,51.7031266893002],[16.7466982868358,51.703190130472],[16.7465211047687,51.7027732061522],[16.7473033408812,51.7026580953324],[16.747501647742,51.7026289328466],[16.7478851002035,51.702573671601],[16.7483634332708,51.7025016269495],[16.7489783728326,51.7024115626569],[16.7490622976977,51.7028095906308],[16.7490713889651,51.7028523852138],[16.749072916303,51.7028599522419],[16.749022743694,51.7028641821593],[16.7490289224189,51.7028919340913],[16.748630331064,51.7029242742645],[16.7488064504926,51.7033575325144],[16.7489319702947,51.7033382965834],[16.7490410545061,51.7035947933578],[16.7487812829726,51.7036420681481],[16.7487544061841,51.7035755613676],[16.7487330314138,51.7035792376863],[16.748638982454,51.7035954134302],[16.7485990395292,51.7035017659822],[16.7483090517574,51.7037377538591],[16.7483644073502,51.7038780482599],[16.7483881290447,51.7038741674145],[16.7484643023028,51.7040917601196],[16.7481397796705,51.7041393054278],[16.7481288929773,51.7041091661436],[16.7481092650622,51.7040550229574],[16.7479049050075,51.7040841268072],[16.7479369953202,51.7041689654653]]]},"properties":{"case_id":"ST-WK-RA/WNIOSEK/7438/2026","source_type":"wniosek_decyzja","received_date":"2026-04-15","decision_date":"2026-05-07","status":"decyzja wydana","description":"remont sali biologiczno-chemicznej z zapleczem w budynku szkoły, ob. Zespół Szkół Przyrodniczo - Technicznych Centrum Kształcenia Ustawicznego w Bojanowie - wpisanym do rejestru zabytków pod numerem 629/Wlkp/A w ramach zadania pn. ''Aranżacja wnętrz pracowni biologiczno - chemicznej  z zapleczem w ZSPT CKU w Bojanowie","address":"Dworcowa 29, Bojanowo","city":"Bojanowo","office":"Starosta Powiatu Rawicz","case_kind":"Obiekt budowlany inny niż budynek mieszkalny jednorodzinny","parcel_ids":["302201_4.0001.671/9"],"location_quality":"dokładny","gunb_url":"https://wyszukiwarka.gunb.gov.pl/","parcel_count":1,"parcel_shard":"x066-y206","parcel_id":"302201_4.0001.671/9","location_source":"powiat rawicki (wfs)"}},{"type":"Feature","id":"ST-WK-RA/WNIOSEK/21243/2025::302201_5.0006.1098/1","geometry":{"type":"Polygon","coordinates":[[[16.745639264762,51.6932360156424],[16.7460462757744,51.6931001323515],[16.7461121152393,51.6930833964521],[16.746892072071,51.6936624322662],[16.7461977975389,51.6940234839943],[16.745639264762,51.6932360156424]]]},"properties":{"case_id":"ST-WK-RA/WNIOSEK/21243/2025","source_type":"wniosek_decyzja","received_date":"2025-09-05","decision_date":"2025-10-17","status":"decyzja wydana","description":"budowa instalacji fotowoltaicznej o mocy do 350 kW wraz z infrastrukturą techniczną tj. magazynem energii, stacją transformatorową, instalacjami SN i Nn przy Oczyszczalni Ścieków Komunalnych","address":"Bojanowo","city":"Bojanowo","office":"Starosta Powiatu Rawicz","case_kind":"Obiekt budowlany inny niż budynek mieszkalny jednorodzinny","parcel_ids":["302201_5.0006.1098/1","302201_5.0006.1098/2"],"location_quality":"dokładny","gunb_url":"https://wyszukiwarka.gunb.gov.pl/","parcel_count":2,"parcel_shard":"x066-y206","parcel_id":"302201_5.0006.1098/1","location_source":"powiat rawicki (wfs)"}},{"type":"Feature","id":"ST-WK-RA/WNIOSEK/21243/2025::302201_5.0006.1098/2","geometry":{"type":"Polygon","coordinates":[[[16.7451411985781,51.6935628405031],[16.7453247810719,51.6933994933488],[16.7455299205251,51.6932725119919],[16.745639264762,51.6932360156424],[16.7461977975389,51.6940234839943],[16.746892072071,51.6936624322662],[16.7472804756874,51.6939490099549],[16.7460698962182,51.6946371475703],[16.7460010690692,51.6945944341336],[16.7458787771286,51.6945026990529],[16.7457928569708,51.6944033519541],[16.7455281568454,51.6941471249921],[16.7454212147573,51.6940025181143],[16.7453746372793,51.6939293893609],[16.7453046663093,51.6938444148849],[16.7452419395311,51.6938060808788],[16.7451013512294,51.6937641284903],[16.7449350884565,51.693709137212],[16.7451411985781,51.6935628405031]]]},"properties":{"case_id":"ST-WK-RA/WNIOSEK/21243/2025","source_type":"wniosek_decyzja","received_date":"2025-09-05","decision_date":"2025-10-17","status":"decyzja wydana","description":"budowa instalacji fotowoltaicznej o mocy do 350 kW wraz z infrastrukturą techniczną tj. magazynem energii, stacją transformatorową, instalacjami SN i Nn przy Oczyszczalni Ścieków Komunalnych","address":"Bojanowo","city":"Bojanowo","office":"Starosta Powiatu Rawicz","case_kind":"Obiekt budowlany inny niż budynek mieszkalny jednorodzinny","parcel_ids":["302201_5.0006.1098/1","302201_5.0006.1098/2"],"location_quality":"dokładny","gunb_url":"https://wyszukiwarka.gunb.gov.pl/","parcel_count":2,"parcel_shard":"x066-y206","parcel_id":"302201_5.0006.1098/2","location_source":"powiat rawicki (wfs)"}},{"type":"Feature","id":"ST-WK-RA/WNIOSEK/3194/2026::302201_5.0006.1098/1","geometry":{"type":"Polygon","coordinates":[[[16.745639264762,51.6932360156424],[16.7460462757744,51.6931001323515],[16.7461121152393,51.6930833964521],[16.746892072071,51.6936624322662],[16.7461977975389,51.6940234839943],[16.745639264762,51.6932360156424]]]},"properties":{"case_id":"ST-WK-RA/WNIOSEK/3194/2026","source_type":"wniosek_decyzja","received_date":"2026-02-18","decision_date":"2026-03-24","status":"decyzja wydana","description":"zmiana decyzji NR 362/25 z dnia 17.10.2025 r. znak ABŚ.6740.347.2025 o pozwoleniu na budowę instalacji fotowoltaicznej o mocy do 350 kW wraz z infrastrukturą techniczną, tj. magazynek energii, stacją transformatorową, instalacjami SN i nN przy Oczyszczalni Ścieków Komunalnych","address":"Gołaszyn","city":"Gołaszyn","office":"Starosta Powiatu Rawicz","case_kind":"Obiekt budowlany inny niż budynek mieszkalny jednorodzinny","parcel_ids":["302201_5.0006.1098/1","302201_5.0006.1098/2"],"location_quality":"dokładny","gunb_url":"https://wyszukiwarka.gunb.gov.pl/","parcel_count":2,"parcel_shard":"x066-y206","parcel_id":"302201_5.0006.1098/1","location_source":"powiat rawicki (wfs)"}},{"type":"Feature","id":"ST-WK-RA/WNIOSEK/3194/2026::302201_5.0006.1098/2","geometry":{"type":"Polygon","coordinates":[[[16.7451411985781,51.6935628405031],[16.7453247810719,51.6933994933488],[16.7455299205251,51.6932725119919],[16.745639264762,51.6932360156424],[16.7461977975389,51.6940234839943],[16.746892072071,51.6936624322662],[16.7472804756874,51.6939490099549],[16.7460698962182,51.6946371475703],[16.7460010690692,51.6945944341336],[16.7458787771286,51.6945026990529],[16.7457928569708,51.6944033519541],[16.7455281568454,51.6941471249921],[16.7454212147573,51.6940025181143],[16.7453746372793,51.6939293893609],[16.7453046663093,51.6938444148849],[16.7452419395311,51.6938060808788],[16.7451013512294,51.6937641284903],[16.7449350884565,51.693709137212],[16.7451411985781,51.6935628405031]]]},"properties":{"case_id":"ST-WK-RA/WNIOSEK/3194/2026","source_type":"wniosek_decyzja","received_date":"2026-02-18","decision_date":"2026-03-24","status":"decyzja wydana","description":"zmiana decyzji NR 362/25 z dnia 17.10.2025 r. znak ABŚ.6740.347.2025 o pozwoleniu na budowę instalacji fotowoltaicznej o mocy do 350 kW wraz z infrastrukturą techniczną, tj. magazynek energii, stacją transformatorową, instalacjami SN i nN przy Oczyszczalni Ścieków Komunalnych","address":"Gołaszyn","city":"Gołaszyn","office":"Starosta Powiatu Rawicz","case_kind":"Obiekt budowlany inny niż budynek mieszkalny jednorodzinny","parcel_ids":["302201_5.0006.1098/1","302201_5.0006.1098/2"],"location_quality":"dokładny","gunb_url":"https://wyszukiwarka.gunb.gov.pl/","parcel_count":2,"parcel_shard":"x066-y206","parcel_id":"302201_5.0006.1098/2","location_source":"powiat rawicki (wfs)"}},{"type":"Feature","id":"ST-WK-RA/WNIOSEK/21971/2025::302201_5.0006.1121/7","geometry":{"type":"Polygon","coordinates":[[[16.7443523349404,51.7061577903385],[16.744369387475,51.7062050120564],[16.7441865578257,51.7062346542026],[16.7442600572949,51.7064054578784],[16.744426845258,51.7064399874657],[16.7444477632472,51.706505417258],[16.7444619442317,51.7065497587558],[16.7444624099153,51.7065512289402],[16.744151114268,51.7065903208014],[16.7440202887152,51.7062038872202],[16.7443523349404,51.7061577903385]]]},"properties":{"case_id":"ST-WK-RA/WNIOSEK/21971/2025","source_type":"wniosek_decyzja","received_date":"2025-10-23","decision_date":"2026-05-07","status":"decyzja wydana","description":"budowa budynku mieszkalnego jednorodzinnego","address":"Gołaszyn","city":"Gołaszyn","office":"Starosta Powiatu Rawicz","case_kind":"Budynek mieszkalny jednorodzinny","parcel_ids":["302201_5.0006.1121/7","302201_5.0006.1121/8"],"location_quality":"dokładny","gunb_url":"https://wyszukiwarka.gunb.gov.pl/","parcel_count":2,"parcel_shard":"x066-y206","parcel_id":"302201_5.0006.1121/7","location_source":"powiat rawicki (wfs)"}},{"type":"Feature","id":"ST-WK-RA/WNIOSEK/21971/2025::302201_5.0006.1121/8","geometry":{"type":"Polygon","coordinates":[[[16.7444624099153,51.7065512289402],[16.7444619442317,51.7065497587558],[16.7444477632472,51.706505417258],[16.744426845258,51.7064399874657],[16.7442600572949,51.7064054578784],[16.7441865578257,51.7062346542026],[16.744369387475,51.7062050120564],[16.7443523349404,51.7061577903385],[16.7445907886992,51.7061246793186],[16.7446081176359,51.7061661060469],[16.7444958585036,51.7061844395147],[16.7446072626859,51.7065330460385],[16.7444624099153,51.7065512289402]]]},"properties":{"case_id":"ST-WK-RA/WNIOSEK/21971/2025","source_type":"wniosek_decyzja","received_date":"2025-10-23","decision_date":"2026-05-07","status":"decyzja wydana","description":"budowa budynku mieszkalnego jednorodzinnego","address":"Gołaszyn","city":"Gołaszyn","office":"Starosta Powiatu Rawicz","case_kind":"Budynek mieszkalny jednorodzinny","parcel_ids":["302201_5.0006.1121/7","302201_5.0006.1121/8"],"location_quality":"dokładny","gunb_url":"https://wyszukiwarka.gunb.gov.pl/","parcel_count":2,"parcel_shard":"x066-y206","parcel_id":"302201_5.0006.1121/8","location_source":"powiat rawicki (wfs)"}},{"type":"Feature","id":"ST-WK-RA/WNIOSEK/13299/2026::302201_5.0006.207/3","geometry":{"type":"Polygon","coordinates":[[[16.7149218625596,51.7147560153056],[16.7149892616859,51.7147355242703],[16.7150357651586,51.714721385991],[16.7154262421171,51.7146026697211],[16.7157035967064,51.7145192039241],[16.7159630985386,51.7144411391675],[16.7160371718743,51.7144349318665],[16.7163019336261,51.7143575170769],[16.7204756304589,51.7130397820453],[16.7209472079849,51.7129095732926],[16.7209606784044,51.7130578588815],[16.7208683538441,51.7130836410064],[16.7205423650766,51.7131943797546],[16.7159324010063,51.7146104263879],[16.7155595765032,51.714734983914],[16.7151368204277,51.714859713343],[16.7148753338707,51.7149259789649],[16.7146679403212,51.7149523852257],[16.7142779844694,51.7150021424538],[16.7135900741012,51.7150874689701],[16.7128361224807,51.7151745848917],[16.7127239919221,51.715189177055],[16.7108742819867,51.7154292180869],[16.7107684131682,51.7154220337791],[16.710020524673,51.7155194456816],[16.7088992203396,51.7156493352557],[16.7074777253427,51.7158267000628],[16.7073731219012,51.7158411002663],[16.7070710583424,51.7158727528504],[16.7069626618616,51.7157608691419],[16.7073343896729,51.7157043286653],[16.7088605351321,51.7155138051734],[16.7106175656652,51.7152963398457],[16.7108305576773,51.715270190022],[16.710916902174,51.7152586336918],[16.7129452013989,51.7150161888563],[16.7141220404912,51.7148686974806],[16.7141767179703,51.714862077875],[16.7144860292773,51.7148180586889],[16.7144982971087,51.7148513533972],[16.714577279514,51.7148401183362],[16.7145649971609,51.7148068234775],[16.7149218625596,51.7147560153056]]]},"properties":{"case_id":"ST-WK-RA/WNIOSEK/13299/2026","source_type":"wniosek_decyzja","received_date":"2026-07-09","decision_date":"2026-08-03","status":"decyzja wydana","description":"budowa i montaż przydomowej oczyszczalni ścieków dla istniejącego budynku mieszkalnego wielorodzinnego wraz z odprowadzeniem oczyszczonych ścieków do rowu melioracyjnego","address":"Karolewo","city":"Karolewo","office":"Starosta Powiatu Rawicz","case_kind":"Obiekt budowlany inny niż budynek mieszkalny jednorodzinny","parcel_ids":["302201_5.0006.207/3","302201_5.0006.337/3"],"location_quality":"dokładny","gunb_url":"https://wyszukiwarka.gunb.gov.pl/","parcel_count":2,"parcel_shard":"x066-y206","parcel_id":"302201_5.0006.207/3","location_source":"powiat rawicki (wfs)"}},{"type":"Feature","id":"ST-WK-RA/WNIOSEK/13299/2026::302201_5.0006.337/3","geometry":{"type":"Polygon","coordinates":[[[16.7141767179703,51.714862077875],[16.7140949665576,51.7147229463838],[16.7140726080376,51.7146772678459],[16.7140620103618,51.7146166531556],[16.714069319599,51.7145724195962],[16.7144101369729,51.7145080114825],[16.7143932510989,51.7144736141468],[16.7143018567543,51.7142874385331],[16.7142965799774,51.7142766893595],[16.7145246828623,51.7142308494481],[16.7145898889193,51.7142403861443],[16.7147102150837,51.7144272809627],[16.7146204150721,51.7144442832395],[16.7146402380682,51.7144844352985],[16.7146593833803,51.7145232146431],[16.7146785287394,51.7145619939757],[16.7146975894064,51.7146006017219],[16.714717412537,51.7146407537678],[16.7147306279814,51.7146675217996],[16.7148502029028,51.7146447129071],[16.7149218625596,51.7147560153056],[16.7145649971609,51.7148068234775],[16.7144860292773,51.7148180586889],[16.7141767179703,51.714862077875]]]},"properties":{"case_id":"ST-WK-RA/WNIOSEK/13299/2026","source_type":"wniosek_decyzja","received_date":"2026-07-09","decision_date":"2026-08-03","status":"decyzja wydana","description":"budowa i montaż przydomowej oczyszczalni ścieków dla istniejącego budynku mieszkalnego wielorodzinnego wraz z odprowadzeniem oczyszczonych ścieków do rowu melioracyjnego","address":"Karolewo","city":"Karolewo","office":"Starosta Powiatu Rawicz","case_kind":"Obiekt budowlany inny niż budynek mieszkalny jednorodzinny","parcel_ids":["302201_5.0006.207/3","302201_5.0006.337/3"],"location_quality":"dokładny","gunb_url":"https://wyszukiwarka.gunb.gov.pl/","parcel_count":2,"parcel_shard":"x066-y206","parcel_id":"302201_5.0006.337/3","location_source":"powiat rawicki (wfs)"}},{"type":"Feature","id":"ST-WK-RA/WNIOSEK/471/2026::302201_5.0006.332/5","geometry":{"type":"Polygon","coordinates":[[[16.7425324623909,51.7059882682839],[16.7425163885315,51.7056925572419],[16.7435903309425,51.7056568255035],[16.7437101662014,51.7056162859758],[16.7440463607471,51.7055707107482],[16.7441719534803,51.7058472068111],[16.7436538869707,51.7059191529717],[16.7436349352016,51.7057769905471],[16.7432699229015,51.7057964450335],[16.7432810578979,51.7058769620682],[16.7430341652803,51.7058898717331],[16.743036951442,51.7059094076862],[16.7430440404092,51.7059616197675],[16.7429649288863,51.7059658071545],[16.7428921938525,51.7059696132698],[16.7427938517065,51.705974732187],[16.7426002842995,51.705985038785],[16.7425324623909,51.7059882682839]]]},"properties":{"case_id":"ST-WK-RA/WNIOSEK/471/2026","source_type":"wniosek_decyzja","received_date":"2026-01-08","decision_date":"2026-03-11","status":"decyzja wydana","description":"rozbudowa budynku gospodarczego","address":"30, Gołaszyn","city":"Gołaszyn","office":"Starosta Powiatu Rawicz","case_kind":"Obiekt budowlany inny niż budynek mieszkalny jednorodzinny","parcel_ids":["302201_5.0006.332/5"],"location_quality":"dokładny","gunb_url":"https://wyszukiwarka.gunb.gov.pl/","parcel_count":1,"parcel_shard":"x066-y206","parcel_id":"302201_5.0006.332/5","location_source":"powiat rawicki (wfs)"}},{"type":"Feature","id":"ST-WK-RA/WNIOSEK/2898/2026::302201_5.0006.355/5","geometry":{"type":"Polygon","coordinates":[[[16.7365623829416,51.7054466868419],[16.7368369757668,51.7053534571853],[16.7358670905351,51.705980076164],[16.7354778904211,51.706250232247],[16.7345833712138,51.7068500556032],[16.7336878217542,51.7074444676725],[16.732738771324,51.7080730833346],[16.7318991099179,51.7086281734688],[16.7309973483176,51.7092300488536],[16.7300784864889,51.7098423395468],[16.7295805926556,51.7101730557516],[16.7295361111815,51.7101597204598],[16.7316280587659,51.7087540599997],[16.7337297532,51.7073418156729],[16.7358289573344,51.7059311251697],[16.7365623829416,51.7054466868419]]]},"properties":{"case_id":"ST-WK-RA/WNIOSEK/2898/2026","source_type":"wniosek_decyzja","received_date":"2026-02-16","decision_date":"2026-04-02","status":"decyzja wydana","description":"rozbiórka budynku mieszkalnego jednorodzinnego wraz z zabudową gospodarczą","address":"114, Gołaszyn","city":"Gołaszyn","office":"Starosta Powiatu Rawicz","case_kind":"Budynek mieszkalny jednorodzinny","parcel_ids":["302201_5.0006.355/5","302201_5.0006.355/6"],"location_quality":"dokładny","gunb_url":"https://wyszukiwarka.gunb.gov.pl/","parcel_count":2,"parcel_shard":"x066-y206","parcel_id":"302201_5.0006.355/5","location_source":"powiat rawicki (wfs)"}},{"type":"Feature","id":"ST-WK-RA/WNIOSEK/2898/2026::302201_5.0006.355/6","geometry":{"type":"Polygon","coordinates":[[[16.7303780228948,51.7075006133332],[16.7305431597098,51.7074471154002],[16.7316909084621,51.7070657031278],[16.7326175451944,51.7067677396421],[16.7356835337304,51.7057450158129],[16.7365623829416,51.7054466868419],[16.7358289573344,51.7059311251697],[16.7337297532,51.7073418156729],[16.7316280587659,51.7087540599997],[16.7295361111815,51.7101597204598],[16.7292068064581,51.7100609653268],[16.7295149506074,51.7095671158012],[16.7297469646524,51.7083145786981],[16.7303780228948,51.7075006133332]]]},"properties":{"case_id":"ST-WK-RA/WNIOSEK/2898/2026","source_type":"wniosek_decyzja","received_date":"2026-02-16","decision_date":"2026-04-02","status":"decyzja wydana","description":"rozbiórka budynku mieszkalnego jednorodzinnego wraz z zabudową gospodarczą","address":"114, Gołaszyn","city":"Gołaszyn","office":"Starosta Powiatu Rawicz","case_kind":"Budynek mieszkalny jednorodzinny","parcel_ids":["302201_5.0006.355/5","302201_5.0006.355/6"],"location_quality":"dokładny","gunb_url":"https://wyszukiwarka.gunb.gov.pl/","parcel_count":2,"parcel_shard":"x066-y206","parcel_id":"302201_5.0006.355/6","location_source":"powiat rawicki (wfs)"}},{"type":"Feature","id":"ST-WK-RA/WNIOSEK/12575/2026::302201_5.0006.355/6","geometry":{"type":"Polygon","coordinates":[[[16.7303780228948,51.7075006133332],[16.7305431597098,51.7074471154002],[16.7316909084621,51.7070657031278],[16.7326175451944,51.7067677396421],[16.7356835337304,51.7057450158129],[16.7365623829416,51.7054466868419],[16.7358289573344,51.7059311251697],[16.7337297532,51.7073418156729],[16.7316280587659,51.7087540599997],[16.7295361111815,51.7101597204598],[16.7292068064581,51.7100609653268],[16.7295149506074,51.7095671158012],[16.7297469646524,51.7083145786981],[16.7303780228948,51.7075006133332]]]},"properties":{"case_id":"ST-WK-RA/WNIOSEK/12575/2026","source_type":"wniosek_decyzja","received_date":"2026-06-29","decision_date":"2026-08-11","status":"decyzja wydana","description":"rozbiórka budynku gospodarczego","address":"Gołaszyn","city":"Gołaszyn","office":"Starosta Powiatu Rawicz","case_kind":"Obiekt budowlany inny niż budynek mieszkalny jednorodzinny","parcel_ids":["302201_5.0006.355/6"],"location_quality":"dokładny","gunb_url":"https://wyszukiwarka.gunb.gov.pl/","parcel_count":1,"parcel_shard":"x066-y206","parcel_id":"302201_5.0006.355/6","location_source":"powiat rawicki (wfs)"}},{"type":"Feature","id":"ST-WK-RA/WNIOSEK/1394/2026::302201_5.0013.288","geometry":{"type":"Polygon","coordinates":[[[16.7311053117962,51.6788250918033],[16.7296555754142,51.6788944321098],[16.7297232391753,51.6786194964798],[16.7299613179516,51.6786024666823],[16.7307258053457,51.6785613732361],[16.7307982552098,51.6785574848869],[16.7309034958922,51.6785506775927],[16.7312078651954,51.6785392690286],[16.7311700948275,51.6786401251108],[16.7311124616013,51.6788033880335],[16.7311053117962,51.6788250918033]]]},"properties":{"case_id":"ST-WK-RA/WNIOSEK/1394/2026","source_type":"wniosek_decyzja","received_date":"2026-01-22","decision_date":"2026-03-17","status":"decyzja wydana","description":"wymiana stolarki okiennej w budynku przedszkola","address":"Trzebosz","city":"Trzebosz","office":"Starosta Powiatu Rawicz","case_kind":"Obiekt budowlany inny niż budynek mieszkalny jednorodzinny","parcel_ids":["302201_5.0013.288"],"location_quality":"dokładny","gunb_url":"https://wyszukiwarka.gunb.gov.pl/","parcel_count":1,"parcel_shard":"x066-y206","parcel_id":"302201_5.0013.288","location_source":"powiat rawicki (wfs)"}},{"type":"Feature","id":"ST-WK-RA/WNIOSEK/20687/2025::302201_5.0013.349","geometry":{"type":"Polygon","coordinates":[[[16.7318264326479,51.6800609646103],[16.731822324516,51.6799181740936],[16.7318400388317,51.6797395730881],[16.7328441948617,51.6796907750506],[16.7329273350587,51.6799804385097],[16.7320380084356,51.6800599228679],[16.731827897598,51.6800758123647],[16.7318264326479,51.6800609646103]]]},"properties":{"case_id":"ST-WK-RA/WNIOSEK/20687/2025","source_type":"wniosek_decyzja","received_date":"2025-09-02","decision_date":"2025-10-08","status":"decyzja wydana","description":"rozbudowa i przebudowa hali namiotowej","address":"Trzebosz","city":"Trzebosz","office":"Starosta Powiatu Rawicz","case_kind":"Obiekt budowlany inny niż budynek mieszkalny jednorodzinny","parcel_ids":["302201_5.0013.349"],"location_quality":"dokładny","gunb_url":"https://wyszukiwarka.gunb.gov.pl/","parcel_count":1,"parcel_shard":"x066-y206","parcel_id":"302201_5.0013.349","location_source":"powiat rawicki (wfs)"}},{"type":"Feature","id":"ST-WK-RA/WNIOSEK/12736/2026::302201_5.0015.12","geometry":{"type":"Polygon","coordinates":[[[16.6904976415094,51.6873406863519],[16.6905241664057,51.687355175809],[16.6895453109076,51.6872844999238],[16.6896942311362,51.6869072267218],[16.6904976415094,51.6873406863519]]]},"properties":{"case_id":"ST-WK-RA/WNIOSEK/12736/2026","source_type":"wniosek_decyzja","received_date":"2026-07-02","decision_date":"2026-08-12","status":"decyzja wydana","description":"budowa budynku mieszkalnego jednorodzinnego","address":"Zaborowice","city":"Zaborowice","office":"Starosta Powiatu Rawicz","case_kind":"Budynek mieszkalny jednorodzinny","parcel_ids":["302201_5.0015.12"],"location_quality":"dokładny","gunb_url":"https://wyszukiwarka.gunb.gov.pl/","parcel_count":1,"parcel_shard":"x066-y206","parcel_id":"302201_5.0015.12","location_source":"powiat rawicki (wfs)"}},{"type":"Feature","id":"ST-WK-RA/WNIOSEK/4230/2026::302201_5.0015.14/19","geometry":{"type":"Polygon","coordinates":[[[16.6903012979637,51.6855083391118],[16.690650440475,51.6850062093981],[16.6908659070005,51.6852687010722],[16.690905346166,51.6853167378025],[16.6903012979637,51.6855083391118]]]},"properties":{"case_id":"ST-WK-RA/WNIOSEK/4230/2026","source_type":"wniosek_decyzja","received_date":"2026-03-05","decision_date":"2026-05-07","status":"decyzja wydana","description":"budowa budynku mieszkalnego jednorodzinnego wraz ze zbiornikiem bezodpływowym na nieczystości ciekłe","address":"Zaborowice","city":"Zaborowice","office":"Starosta Powiatu Rawicz","case_kind":"Budynek mieszkalny jednorodzinny","parcel_ids":["302201_5.0015.14/19"],"location_quality":"dokładny","gunb_url":"https://wyszukiwarka.gunb.gov.pl/","parcel_count":1,"parcel_shard":"x066-y206","parcel_id":"302201_5.0015.14/19","location_source":"powiat rawicki (wfs)"}},{"type":"Feature","id":"ST-WK-RA/WNIOSEK/25743/2025::302201_5.0015.14/6","geometry":{"type":"Polygon","coordinates":[[[16.6905432825923,51.6862992623154],[16.6902803507949,51.6859791062819],[16.6905894789704,51.6858810660741],[16.6908524124056,51.6862012214321],[16.6905432825923,51.6862992623154]]]},"properties":{"case_id":"ST-WK-RA/WNIOSEK/25743/2025","source_type":"wniosek_decyzja","received_date":"2025-09-22","decision_date":"2025-12-11","status":"decyzja wydana","description":"zmiana decyzji NR 490/21 z dnia 29.09.2021r. znak ABŚ.6740.455.2021 o pozwoleniu na budowę budynku mieszkalnego jednorodzinnego","address":"Zaborowice","city":"Zaborowice","office":"Starosta Powiatu Rawicz","case_kind":"Budynek mieszkalny jednorodzinny","parcel_ids":["302201_5.0015.14/6"],"location_quality":"dokładny","gunb_url":"https://wyszukiwarka.gunb.gov.pl/","parcel_count":1,"parcel_shard":"x066-y206","parcel_id":"302201_5.0015.14/6","location_source":"powiat rawicki (wfs)"}}]}