{"type":"FeatureCollection","features":[{"type":"Feature","id":"ST-WK-PI/WNIOSEK/5769/2026::301904_4.0001.1196/5","geometry":{"type":"Polygon","coordinates":[[[17.2513811828004,53.2594656317084],[17.2514296120811,53.2594778706981],[17.252143739729,53.2596583409629],[17.2521974275365,53.2596719084089],[17.2525153702856,53.2596586699657],[17.2526913779163,53.2596458736234],[17.2526709317655,53.259769936811],[17.2525659841881,53.2599528700654],[17.252571192146,53.2600409689277],[17.2527811697186,53.2600486653435],[17.2527672674564,53.2601928091055],[17.2526100002928,53.2601875099489],[17.2525994834984,53.2602749710553],[17.2524252829923,53.2602695655084],[17.2524546150373,53.260208931608],[17.2523242782527,53.2601874046415],[17.2523135950823,53.2602082920789],[17.2516857839116,53.2600656991392],[17.2510821541205,53.2599143643946],[17.2511476926355,53.2597770735239],[17.2512680860888,53.259524869471],[17.251305494796,53.2594465038867],[17.2513811828004,53.2594656317084]]]},"properties":{"case_id":"ST-WK-PI/WNIOSEK/5769/2026","source_type":"wniosek_decyzja","received_date":"2026-03-26","decision_date":"2026-05-25","status":"decyzja wydana","description":"przebudowa istniejącego boiska piłkarskiego w ramach inwestycji pod nazwą \"Modernizacja kompleksu boisk ORLIK w Łobżenicy","address":"Łobżenica","city":"Łobżenica","office":"Starosta Powiatu Piła","case_kind":"Obiekt budowlany inny niż budynek mieszkalny jednorodzinny","parcel_ids":["301904_4.0001.1196/5"],"location_quality":"dokładny","gunb_url":"https://wyszukiwarka.gunb.gov.pl/","parcel_count":1,"parcel_shard":"x069-y213","parcel_id":"301904_4.0001.1196/5","location_source":"powiat pilski (wfs)"}},{"type":"Feature","id":"ST-WK-PI/WNIOSEK/5773/2026::301904_4.0001.1196/5","geometry":{"type":"Polygon","coordinates":[[[17.2513811828004,53.2594656317084],[17.2514296120811,53.2594778706981],[17.252143739729,53.2596583409629],[17.2521974275365,53.2596719084089],[17.2525153702856,53.2596586699657],[17.2526913779163,53.2596458736234],[17.2526709317655,53.259769936811],[17.2525659841881,53.2599528700654],[17.252571192146,53.2600409689277],[17.2527811697186,53.2600486653435],[17.2527672674564,53.2601928091055],[17.2526100002928,53.2601875099489],[17.2525994834984,53.2602749710553],[17.2524252829923,53.2602695655084],[17.2524546150373,53.260208931608],[17.2523242782527,53.2601874046415],[17.2523135950823,53.2602082920789],[17.2516857839116,53.2600656991392],[17.2510821541205,53.2599143643946],[17.2511476926355,53.2597770735239],[17.2512680860888,53.259524869471],[17.251305494796,53.2594465038867],[17.2513811828004,53.2594656317084]]]},"properties":{"case_id":"ST-WK-PI/WNIOSEK/5773/2026","source_type":"wniosek_decyzja","received_date":"2026-03-26","decision_date":"2026-05-07","status":"decyzja wydana","description":"przebudowa istniejącej ściany oporowej w ramach inwestycji pod nazwą \"Modernizacja kompleksu boisk ORLIK w Łobżenicy","address":"Łobżenica","city":"Łobżenica","office":"Starosta Powiatu Piła","case_kind":"Obiekt budowlany inny niż budynek mieszkalny jednorodzinny","parcel_ids":["301904_4.0001.1196/5","301904_4.0001.502"],"location_quality":"dokładny","gunb_url":"https://wyszukiwarka.gunb.gov.pl/","parcel_count":2,"parcel_shard":"x069-y213","parcel_id":"301904_4.0001.1196/5","location_source":"powiat pilski (wfs)"}},{"type":"Feature","id":"ST-WK-PI/WNIOSEK/5773/2026::301904_4.0001.502","geometry":{"type":"Polygon","coordinates":[[[17.2522647123225,53.2603127322211],[17.2516244526144,53.2602117188045],[17.2516857839116,53.2600656991392],[17.2523135950823,53.2602082920789],[17.2522647123225,53.2603127322211]]]},"properties":{"case_id":"ST-WK-PI/WNIOSEK/5773/2026","source_type":"wniosek_decyzja","received_date":"2026-03-26","decision_date":"2026-05-07","status":"decyzja wydana","description":"przebudowa istniejącej ściany oporowej w ramach inwestycji pod nazwą \"Modernizacja kompleksu boisk ORLIK w Łobżenicy","address":"Łobżenica","city":"Łobżenica","office":"Starosta Powiatu Piła","case_kind":"Obiekt budowlany inny niż budynek mieszkalny jednorodzinny","parcel_ids":["301904_4.0001.1196/5","301904_4.0001.502"],"location_quality":"dokładny","gunb_url":"https://wyszukiwarka.gunb.gov.pl/","parcel_count":2,"parcel_shard":"x069-y213","parcel_id":"301904_4.0001.502","location_source":"powiat pilski (wfs)"}},{"type":"Feature","id":"ST-WK-PI/WNIOSEK/5700/2026::301904_4.0001.199","geometry":{"type":"Polygon","coordinates":[[[17.2584108877356,53.266852390143],[17.2584612049876,53.2671883186377],[17.2582789300691,53.2671823881223],[17.2582318303161,53.266862051784],[17.2584108877356,53.266852390143]]]},"properties":{"case_id":"ST-WK-PI/WNIOSEK/5700/2026","source_type":"wniosek_decyzja","received_date":"2026-03-23","decision_date":"2026-05-19","status":"decyzja wydana","description":"rozbiórka budynku gospodarczego","address":"Powstańców Śląskich, Łobżenica","city":"Łobżenica","office":"Starosta Powiatu Piła","case_kind":"Obiekt budowlany inny niż budynek mieszkalny jednorodzinny","parcel_ids":["301904_4.0001.199"],"location_quality":"dokładny","gunb_url":"https://wyszukiwarka.gunb.gov.pl/","parcel_count":1,"parcel_shard":"x069-y213","parcel_id":"301904_4.0001.199","location_source":"powiat pilski (wfs)"}},{"type":"Feature","id":"ST-WK-PI/ZGŁOSZENIE/323/2026::301904_4.0001.20","geometry":{"type":"Polygon","coordinates":[[[17.2537141637345,53.2694094525783],[17.2547656691294,53.2694300921995],[17.2553975301004,53.2695630968882],[17.2551986323091,53.26989284198],[17.2550263724125,53.2702070105284],[17.254834202932,53.2708742874119],[17.2541271638214,53.2714430159655],[17.2537432206662,53.2717042545658],[17.2537287825324,53.2706249309299],[17.2537141637345,53.2694094525783]]]},"properties":{"case_id":"ST-WK-PI/ZGŁOSZENIE/323/2026","source_type":"zgloszenie","received_date":"2026-02-03","decision_date":null,"status":"Brak sprzeciwu","description":"Zadanie 5 - Stadion boczny w msc. Łobżenica, Gmina Łobżenica działki ew. nr: 20, 120, 122/1, 121/3","address":"Łobżenica","city":"Łobżenica","office":"Starosta Powiatu Piła","case_kind":"budowa nowego/nowych obiektów budowlanych","parcel_ids":["301904_4.0001.20","301904_5.0015.120","301904_5.0015.121/3","301904_5.0015.122/1"],"location_quality":"dokładny","gunb_url":"https://wyszukiwarka.gunb.gov.pl/","parcel_count":4,"parcel_shard":"x069-y213","parcel_id":"301904_4.0001.20","location_source":"powiat pilski (wfs)"}},{"type":"Feature","id":"ST-WK-PI/ZGŁOSZENIE/323/2026::301904_5.0015.120","geometry":{"type":"Polygon","coordinates":[[[17.2535281669842,53.272007331876],[17.2536313095931,53.2718864823142],[17.254182786503,53.271535152458],[17.2548376135868,53.2709978532867],[17.2548626034753,53.2711718821285],[17.2549357737829,53.2716937027008],[17.2549575441454,53.2718552460695],[17.2549729218448,53.2719514319514],[17.2535281669842,53.272007331876]]]},"properties":{"case_id":"ST-WK-PI/ZGŁOSZENIE/323/2026","source_type":"zgloszenie","received_date":"2026-02-03","decision_date":null,"status":"Brak sprzeciwu","description":"Zadanie 5 - Stadion boczny w msc. Łobżenica, Gmina Łobżenica działki ew. nr: 20, 120, 122/1, 121/3","address":"Łobżenica","city":"Łobżenica","office":"Starosta Powiatu Piła","case_kind":"budowa nowego/nowych obiektów budowlanych","parcel_ids":["301904_4.0001.20","301904_5.0015.120","301904_5.0015.121/3","301904_5.0015.122/1"],"location_quality":"dokładny","gunb_url":"https://wyszukiwarka.gunb.gov.pl/","parcel_count":4,"parcel_shard":"x069-y213","parcel_id":"301904_5.0015.120","location_source":"powiat pilski (wfs)"}},{"type":"Feature","id":"ST-WK-PI/ZGŁOSZENIE/323/2026::301904_5.0015.121/3","geometry":{"type":"Polygon","coordinates":[[[17.2479664761388,53.2747047702841],[17.2481072039623,53.2746816641867],[17.2490714301508,53.2746582647791],[17.2491000274356,53.274643257961],[17.2495817253894,53.2736494366984],[17.2497654768995,53.2734377965971],[17.2499139638437,53.2734079075814],[17.2505562998981,53.2735044155671],[17.2508709257944,53.2735239158386],[17.2508974715981,53.2735232738296],[17.2508877492436,53.2734877167538],[17.2519913917463,53.2734799969786],[17.2522115427363,53.2734582828551],[17.2523594617583,53.2734436639959],[17.2525100648811,53.2734040797851],[17.2526644372319,53.2733116793951],[17.2529437606673,53.2730859856346],[17.2531379678885,53.2728582304792],[17.2532062592788,53.2726642838807],[17.2532712391398,53.2722646194169],[17.2533811322572,53.2720575435774],[17.2535048049051,53.2718855107194],[17.2537432206662,53.2717042545658],[17.2541271638214,53.2714430159655],[17.254834202932,53.2708742874119],[17.2548376135868,53.2709978532867],[17.254182786503,53.271535152458],[17.2536313095931,53.2718864823142],[17.2535281669842,53.272007331876],[17.253464664425,53.2720814310136],[17.2533781055383,53.2722742749024],[17.2532604211713,53.2728767902894],[17.253135700989,53.2730312929744],[17.2528898865369,53.2732353603495],[17.252686282216,53.2733484805177],[17.2525407840096,53.2734306022824],[17.2523743915435,53.2734729631668],[17.2519972804509,53.2735119353834],[17.2518689239228,53.2735480639881],[17.2514017293879,53.2735604087764],[17.2509073470066,53.2735586521393],[17.2508536510559,53.2735602019491],[17.2505484017769,53.2735359978088],[17.2499198840205,53.2734379591621],[17.2498022719972,53.2734596851389],[17.24962324407,53.2736584147045],[17.2491410264163,53.2746562767065],[17.2490836819373,53.2746862894115],[17.2480774971838,53.2747086155896],[17.2479875886116,53.2747233254006],[17.2479664761388,53.2747047702841]]]},"properties":{"case_id":"ST-WK-PI/ZGŁOSZENIE/323/2026","source_type":"zgloszenie","received_date":"2026-02-03","decision_date":null,"status":"Brak sprzeciwu","description":"Zadanie 5 - Stadion boczny w msc. Łobżenica, Gmina Łobżenica działki ew. nr: 20, 120, 122/1, 121/3","address":"Łobżenica","city":"Łobżenica","office":"Starosta Powiatu Piła","case_kind":"budowa nowego/nowych obiektów budowlanych","parcel_ids":["301904_4.0001.20","301904_5.0015.120","301904_5.0015.121/3","301904_5.0015.122/1"],"location_quality":"dokładny","gunb_url":"https://wyszukiwarka.gunb.gov.pl/","parcel_count":4,"parcel_shard":"x069-y213","parcel_id":"301904_5.0015.121/3","location_source":"powiat pilski (wfs)"}},{"type":"Feature","id":"ST-WK-PI/ZGŁOSZENIE/323/2026::301904_5.0015.122/1","geometry":{"type":"Polygon","coordinates":[[[17.2529141641296,53.2693923281084],[17.2537130645118,53.2693223696067],[17.2537141637345,53.2694094525783],[17.2537287825324,53.2706249309299],[17.2537432206662,53.2717042545658],[17.2529327161991,53.2717074134583],[17.252919302634,53.2700434201831],[17.2529141641296,53.2693923281084]]]},"properties":{"case_id":"ST-WK-PI/ZGŁOSZENIE/323/2026","source_type":"zgloszenie","received_date":"2026-02-03","decision_date":null,"status":"Brak sprzeciwu","description":"Zadanie 5 - Stadion boczny w msc. Łobżenica, Gmina Łobżenica działki ew. nr: 20, 120, 122/1, 121/3","address":"Łobżenica","city":"Łobżenica","office":"Starosta Powiatu Piła","case_kind":"budowa nowego/nowych obiektów budowlanych","parcel_ids":["301904_4.0001.20","301904_5.0015.120","301904_5.0015.121/3","301904_5.0015.122/1"],"location_quality":"dokładny","gunb_url":"https://wyszukiwarka.gunb.gov.pl/","parcel_count":4,"parcel_shard":"x069-y213","parcel_id":"301904_5.0015.122/1","location_source":"powiat pilski (wfs)"}},{"type":"Feature","id":"ST-WK-PI/ZGŁOSZENIE/320/2026::301904_4.0001.389/3","geometry":{"type":"Polygon","coordinates":[[[17.2548907316783,53.2638912180792],[17.254902273837,53.2639342449171],[17.2549290141414,53.264034160399],[17.2548191263126,53.264078764852],[17.2547735496391,53.2639071104796],[17.2548907316783,53.2638912180792]]]},"properties":{"case_id":"ST-WK-PI/ZGŁOSZENIE/320/2026","source_type":"zgloszenie","received_date":"2026-02-03","decision_date":null,"status":"Brak sprzeciwu","description":"Zadanie 3 - Plac przy OSP w msc. Łobżenica, Gmina Łobżenica działki ew. nr: 389/3, 389/4","address":"Łobżenica","city":"Łobżenica","office":"Starosta Powiatu Piła","case_kind":"budowa nowego/nowych obiektów budowlanych","parcel_ids":["301904_4.0001.389/3","301904_4.0001.389/4"],"location_quality":"dokładny","gunb_url":"https://wyszukiwarka.gunb.gov.pl/","parcel_count":2,"parcel_shard":"x069-y213","parcel_id":"301904_4.0001.389/3","location_source":"powiat pilski (wfs)"}},{"type":"Feature","id":"ST-WK-PI/ZGŁOSZENIE/320/2026::301904_4.0001.389/4","geometry":{"type":"Polygon","coordinates":[[[17.2548191263126,53.264078764852],[17.254755729024,53.2641045188791],[17.2533344818923,53.2642729279315],[17.2532300217915,53.2641779171624],[17.2531756441548,53.2641246470325],[17.2547735496391,53.2639071104796],[17.2548191263126,53.264078764852]]]},"properties":{"case_id":"ST-WK-PI/ZGŁOSZENIE/320/2026","source_type":"zgloszenie","received_date":"2026-02-03","decision_date":null,"status":"Brak sprzeciwu","description":"Zadanie 3 - Plac przy OSP w msc. Łobżenica, Gmina Łobżenica działki ew. nr: 389/3, 389/4","address":"Łobżenica","city":"Łobżenica","office":"Starosta Powiatu Piła","case_kind":"budowa nowego/nowych obiektów budowlanych","parcel_ids":["301904_4.0001.389/3","301904_4.0001.389/4"],"location_quality":"dokładny","gunb_url":"https://wyszukiwarka.gunb.gov.pl/","parcel_count":2,"parcel_shard":"x069-y213","parcel_id":"301904_4.0001.389/4","location_source":"powiat pilski (wfs)"}},{"type":"Feature","id":"ST-WK-PI/WNIOSEK/23088/2025::301904_4.0001.510","geometry":{"type":"Polygon","coordinates":[[[17.2520264539371,53.2611304724952],[17.2513783492955,53.2611227141235],[17.2513705963651,53.2610119601404],[17.2520351328688,53.2610281724457],[17.2520264539371,53.2611304724952]]]},"properties":{"case_id":"ST-WK-PI/WNIOSEK/23088/2025","source_type":"wniosek_decyzja","received_date":"2025-11-07","decision_date":"2026-01-12","status":"decyzja wydana","description":"Rozbudowa budynku gospodarczego","address":"Łobżenica","city":"Łobżenica","office":"Starosta Powiatu Piła","case_kind":"Obiekt budowlany inny niż budynek mieszkalny jednorodzinny","parcel_ids":["301904_4.0001.510"],"location_quality":"dokładny","gunb_url":"https://wyszukiwarka.gunb.gov.pl/","parcel_count":1,"parcel_shard":"x069-y213","parcel_id":"301904_4.0001.510","location_source":"powiat pilski (wfs)"}},{"type":"Feature","id":"ST-WK-PI/WNIOSEK/11802/2026::301904_4.0001.603","geometry":{"type":"Polygon","coordinates":[[[17.2576516407265,53.2608633678129],[17.2576507176015,53.260862741792],[17.2576908554697,53.260849794656],[17.257898437561,53.2608540911952],[17.2581576122816,53.2612605275729],[17.2583343584515,53.2615260698276],[17.2585513162577,53.261478829064],[17.2585842905203,53.2616299883735],[17.2585814112009,53.2617747688788],[17.257908212851,53.2617861626165],[17.2578310509681,53.2617408746719],[17.2576898532375,53.2613459310473],[17.2573355024243,53.261375460264],[17.2572949251195,53.2611996034377],[17.2572889446794,53.26118320917],[17.2576516407265,53.2608633678129]]]},"properties":{"case_id":"ST-WK-PI/WNIOSEK/11802/2026","source_type":"wniosek_decyzja","received_date":"2026-06-19","decision_date":"2026-08-18","status":"decyzja wydana","description":"rozbudowa budynku Urzędu Miejskiego Gminy Łobżenica o zewnętrzny szyb dźwigu osobowego wraz z przebudową","address":"Sikorskiego 7, Łobżenica","city":"Łobżenica","office":"Starosta Powiatu Piła","case_kind":"Obiekt budowlany inny niż budynek mieszkalny jednorodzinny","parcel_ids":["301904_4.0001.603"],"location_quality":"dokładny","gunb_url":"https://wyszukiwarka.gunb.gov.pl/","parcel_count":1,"parcel_shard":"x069-y213","parcel_id":"301904_4.0001.603","location_source":"powiat pilski (wfs)"}},{"type":"Feature","id":"ST-WK-PI/WNIOSEK/7323/2026::301904_4.0001.77","geometry":{"type":"Polygon","coordinates":[[[17.2517115380986,53.2671511434675],[17.2519301987192,53.2671270841297],[17.2520463071598,53.2670702100686],[17.252189474142,53.2670000256202],[17.2524737708095,53.2668632820685],[17.2526606534146,53.2667733927504],[17.2526603375016,53.2666773109972],[17.2529193249413,53.2668781151741],[17.2527732208682,53.266857511557],[17.2525401851195,53.2669705637618],[17.2524172732607,53.2671054586451],[17.2521938818266,53.2671361680235],[17.2520074107544,53.2672244124378],[17.2518349096984,53.2672575683074],[17.2516539134623,53.2672233236787],[17.2517115380986,53.2671511434675]]]},"properties":{"case_id":"ST-WK-PI/WNIOSEK/7323/2026","source_type":"wniosek_decyzja","received_date":"2026-04-14","decision_date":"2026-05-04","status":"decyzja wydana","description":"Budowa drogi wewnętrznej ul. Sosnowej w ramach zadania pn. \"Przebudowa ulic: Sosnowej, Targowej oraz działki drogowej nr 219/2 w m.Rataje\" realizowanej na terenie działek nr 93/1, 77, obręb 0001 Łobżenica, gm.Łobżenica","address":"Łobżenica","city":"Łobżenica","office":"Starosta Powiatu Piła","case_kind":"Obiekt budowlany inny niż budynek mieszkalny jednorodzinny","parcel_ids":["301904_4.0001.77","301904_4.0001.93/1"],"location_quality":"dokładny","gunb_url":"https://wyszukiwarka.gunb.gov.pl/","parcel_count":2,"parcel_shard":"x069-y213","parcel_id":"301904_4.0001.77","location_source":"powiat pilski (wfs)"}},{"type":"Feature","id":"ST-WK-PI/WNIOSEK/7323/2026::301904_4.0001.93/1","geometry":{"type":"Polygon","coordinates":[[[17.2508841799441,53.2672947622977],[17.2508286808189,53.2670740685905],[17.2507741716779,53.2668567958772],[17.2509478952125,53.266839555186],[17.2509637457603,53.26690175036],[17.2510327806489,53.2671713248496],[17.2511012046604,53.2672014095301],[17.2514122778572,53.2671728092978],[17.2517146218649,53.2671462203335],[17.2517115380986,53.2671511434675],[17.2516539134623,53.2672233236787],[17.2514193212771,53.2672448890289],[17.251060147051,53.267277894988],[17.2508841799441,53.2672947622977]]]},"properties":{"case_id":"ST-WK-PI/WNIOSEK/7323/2026","source_type":"wniosek_decyzja","received_date":"2026-04-14","decision_date":"2026-05-04","status":"decyzja wydana","description":"Budowa drogi wewnętrznej ul. Sosnowej w ramach zadania pn. \"Przebudowa ulic: Sosnowej, Targowej oraz działki drogowej nr 219/2 w m.Rataje\" realizowanej na terenie działek nr 93/1, 77, obręb 0001 Łobżenica, gm.Łobżenica","address":"Łobżenica","city":"Łobżenica","office":"Starosta Powiatu Piła","case_kind":"Obiekt budowlany inny niż budynek mieszkalny jednorodzinny","parcel_ids":["301904_4.0001.77","301904_4.0001.93/1"],"location_quality":"dokładny","gunb_url":"https://wyszukiwarka.gunb.gov.pl/","parcel_count":2,"parcel_shard":"x069-y213","parcel_id":"301904_4.0001.93/1","location_source":"powiat pilski (wfs)"}},{"type":"Feature","id":"ST-WK-PI/WNIOSEK/22417/2025::301904_4.0001.788/3","geometry":{"type":"Polygon","coordinates":[[[17.2543571749554,53.256921689104],[17.2541436011424,53.2569560964378],[17.2540626543793,53.2569403132293],[17.2537565157082,53.2568878043384],[17.253639842332,53.2568669445933],[17.253523890102,53.2568477067923],[17.2535004142719,53.2568416514978],[17.2541386163792,53.2568893686566],[17.2543571749554,53.256921689104]]]},"properties":{"case_id":"ST-WK-PI/WNIOSEK/22417/2025","source_type":"wniosek_decyzja","received_date":"2025-10-30","decision_date":"2026-01-09","status":"decyzja wydana","description":"budowa budynku kotłowni wraz z infrastrukturą techniczną","address":"Łobżenica","city":"Łobżenica","office":"Starosta Powiatu Piła","case_kind":"Obiekt budowlany inny niż budynek mieszkalny jednorodzinny","parcel_ids":["301904_4.0001.788/3","301904_4.0001.788/4","301904_4.0001.890","301904_4.0001.891/1","301904_4.0001.892/1","301904_4.0001.892/2","301904_4.0001.982/1","301904_4.0001.982/2","301904_4.0001.982/3"],"location_quality":"dokładny","gunb_url":"https://wyszukiwarka.gunb.gov.pl/","parcel_count":9,"parcel_shard":"x069-y213","parcel_id":"301904_4.0001.788/3","location_source":"powiat pilski (wfs)"}},{"type":"Feature","id":"ST-WK-PI/WNIOSEK/22417/2025::301904_4.0001.788/4","geometry":{"type":"Polygon","coordinates":[[[17.2479571997652,53.2589380493559],[17.2479511894687,53.258923854759],[17.2480313084938,53.2588876014928],[17.2482460955485,53.2589197791271],[17.2485262124584,53.2587730005522],[17.2486961959822,53.2586851569484],[17.2490283557581,53.2586727314604],[17.2491343260803,53.2586032154589],[17.2494219977697,53.2585210942378],[17.2499291718618,53.25849274385],[17.2505293864058,53.2583885023363],[17.250689374096,53.2584178149151],[17.2511886560658,53.2584379358741],[17.251401453,53.258438126957],[17.2515714459319,53.2582457818443],[17.2519569688297,53.2582001882961],[17.2522745535296,53.2581222512635],[17.252316481061,53.2581143210451],[17.2523305885594,53.2580898235468],[17.2525146346564,53.2577726384219],[17.2526342442191,53.257579112098],[17.2526759197633,53.2575116812951],[17.252800945634,53.2573093887917],[17.2529363889917,53.2570902384284],[17.2530883182561,53.2569789469009],[17.2533034581646,53.2568814025099],[17.2534042192937,53.2568377398087],[17.2535004142719,53.2568416514978],[17.253523890102,53.2568477067923],[17.253639842332,53.2568669445933],[17.2537565157082,53.2568878043384],[17.2540626543793,53.2569403132293],[17.2541436011424,53.2569560964378],[17.2543571749554,53.256921689104],[17.2546402430295,53.2569463018396],[17.2547038612219,53.2569398041115],[17.2547689588861,53.2569331552445],[17.2550461426693,53.256836554316],[17.2551929017805,53.2567854070676],[17.2553096926323,53.2568502100933],[17.2550422327776,53.2569784705592],[17.2550141182484,53.2569455583217],[17.2546703382664,53.2570226535511],[17.2543638071133,53.2569865895673],[17.2537004451878,53.2569084384898],[17.2534736671721,53.2568999857127],[17.2533898069752,53.2569144446006],[17.253308561102,53.2569284853843],[17.2530935667496,53.2570273750007],[17.2529764737027,53.2571094973671],[17.2529392373017,53.2571720124302],[17.2528709031921,53.2572867359891],[17.2527569786252,53.2574779981637],[17.2523863645312,53.2581001907795],[17.2523462054425,53.2581676093117],[17.2522182462275,53.2581810809708],[17.2516147856813,53.2582650391396],[17.2514198772651,53.258466326466],[17.251207572096,53.2584675474839],[17.2508484061569,53.258455427988],[17.2505434172042,53.2584296266281],[17.2499477705725,53.258553601144],[17.2494509761575,53.2586400758974],[17.2491616478741,53.2587073460204],[17.2490797752092,53.2587364656525],[17.2490506536161,53.2587451366977],[17.2487216892355,53.2587736614397],[17.248550829402,53.2588532728114],[17.248519737152,53.2588735899852],[17.248274486591,53.2590183844732],[17.2480500312564,53.2590020306344],[17.2479571997652,53.2589380493559]]]},"properties":{"case_id":"ST-WK-PI/WNIOSEK/22417/2025","source_type":"wniosek_decyzja","received_date":"2025-10-30","decision_date":"2026-01-09","status":"decyzja wydana","description":"budowa budynku kotłowni wraz z infrastrukturą techniczną","address":"Łobżenica","city":"Łobżenica","office":"Starosta Powiatu Piła","case_kind":"Obiekt budowlany inny niż budynek mieszkalny jednorodzinny","parcel_ids":["301904_4.0001.788/3","301904_4.0001.788/4","301904_4.0001.890","301904_4.0001.891/1","301904_4.0001.892/1","301904_4.0001.892/2","301904_4.0001.982/1","301904_4.0001.982/2","301904_4.0001.982/3"],"location_quality":"dokładny","gunb_url":"https://wyszukiwarka.gunb.gov.pl/","parcel_count":9,"parcel_shard":"x069-y213","parcel_id":"301904_4.0001.788/4","location_source":"powiat pilski (wfs)"}},{"type":"Feature","id":"ST-WK-PI/WNIOSEK/22417/2025::301904_4.0001.890","geometry":{"type":"Polygon","coordinates":[[[17.253825167854,53.2574558497433],[17.2528709031921,53.2572867359891],[17.2529392373017,53.2571720124302],[17.2537777219419,53.2573031368343],[17.253926986216,53.2573264784588],[17.253825167854,53.2574558497433]]]},"properties":{"case_id":"ST-WK-PI/WNIOSEK/22417/2025","source_type":"wniosek_decyzja","received_date":"2025-10-30","decision_date":"2026-01-09","status":"decyzja wydana","description":"budowa budynku kotłowni wraz z infrastrukturą techniczną","address":"Łobżenica","city":"Łobżenica","office":"Starosta Powiatu Piła","case_kind":"Obiekt budowlany inny niż budynek mieszkalny jednorodzinny","parcel_ids":["301904_4.0001.788/3","301904_4.0001.788/4","301904_4.0001.890","301904_4.0001.891/1","301904_4.0001.892/1","301904_4.0001.892/2","301904_4.0001.982/1","301904_4.0001.982/2","301904_4.0001.982/3"],"location_quality":"dokładny","gunb_url":"https://wyszukiwarka.gunb.gov.pl/","parcel_count":9,"parcel_shard":"x069-y213","parcel_id":"301904_4.0001.890","location_source":"powiat pilski (wfs)"}},{"type":"Feature","id":"ST-WK-PI/WNIOSEK/22417/2025::301904_4.0001.891/1","geometry":{"type":"Polygon","coordinates":[[[17.2539902437373,53.257280224833],[17.2538047942848,53.257245421513],[17.2537777219419,53.2573031368343],[17.2529392373017,53.2571720124302],[17.2529764737027,53.2571094973671],[17.2530935667496,53.2570273750007],[17.2540659395679,53.2572248762015],[17.2539902437373,53.257280224833]]]},"properties":{"case_id":"ST-WK-PI/WNIOSEK/22417/2025","source_type":"wniosek_decyzja","received_date":"2025-10-30","decision_date":"2026-01-09","status":"decyzja wydana","description":"budowa budynku kotłowni wraz z infrastrukturą techniczną","address":"Łobżenica","city":"Łobżenica","office":"Starosta Powiatu Piła","case_kind":"Obiekt budowlany inny niż budynek mieszkalny jednorodzinny","parcel_ids":["301904_4.0001.788/3","301904_4.0001.788/4","301904_4.0001.890","301904_4.0001.891/1","301904_4.0001.892/1","301904_4.0001.892/2","301904_4.0001.982/1","301904_4.0001.982/2","301904_4.0001.982/3"],"location_quality":"dokładny","gunb_url":"https://wyszukiwarka.gunb.gov.pl/","parcel_count":9,"parcel_shard":"x069-y213","parcel_id":"301904_4.0001.891/1","location_source":"powiat pilski (wfs)"}},{"type":"Feature","id":"ST-WK-PI/WNIOSEK/22417/2025::301904_4.0001.892/1","geometry":{"type":"Polygon","coordinates":[[[17.2543638071133,53.2569865895673],[17.2541559957993,53.2570102718142],[17.2540389328634,53.2570031591433],[17.2537186692369,53.2569700621661],[17.2534991095943,53.2569110851528],[17.2533898069752,53.2569144446006],[17.2534736671721,53.2568999857127],[17.2537004451878,53.2569084384898],[17.2543638071133,53.2569865895673]]]},"properties":{"case_id":"ST-WK-PI/WNIOSEK/22417/2025","source_type":"wniosek_decyzja","received_date":"2025-10-30","decision_date":"2026-01-09","status":"decyzja wydana","description":"budowa budynku kotłowni wraz z infrastrukturą techniczną","address":"Łobżenica","city":"Łobżenica","office":"Starosta Powiatu Piła","case_kind":"Obiekt budowlany inny niż budynek mieszkalny jednorodzinny","parcel_ids":["301904_4.0001.788/3","301904_4.0001.788/4","301904_4.0001.890","301904_4.0001.891/1","301904_4.0001.892/1","301904_4.0001.892/2","301904_4.0001.982/1","301904_4.0001.982/2","301904_4.0001.982/3"],"location_quality":"dokładny","gunb_url":"https://wyszukiwarka.gunb.gov.pl/","parcel_count":9,"parcel_shard":"x069-y213","parcel_id":"301904_4.0001.892/1","location_source":"powiat pilski (wfs)"}},{"type":"Feature","id":"ST-WK-PI/WNIOSEK/22417/2025::301904_4.0001.892/2","geometry":{"type":"Polygon","coordinates":[[[17.2540659395679,53.2572248762015],[17.2530935667496,53.2570273750007],[17.253308561102,53.2569284853843],[17.2533898069752,53.2569144446006],[17.2534991095943,53.2569110851528],[17.2537186692369,53.2569700621661],[17.2540389328634,53.2570031591433],[17.2541559957993,53.2570102718142],[17.2543638071133,53.2569865895673],[17.2546703382664,53.2570226535511],[17.2550141182484,53.2569455583217],[17.2550422327776,53.2569784705592],[17.2548203595538,53.2571126302068],[17.2544349012592,53.2572062015203],[17.2542344416555,53.2572296099279],[17.2540659395679,53.2572248762015]]]},"properties":{"case_id":"ST-WK-PI/WNIOSEK/22417/2025","source_type":"wniosek_decyzja","received_date":"2025-10-30","decision_date":"2026-01-09","status":"decyzja wydana","description":"budowa budynku kotłowni wraz z infrastrukturą techniczną","address":"Łobżenica","city":"Łobżenica","office":"Starosta Powiatu Piła","case_kind":"Obiekt budowlany inny niż budynek mieszkalny jednorodzinny","parcel_ids":["301904_4.0001.788/3","301904_4.0001.788/4","301904_4.0001.890","301904_4.0001.891/1","301904_4.0001.892/1","301904_4.0001.892/2","301904_4.0001.982/1","301904_4.0001.982/2","301904_4.0001.982/3"],"location_quality":"dokładny","gunb_url":"https://wyszukiwarka.gunb.gov.pl/","parcel_count":9,"parcel_shard":"x069-y213","parcel_id":"301904_4.0001.892/2","location_source":"powiat pilski (wfs)"}},{"type":"Feature","id":"ST-WK-PI/WNIOSEK/22417/2025::301904_4.0001.982/1","geometry":{"type":"Polygon","coordinates":[[[17.2541857445138,53.2563792167836],[17.2539520818281,53.2566901508917],[17.2539358701114,53.2567035106805],[17.2539141266904,53.2567095899758],[17.2538821488982,53.2567104779141],[17.2534063740575,53.2566304879442],[17.2533894296621,53.2566266305928],[17.2533481990298,53.2566122963609],[17.2531506749232,53.2565483097564],[17.2531562138739,53.2565427545277],[17.2534648543955,53.2562332046388],[17.2535429935741,53.2561532755687],[17.2538183925454,53.2562624538171],[17.2540403662543,53.2563319844478],[17.2541857445138,53.2563792167836]]]},"properties":{"case_id":"ST-WK-PI/WNIOSEK/22417/2025","source_type":"wniosek_decyzja","received_date":"2025-10-30","decision_date":"2026-01-09","status":"decyzja wydana","description":"budowa budynku kotłowni wraz z infrastrukturą techniczną","address":"Łobżenica","city":"Łobżenica","office":"Starosta Powiatu Piła","case_kind":"Obiekt budowlany inny niż budynek mieszkalny jednorodzinny","parcel_ids":["301904_4.0001.788/3","301904_4.0001.788/4","301904_4.0001.890","301904_4.0001.891/1","301904_4.0001.892/1","301904_4.0001.892/2","301904_4.0001.982/1","301904_4.0001.982/2","301904_4.0001.982/3"],"location_quality":"dokładny","gunb_url":"https://wyszukiwarka.gunb.gov.pl/","parcel_count":9,"parcel_shard":"x069-y213","parcel_id":"301904_4.0001.982/1","location_source":"powiat pilski (wfs)"}},{"type":"Feature","id":"ST-WK-PI/WNIOSEK/22417/2025::301904_4.0001.982/2","geometry":{"type":"Polygon","coordinates":[[[17.2542500003268,53.2564000929509],[17.254008644122,53.2567104192407],[17.2539899141706,53.2567261865942],[17.2539696875663,53.2567380362714],[17.2539383416204,53.2567468777934],[17.2539178169511,53.2567480479138],[17.2539014841435,53.2567502915051],[17.2538658656026,53.2567506487383],[17.253389736351,53.2566715319902],[17.253372791941,53.2566676746364],[17.2533272327306,53.2566564089277],[17.2531086711439,53.2565904368699],[17.2531506749232,53.2565483097564],[17.2533481990298,53.2566122963609],[17.2533894296621,53.2566266305928],[17.2534063740575,53.2566304879442],[17.2538821488982,53.2567104779141],[17.2539141266904,53.2567095899758],[17.2539358701114,53.2567035106805],[17.2539520818281,53.2566901508917],[17.2541857445138,53.2563792167836],[17.2542500003268,53.2564000929509]]]},"properties":{"case_id":"ST-WK-PI/WNIOSEK/22417/2025","source_type":"wniosek_decyzja","received_date":"2025-10-30","decision_date":"2026-01-09","status":"decyzja wydana","description":"budowa budynku kotłowni wraz z infrastrukturą techniczną","address":"Łobżenica","city":"Łobżenica","office":"Starosta Powiatu Piła","case_kind":"Obiekt budowlany inny niż budynek mieszkalny jednorodzinny","parcel_ids":["301904_4.0001.788/3","301904_4.0001.788/4","301904_4.0001.890","301904_4.0001.891/1","301904_4.0001.892/1","301904_4.0001.892/2","301904_4.0001.982/1","301904_4.0001.982/2","301904_4.0001.982/3"],"location_quality":"dokładny","gunb_url":"https://wyszukiwarka.gunb.gov.pl/","parcel_count":9,"parcel_shard":"x069-y213","parcel_id":"301904_4.0001.982/2","location_source":"powiat pilski (wfs)"}},{"type":"Feature","id":"ST-WK-PI/WNIOSEK/22417/2025::301904_4.0001.982/3","geometry":{"type":"Polygon","coordinates":[[[17.2544708026825,53.2564718293078],[17.2543362196069,53.2566415759066],[17.2541386163792,53.2568893686566],[17.2535004142719,53.2568416514978],[17.2534042192937,53.2568377398087],[17.2531415306101,53.2567921130359],[17.2529452710635,53.2567543158364],[17.2531086711439,53.2565904368699],[17.2533272327306,53.2566564089277],[17.253372791941,53.2566676746364],[17.253389736351,53.2566715319902],[17.2538658656026,53.2567506487383],[17.2539014841435,53.2567502915051],[17.2539178169511,53.2567480479138],[17.2539383416204,53.2567468777934],[17.2539696875663,53.2567380362714],[17.2539899141706,53.2567261865942],[17.254008644122,53.2567104192407],[17.2542500003268,53.2564000929509],[17.2544708026825,53.2564718293078]]]},"properties":{"case_id":"ST-WK-PI/WNIOSEK/22417/2025","source_type":"wniosek_decyzja","received_date":"2025-10-30","decision_date":"2026-01-09","status":"decyzja wydana","description":"budowa budynku kotłowni wraz z infrastrukturą techniczną","address":"Łobżenica","city":"Łobżenica","office":"Starosta Powiatu Piła","case_kind":"Obiekt budowlany inny niż budynek mieszkalny jednorodzinny","parcel_ids":["301904_4.0001.788/3","301904_4.0001.788/4","301904_4.0001.890","301904_4.0001.891/1","301904_4.0001.892/1","301904_4.0001.892/2","301904_4.0001.982/1","301904_4.0001.982/2","301904_4.0001.982/3"],"location_quality":"dokładny","gunb_url":"https://wyszukiwarka.gunb.gov.pl/","parcel_count":9,"parcel_shard":"x069-y213","parcel_id":"301904_4.0001.982/3","location_source":"powiat pilski (wfs)"}},{"type":"Feature","id":"ST-WK-PI/WNIOSEK/2862/2026::301904_4.0001.925","geometry":{"type":"Polygon","coordinates":[[[17.2551539771729,53.2587102863184],[17.2550570750879,53.2587220766682],[17.2549874226573,53.2587280969942],[17.2549905864051,53.2587743629408],[17.2549908137395,53.2588284320141],[17.2547903950455,53.2588358864624],[17.2547715797354,53.25874047165],[17.2547618878628,53.258693011639],[17.2548307291754,53.2586932655959],[17.2548301597748,53.2586888306707],[17.2549819547655,53.2586850499109],[17.2549782664534,53.2586475787886],[17.25498160853,53.2586026490821],[17.2549656587339,53.2584465672871],[17.2551047642747,53.2584400005436],[17.2551246638155,53.2584504591677],[17.2551539771729,53.2587102863184]]]},"properties":{"case_id":"ST-WK-PI/WNIOSEK/2862/2026","source_type":"wniosek_decyzja","received_date":"2026-02-16","decision_date":"2026-04-13","status":"decyzja wydana","description":"Remont budynku gospodarczego","address":"1, Łobżenica","city":"Łobżenica","office":"Starosta Powiatu Piła","case_kind":"Obiekt budowlany inny niż budynek mieszkalny jednorodzinny","parcel_ids":["301904_4.0001.925"],"location_quality":"dokładny","gunb_url":"https://wyszukiwarka.gunb.gov.pl/","parcel_count":1,"parcel_shard":"x069-y213","parcel_id":"301904_4.0001.925","location_source":"powiat pilski (wfs)"}},{"type":"Feature","id":"ST-WK-PI/WNIOSEK/23456/2025::301904_4.0001.930/2","geometry":{"type":"Polygon","coordinates":[[[17.2536860713074,53.2579216026201],[17.2537015197029,53.257818296038],[17.2537190938605,53.2577472127522],[17.2543020216794,53.257772730687],[17.254327951737,53.2579321545915],[17.2543430720626,53.2581368981513],[17.2541740980863,53.2581405085727],[17.2538563069494,53.2581284555218],[17.2538867982839,53.2579349904793],[17.2536860713074,53.2579216026201]]]},"properties":{"case_id":"ST-WK-PI/WNIOSEK/23456/2025","source_type":"wniosek_decyzja","received_date":"2025-11-18","decision_date":"2026-01-27","status":"decyzja wydana","description":"Wymiana okien w elewacji frontowej budynku wpisanego do rejestru zabytków pod numerem A-405","address":"Wolności 5, Łobżenica","city":"Łobżenica","office":"Starosta Powiatu Piła","case_kind":"Budynek mieszkalny jednorodzinny","parcel_ids":["301904_4.0001.930/2"],"location_quality":"dokładny","gunb_url":"https://wyszukiwarka.gunb.gov.pl/","parcel_count":1,"parcel_shard":"x069-y213","parcel_id":"301904_4.0001.930/2","location_source":"powiat pilski (wfs)"}},{"type":"Feature","id":"ST-WK-PI/WNIOSEK/576/2026::301904_5.0001.21","geometry":{"type":"Polygon","coordinates":[[[17.3205480860542,53.2731423048407],[17.3209359339335,53.272591857159],[17.3213087463701,53.2720625302679],[17.3216913602355,53.2715195089131],[17.3220119602418,53.271067704066],[17.323676866591,53.2714902583153],[17.3246061429759,53.2717271019301],[17.3257141691642,53.2720083529261],[17.3278254093969,53.2725465991875],[17.3271435617151,53.2735052751108],[17.3267982103422,53.27339737766],[17.3267626966168,53.2733773174723],[17.3265783090719,53.2733198424583],[17.3262578405553,53.2731932127426],[17.3261309744787,53.2731672444272],[17.3258984706209,53.2731762645653],[17.3255380841412,53.2731953445716],[17.3248612267859,53.2732720315489],[17.324665142209,53.2733196269225],[17.3243340782097,53.2733614249352],[17.3236578350452,53.2734178894211],[17.3233890507487,53.2733794310128],[17.322835833965,53.2733157232247],[17.3227833582925,53.2733161441294],[17.3220976781552,53.2732772915035],[17.3219486449909,53.2732028464746],[17.3215756071457,53.2731781692014],[17.3208681721045,53.2731311879284],[17.3205480860542,53.2731423048407]]]},"properties":{"case_id":"ST-WK-PI/WNIOSEK/576/2026","source_type":"wniosek_decyzja","received_date":"2026-01-12","decision_date":"2026-02-13","status":"decyzja wydana","description":"Rozbudowa, nadbudowa i przebudowa budynku mieszkalnego jednorodzinnego wraz z niezbędną infrastrukturą techniczną oraz jednoczesną rozbiórką części budynku mieszkalnego jednorodzinnego w ramach zabudowy zagrodowej","address":"29, Chlebno","city":"Chlebno","office":"Starosta Powiatu Piła","case_kind":"Budynek mieszkalny jednorodzinny","parcel_ids":["301904_5.0001.21"],"location_quality":"dokładny","gunb_url":"https://wyszukiwarka.gunb.gov.pl/","parcel_count":1,"parcel_shard":"x069-y213","parcel_id":"301904_5.0001.21","location_source":"powiat pilski (wfs)"}},{"type":"Feature","id":"ST-WK-PI/WNIOSEK/25226/2025::301904_5.0001.45","geometry":{"type":"Polygon","coordinates":[[[17.3076419391669,53.2580278638086],[17.3079677187532,53.2579914734166],[17.3099406917319,53.2577716007472],[17.3102063080007,53.2584844947676],[17.3105620022679,53.2594395510544],[17.3107460352123,53.2599335145137],[17.3112063007827,53.2611721520728],[17.311679249327,53.2624439303767],[17.3119543853408,53.2631835640984],[17.3116225208792,53.2629993163829],[17.3110039581427,53.2627305576135],[17.3104256095726,53.2625617762488],[17.3100858714549,53.2625042755444],[17.3096423854362,53.2624862521819],[17.3093368432457,53.2625389397954],[17.3089223882627,53.261435984493],[17.3082709999937,53.2597024312195],[17.3076419391669,53.2580278638086]]]},"properties":{"case_id":"ST-WK-PI/WNIOSEK/25226/2025","source_type":"wniosek_decyzja","received_date":"2025-12-10","decision_date":"2026-02-24","status":"decyzja wydana","description":"budowa zamkniętego naziemnego zbiornika do retencjonowania wody wraz z infrastrukturą techniczną","address":"Chlebno","city":"Chlebno","office":"Starosta Powiatu Piła","case_kind":"Obiekt budowlany inny niż budynek mieszkalny jednorodzinny","parcel_ids":["301904_5.0001.45"],"location_quality":"dokładny","gunb_url":"https://wyszukiwarka.gunb.gov.pl/","parcel_count":1,"parcel_shard":"x069-y213","parcel_id":"301904_5.0001.45","location_source":"powiat pilski (wfs)"}},{"type":"Feature","id":"ST-WK-PI/WNIOSEK/26071/2025::301904_5.0003.146/12","geometry":{"type":"Polygon","coordinates":[[[17.3518737758294,53.3198762722896],[17.3518759737995,53.3198401596854],[17.3520656544033,53.3198311253997],[17.3522311477608,53.3198237567341],[17.3526252887198,53.320036617287],[17.3526545093582,53.3200791907215],[17.3525863064937,53.3200639035457],[17.3524295895282,53.3199772347803],[17.3523651438051,53.319991352759],[17.3523190785924,53.3202188131177],[17.3523110057808,53.3202663063138],[17.3523632668626,53.3203852131453],[17.3524048207045,53.3204755703283],[17.352355462276,53.3204821266816],[17.3522562244623,53.3202687998723],[17.3520921657233,53.3202682632683],[17.3520956365262,53.3202372797115],[17.3522340152906,53.3202366831669],[17.3522658197373,53.3202198771528],[17.352324670322,53.319921135756],[17.3522093137451,53.3198583249377],[17.3521330142259,53.319862403742],[17.3518737758294,53.3198762722896]]]},"properties":{"case_id":"ST-WK-PI/WNIOSEK/26071/2025","source_type":"wniosek_decyzja","received_date":"2025-12-19","decision_date":"2026-03-06","status":"decyzja wydana","description":"budowa rozdzielczej sieci wodociągowej","address":"Dźwierszno Małe","city":"Dźwierszno Małe","office":"Starosta Powiatu Piła","case_kind":"Obiekt budowlany inny niż budynek mieszkalny jednorodzinny","parcel_ids":["301904_5.0003.146/12","301904_5.0003.146/20","301904_5.0003.146/25","301904_5.0003.146/32","301904_5.0003.146/39","301904_5.0003.146/84","301904_5.0003.148/24","301904_5.0003.148/3"],"location_quality":"dokładny","gunb_url":"https://wyszukiwarka.gunb.gov.pl/","parcel_count":8,"parcel_shard":"x069-y213","parcel_id":"301904_5.0003.146/12","location_source":"powiat pilski (wfs)"}},{"type":"Feature","id":"ST-WK-PI/WNIOSEK/26071/2025::301904_5.0003.146/20","geometry":{"type":"Polygon","coordinates":[[[17.3523296009035,53.3204853111907],[17.352355462276,53.3204821266816],[17.3524048207045,53.3204755703283],[17.3524597499796,53.3205448825114],[17.3524326806567,53.3206256061857],[17.3523956755614,53.3205817323791],[17.3523664335986,53.3205207370514],[17.3523296009035,53.3204853111907]]]},"properties":{"case_id":"ST-WK-PI/WNIOSEK/26071/2025","source_type":"wniosek_decyzja","received_date":"2025-12-19","decision_date":"2026-03-06","status":"decyzja wydana","description":"budowa rozdzielczej sieci wodociągowej","address":"Dźwierszno Małe","city":"Dźwierszno Małe","office":"Starosta Powiatu Piła","case_kind":"Obiekt budowlany inny niż budynek mieszkalny jednorodzinny","parcel_ids":["301904_5.0003.146/12","301904_5.0003.146/20","301904_5.0003.146/25","301904_5.0003.146/32","301904_5.0003.146/39","301904_5.0003.146/84","301904_5.0003.148/24","301904_5.0003.148/3"],"location_quality":"dokładny","gunb_url":"https://wyszukiwarka.gunb.gov.pl/","parcel_count":8,"parcel_shard":"x069-y213","parcel_id":"301904_5.0003.146/20","location_source":"powiat pilski (wfs)"}},{"type":"Feature","id":"ST-WK-PI/WNIOSEK/26071/2025::301904_5.0003.146/25","geometry":{"type":"Polygon","coordinates":[[[17.3519880663097,53.3209879421474],[17.35202135783,53.3208707631447],[17.3520453210023,53.3208442941261],[17.352166364154,53.3207101583836],[17.3523124388837,53.3205483011761],[17.3523305983035,53.3205901908427],[17.3521767930056,53.3207647612665],[17.352067360211,53.3208876426943],[17.3520629015659,53.3209914937525],[17.3521374896104,53.3210609128376],[17.3520640824031,53.3210522468991],[17.3519880663097,53.3209879421474]]]},"properties":{"case_id":"ST-WK-PI/WNIOSEK/26071/2025","source_type":"wniosek_decyzja","received_date":"2025-12-19","decision_date":"2026-03-06","status":"decyzja wydana","description":"budowa rozdzielczej sieci wodociągowej","address":"Dźwierszno Małe","city":"Dźwierszno Małe","office":"Starosta Powiatu Piła","case_kind":"Obiekt budowlany inny niż budynek mieszkalny jednorodzinny","parcel_ids":["301904_5.0003.146/12","301904_5.0003.146/20","301904_5.0003.146/25","301904_5.0003.146/32","301904_5.0003.146/39","301904_5.0003.146/84","301904_5.0003.148/24","301904_5.0003.148/3"],"location_quality":"dokładny","gunb_url":"https://wyszukiwarka.gunb.gov.pl/","parcel_count":8,"parcel_shard":"x069-y213","parcel_id":"301904_5.0003.146/25","location_source":"powiat pilski (wfs)"}},{"type":"Feature","id":"ST-WK-PI/WNIOSEK/26071/2025::301904_5.0003.146/32","geometry":{"type":"Polygon","coordinates":[[[17.3520640824031,53.3210522468991],[17.3521374896104,53.3210609128376],[17.3521445338724,53.3211903524122],[17.3522461684496,53.3212576717357],[17.3530805646624,53.3210743026523],[17.352972360425,53.3209329867234],[17.3528223054426,53.3208521057945],[17.3527308086365,53.3206801526877],[17.3527205778338,53.3203743865356],[17.3527156381273,53.3202148546155],[17.352713821274,53.320166319256],[17.3526545093582,53.3200791907215],[17.3526252887198,53.320036617287],[17.3527723571946,53.3200497920979],[17.352886808167,53.3200041662656],[17.3530440472581,53.3199415208267],[17.3532500666589,53.3198604901921],[17.354025445067,53.3197214219871],[17.3543924438095,53.3196793813149],[17.3543724714263,53.3194572205536],[17.3543570179029,53.3192911837987],[17.3543408913576,53.3191161618895],[17.3543246231924,53.3189405227706],[17.3555210465068,53.3189489738814],[17.3555347750703,53.3190736866967],[17.3556247283709,53.3191394124105],[17.3561999234079,53.3193208937889],[17.3564768735583,53.3192466342362],[17.3565178588168,53.3192356225423],[17.3565267230935,53.3192825731043],[17.3563480204291,53.3193302245145],[17.355935378766,53.319864653704],[17.3557401401757,53.3198441893814],[17.3555846086295,53.3198278931438],[17.3551658126284,53.3197840242516],[17.354517894186,53.3197275918854],[17.3549270592007,53.3198925450071],[17.3554814938883,53.3201674639326],[17.3554254710765,53.3202025721462],[17.3549346889827,53.3199438974811],[17.3544908957941,53.3197763307641],[17.3539160053498,53.3198452935487],[17.3538804367816,53.3204613747741],[17.3538741688435,53.320627945034],[17.3553655402488,53.3206540746087],[17.3553204767006,53.3206866307563],[17.3542008142687,53.3206724878838],[17.3538739933436,53.3206693704788],[17.3538655520699,53.3208705258427],[17.353859201037,53.321022717717],[17.3538455775535,53.3213560267942],[17.3539390460157,53.3213878948055],[17.3542600220189,53.3214007753441],[17.354763012304,53.3215252596416],[17.3547580635551,53.3215747468463],[17.3544492113562,53.3214843823334],[17.3542512609793,53.3214343363202],[17.3540461151254,53.3214235207216],[17.3538655172425,53.3214070865454],[17.3535382892984,53.3212617144523],[17.3532378652053,53.3211998787149],[17.3531754708239,53.3211874090932],[17.3531430214281,53.3211498505655],[17.3531102882917,53.3211134639354],[17.3523149801612,53.3212725130937],[17.3522195945389,53.3212979653706],[17.35208887483,53.3212088313326],[17.3520640824031,53.3210522468991]],[[17.3528152221894,53.3201024435009],[17.3528131044387,53.3204782298234],[17.3528314792665,53.3207119707865],[17.3528784190893,53.320803525218],[17.3530419523092,53.3209259954215],[17.3531625480515,53.3211090692094],[17.3532379706798,53.3211631257188],[17.3537445933143,53.3212653482383],[17.3537784841597,53.3206710945155],[17.3537907911521,53.3198464972876],[17.3532773155296,53.3199008672956],[17.3528152221894,53.3201024435009]],[[17.3544816150009,53.3189592548384],[17.3544813828629,53.319253102482],[17.3544831254228,53.319495649569],[17.3544839074467,53.3196327832762],[17.3544842948291,53.31967672791],[17.3545591456376,53.3196791098326],[17.3546989459379,53.31968364026],[17.3548297371619,53.3196884812543],[17.3552928364497,53.3196926073654],[17.3557197285689,53.3197170194735],[17.3559587197372,53.3197320587144],[17.3560322992874,53.3196272222152],[17.3562174191829,53.3193726536385],[17.3558903888752,53.3192644918803],[17.3554629924522,53.3191343998838],[17.3554483497135,53.3189707718565],[17.3544816150009,53.3189592548384]]]},"properties":{"case_id":"ST-WK-PI/WNIOSEK/26071/2025","source_type":"wniosek_decyzja","received_date":"2025-12-19","decision_date":"2026-03-06","status":"decyzja wydana","description":"budowa rozdzielczej sieci wodociągowej","address":"Dźwierszno Małe","city":"Dźwierszno Małe","office":"Starosta Powiatu Piła","case_kind":"Obiekt budowlany inny niż budynek mieszkalny jednorodzinny","parcel_ids":["301904_5.0003.146/12","301904_5.0003.146/20","301904_5.0003.146/25","301904_5.0003.146/32","301904_5.0003.146/39","301904_5.0003.146/84","301904_5.0003.148/24","301904_5.0003.148/3"],"location_quality":"dokładny","gunb_url":"https://wyszukiwarka.gunb.gov.pl/","parcel_count":8,"parcel_shard":"x069-y213","parcel_id":"301904_5.0003.146/32","location_source":"powiat pilski (wfs)"}},{"type":"Feature","id":"ST-WK-PI/WNIOSEK/26071/2025::301904_5.0003.146/39","geometry":{"type":"Polygon","coordinates":[[[17.3517679491938,53.3204896296138],[17.3517742553618,53.3204201106558],[17.3518285491363,53.3204421522459],[17.3522632268529,53.3204681466574],[17.3523296009035,53.3204853111907],[17.3523664335986,53.3205207370514],[17.3523956755614,53.3205817323791],[17.3524326806567,53.3206256061857],[17.3525021397323,53.3206471906059],[17.3526684246805,53.3206670538199],[17.3527308086365,53.3206801526877],[17.3528223054426,53.3208521057945],[17.352972360425,53.3209329867234],[17.3530805646624,53.3210743026523],[17.3522461684496,53.3212576717357],[17.3521445338724,53.3211903524122],[17.3521374896104,53.3210609128376],[17.3525572555332,53.3210214954906],[17.3526127421132,53.3209152202125],[17.3526762629739,53.320793711953],[17.3526698157799,53.3207139693494],[17.3523663370079,53.3206559788933],[17.3523305983035,53.3205901908427],[17.3523124388837,53.3205483011761],[17.3522952483012,53.3205140602782],[17.3517679491938,53.3204896296138]]]},"properties":{"case_id":"ST-WK-PI/WNIOSEK/26071/2025","source_type":"wniosek_decyzja","received_date":"2025-12-19","decision_date":"2026-03-06","status":"decyzja wydana","description":"budowa rozdzielczej sieci wodociągowej","address":"Dźwierszno Małe","city":"Dźwierszno Małe","office":"Starosta Powiatu Piła","case_kind":"Obiekt budowlany inny niż budynek mieszkalny jednorodzinny","parcel_ids":["301904_5.0003.146/12","301904_5.0003.146/20","301904_5.0003.146/25","301904_5.0003.146/32","301904_5.0003.146/39","301904_5.0003.146/84","301904_5.0003.148/24","301904_5.0003.148/3"],"location_quality":"dokładny","gunb_url":"https://wyszukiwarka.gunb.gov.pl/","parcel_count":8,"parcel_shard":"x069-y213","parcel_id":"301904_5.0003.146/39","location_source":"powiat pilski (wfs)"}},{"type":"Feature","id":"ST-WK-PI/WNIOSEK/26071/2025::301904_5.0003.146/84","geometry":{"type":"Polygon","coordinates":[[[17.3565267230935,53.3192825731043],[17.3565178588168,53.3192356225423],[17.3566865880116,53.319220172342],[17.3577367839146,53.3190907678244],[17.357721103113,53.3191256397398],[17.3566961136805,53.3192553597607],[17.3565267230935,53.3192825731043]]]},"properties":{"case_id":"ST-WK-PI/WNIOSEK/26071/2025","source_type":"wniosek_decyzja","received_date":"2025-12-19","decision_date":"2026-03-06","status":"decyzja wydana","description":"budowa rozdzielczej sieci wodociągowej","address":"Dźwierszno Małe","city":"Dźwierszno Małe","office":"Starosta Powiatu Piła","case_kind":"Obiekt budowlany inny niż budynek mieszkalny jednorodzinny","parcel_ids":["301904_5.0003.146/12","301904_5.0003.146/20","301904_5.0003.146/25","301904_5.0003.146/32","301904_5.0003.146/39","301904_5.0003.146/84","301904_5.0003.148/24","301904_5.0003.148/3"],"location_quality":"dokładny","gunb_url":"https://wyszukiwarka.gunb.gov.pl/","parcel_count":8,"parcel_shard":"x069-y213","parcel_id":"301904_5.0003.146/84","location_source":"powiat pilski (wfs)"}},{"type":"Feature","id":"ST-WK-PI/WNIOSEK/26071/2025::301904_5.0003.148/24","geometry":{"type":"Polygon","coordinates":[[[17.3564770531361,53.3185740125929],[17.3565139347803,53.3184688984326],[17.356527766705,53.3184250252636],[17.3565998689748,53.3182131651903],[17.3567179008782,53.317866389733],[17.3566917257379,53.3181500329634],[17.3566892567772,53.3182742988671],[17.3566828701257,53.318599205594],[17.3564770531361,53.3185740125929]]]},"properties":{"case_id":"ST-WK-PI/WNIOSEK/26071/2025","source_type":"wniosek_decyzja","received_date":"2025-12-19","decision_date":"2026-03-06","status":"decyzja wydana","description":"budowa rozdzielczej sieci wodociągowej","address":"Dźwierszno Małe","city":"Dźwierszno Małe","office":"Starosta Powiatu Piła","case_kind":"Obiekt budowlany inny niż budynek mieszkalny jednorodzinny","parcel_ids":["301904_5.0003.146/12","301904_5.0003.146/20","301904_5.0003.146/25","301904_5.0003.146/32","301904_5.0003.146/39","301904_5.0003.146/84","301904_5.0003.148/24","301904_5.0003.148/3"],"location_quality":"dokładny","gunb_url":"https://wyszukiwarka.gunb.gov.pl/","parcel_count":8,"parcel_shard":"x069-y213","parcel_id":"301904_5.0003.148/24","location_source":"powiat pilski (wfs)"}},{"type":"Feature","id":"ST-WK-PI/WNIOSEK/26071/2025::301904_5.0003.148/3","geometry":{"type":"Polygon","coordinates":[[[17.3534876651346,53.3182881799375],[17.3536339342031,53.3182814240586],[17.3536901331033,53.3183560444427],[17.3539531166286,53.3185384457606],[17.3542278160159,53.3187325073383],[17.354457086237,53.3188145340792],[17.3546396343353,53.3188800426222],[17.3549979953245,53.3189004921325],[17.3550726056484,53.3188988286442],[17.3553076977587,53.318893449441],[17.3555373014652,53.3188738419245],[17.3560039397582,53.3186599738597],[17.3562154001724,53.3185395317497],[17.356527766705,53.3184250252636],[17.3565139347803,53.3184688984326],[17.3561199375909,53.3186327479354],[17.3564382735208,53.3186878383508],[17.3564249319112,53.3187267665104],[17.3560747172311,53.3186659325605],[17.3558000089662,53.318830694366],[17.3555210465068,53.3189489738814],[17.3543246231924,53.3189405227706],[17.3539760393226,53.3189384560385],[17.3539185741348,53.3188581676325],[17.3538912359619,53.3188200977974],[17.3538243404595,53.3186488178701],[17.3536174685986,53.3184650975426],[17.3534876651346,53.3182881799375]]]},"properties":{"case_id":"ST-WK-PI/WNIOSEK/26071/2025","source_type":"wniosek_decyzja","received_date":"2025-12-19","decision_date":"2026-03-06","status":"decyzja wydana","description":"budowa rozdzielczej sieci wodociągowej","address":"Dźwierszno Małe","city":"Dźwierszno Małe","office":"Starosta Powiatu Piła","case_kind":"Obiekt budowlany inny niż budynek mieszkalny jednorodzinny","parcel_ids":["301904_5.0003.146/12","301904_5.0003.146/20","301904_5.0003.146/25","301904_5.0003.146/32","301904_5.0003.146/39","301904_5.0003.146/84","301904_5.0003.148/24","301904_5.0003.148/3"],"location_quality":"dokładny","gunb_url":"https://wyszukiwarka.gunb.gov.pl/","parcel_count":8,"parcel_shard":"x069-y213","parcel_id":"301904_5.0003.148/3","location_source":"powiat pilski (wfs)"}},{"type":"Feature","id":"ST-WK-PI/WNIOSEK/4510/2026::301904_5.0011.349/5","geometry":{"type":"Polygon","coordinates":[[[17.2646054776643,53.2582369366942],[17.2647941860234,53.2582348653965],[17.2648151702671,53.2582346353365],[17.2648307725383,53.2586531357047],[17.2647933005287,53.2586535336908],[17.2646210778889,53.2586554370826],[17.2646132777434,53.2584461868922],[17.2646054776643,53.2582369366942]]]},"properties":{"case_id":"ST-WK-PI/WNIOSEK/4510/2026","source_type":"wniosek_decyzja","received_date":"2026-03-09","decision_date":"2026-05-28","status":"decyzja wydana","description":"budowa sieci wodociągowej na terenie osiedla Berlinki w Luchowie","address":"Luchowo","city":"Luchowo","office":"Starosta Powiatu Piła","case_kind":"Obiekt budowlany inny niż budynek mieszkalny jednorodzinny","parcel_ids":["301904_5.0011.349/5","301904_5.0011.350/5","301904_5.0011.351/3","301904_5.0011.353/1","301904_5.0011.353/2","301904_5.0011.353/3","301904_5.0011.354/1","301904_5.0011.354/10","301904_5.0011.354/3","301904_5.0011.354/4","301904_5.0011.354/5","301904_5.0011.354/6","301904_5.0011.354/7","301904_5.0011.354/8","301904_5.0011.354/9","301904_5.0011.355/1","301904_5.0011.355/2","301904_5.0011.362/6","301904_5.0011.362/7","301904_5.0011.372"],"location_quality":"dokładny","gunb_url":"https://wyszukiwarka.gunb.gov.pl/","parcel_count":20,"parcel_shard":"x069-y213","parcel_id":"301904_5.0011.349/5","location_source":"powiat pilski (wfs)"}},{"type":"Feature","id":"ST-WK-PI/WNIOSEK/4510/2026::301904_5.0011.350/5","geometry":{"type":"Polygon","coordinates":[[[17.2630068711009,53.2582543274982],[17.262917129946,53.2581859239531],[17.2629708461873,53.2580465109361],[17.2629730382036,53.2578946383713],[17.2629151289958,53.2577749633614],[17.2647965159695,53.2577843943198],[17.2647941860234,53.2582348653965],[17.2646054776643,53.2582369366942],[17.2638915652175,53.2582446627764],[17.2630068711009,53.2582543274982]]]},"properties":{"case_id":"ST-WK-PI/WNIOSEK/4510/2026","source_type":"wniosek_decyzja","received_date":"2026-03-09","decision_date":"2026-05-28","status":"decyzja wydana","description":"budowa sieci wodociągowej na terenie osiedla Berlinki w Luchowie","address":"Luchowo","city":"Luchowo","office":"Starosta Powiatu Piła","case_kind":"Obiekt budowlany inny niż budynek mieszkalny jednorodzinny","parcel_ids":["301904_5.0011.349/5","301904_5.0011.350/5","301904_5.0011.351/3","301904_5.0011.353/1","301904_5.0011.353/2","301904_5.0011.353/3","301904_5.0011.354/1","301904_5.0011.354/10","301904_5.0011.354/3","301904_5.0011.354/4","301904_5.0011.354/5","301904_5.0011.354/6","301904_5.0011.354/7","301904_5.0011.354/8","301904_5.0011.354/9","301904_5.0011.355/1","301904_5.0011.355/2","301904_5.0011.362/6","301904_5.0011.362/7","301904_5.0011.372"],"location_quality":"dokładny","gunb_url":"https://wyszukiwarka.gunb.gov.pl/","parcel_count":20,"parcel_shard":"x069-y213","parcel_id":"301904_5.0011.350/5","location_source":"powiat pilski (wfs)"}},{"type":"Feature","id":"ST-WK-PI/WNIOSEK/4510/2026::301904_5.0011.351/3","geometry":{"type":"Polygon","coordinates":[[[17.2629151289958,53.2577749633614],[17.2627244671682,53.2573809372428],[17.262746091839,53.2573148788366],[17.2628011344028,53.2572455634045],[17.2640223296957,53.2572443911735],[17.2647007384214,53.25724372434],[17.2647756676498,53.2572436472371],[17.2647965159695,53.2577843943198],[17.2629151289958,53.2577749633614]]]},"properties":{"case_id":"ST-WK-PI/WNIOSEK/4510/2026","source_type":"wniosek_decyzja","received_date":"2026-03-09","decision_date":"2026-05-28","status":"decyzja wydana","description":"budowa sieci wodociągowej na terenie osiedla Berlinki w Luchowie","address":"Luchowo","city":"Luchowo","office":"Starosta Powiatu Piła","case_kind":"Obiekt budowlany inny niż budynek mieszkalny jednorodzinny","parcel_ids":["301904_5.0011.349/5","301904_5.0011.350/5","301904_5.0011.351/3","301904_5.0011.353/1","301904_5.0011.353/2","301904_5.0011.353/3","301904_5.0011.354/1","301904_5.0011.354/10","301904_5.0011.354/3","301904_5.0011.354/4","301904_5.0011.354/5","301904_5.0011.354/6","301904_5.0011.354/7","301904_5.0011.354/8","301904_5.0011.354/9","301904_5.0011.355/1","301904_5.0011.355/2","301904_5.0011.362/6","301904_5.0011.362/7","301904_5.0011.372"],"location_quality":"dokładny","gunb_url":"https://wyszukiwarka.gunb.gov.pl/","parcel_count":20,"parcel_shard":"x069-y213","parcel_id":"301904_5.0011.351/3","location_source":"powiat pilski (wfs)"}},{"type":"Feature","id":"ST-WK-PI/WNIOSEK/4510/2026::301904_5.0011.353/1","geometry":{"type":"Polygon","coordinates":[[[17.2660464154341,53.2561248584322],[17.2659332064182,53.2560677272121],[17.2649329672694,53.2560665071252],[17.2648423189372,53.2561182487574],[17.2648559895653,53.2565270321059],[17.2647481004291,53.2565267262756],[17.2647361118914,53.2565267422073],[17.2647219258366,53.2561393431697],[17.2646423446327,53.2560700169403],[17.2646192738372,53.2560521715391],[17.2646170762634,53.2559880853273],[17.2660421065065,53.2560089080358],[17.2660464154341,53.2561248584322]]]},"properties":{"case_id":"ST-WK-PI/WNIOSEK/4510/2026","source_type":"wniosek_decyzja","received_date":"2026-03-09","decision_date":"2026-05-28","status":"decyzja wydana","description":"budowa sieci wodociągowej na terenie osiedla Berlinki w Luchowie","address":"Luchowo","city":"Luchowo","office":"Starosta Powiatu Piła","case_kind":"Obiekt budowlany inny niż budynek mieszkalny jednorodzinny","parcel_ids":["301904_5.0011.349/5","301904_5.0011.350/5","301904_5.0011.351/3","301904_5.0011.353/1","301904_5.0011.353/2","301904_5.0011.353/3","301904_5.0011.354/1","301904_5.0011.354/10","301904_5.0011.354/3","301904_5.0011.354/4","301904_5.0011.354/5","301904_5.0011.354/6","301904_5.0011.354/7","301904_5.0011.354/8","301904_5.0011.354/9","301904_5.0011.355/1","301904_5.0011.355/2","301904_5.0011.362/6","301904_5.0011.362/7","301904_5.0011.372"],"location_quality":"dokładny","gunb_url":"https://wyszukiwarka.gunb.gov.pl/","parcel_count":20,"parcel_shard":"x069-y213","parcel_id":"301904_5.0011.353/1","location_source":"powiat pilski (wfs)"}},{"type":"Feature","id":"ST-WK-PI/WNIOSEK/4510/2026::301904_5.0011.353/2","geometry":{"type":"Polygon","coordinates":[[[17.2648423189372,53.2561182487574],[17.2649329672694,53.2560665071252],[17.2659332064182,53.2560677272121],[17.2660464154341,53.2561248584322],[17.2660618072825,53.256530057668],[17.2648559895653,53.2565270321059],[17.2648423189372,53.2561182487574]]]},"properties":{"case_id":"ST-WK-PI/WNIOSEK/4510/2026","source_type":"wniosek_decyzja","received_date":"2026-03-09","decision_date":"2026-05-28","status":"decyzja wydana","description":"budowa sieci wodociągowej na terenie osiedla Berlinki w Luchowie","address":"Luchowo","city":"Luchowo","office":"Starosta Powiatu Piła","case_kind":"Obiekt budowlany inny niż budynek mieszkalny jednorodzinny","parcel_ids":["301904_5.0011.349/5","301904_5.0011.350/5","301904_5.0011.351/3","301904_5.0011.353/1","301904_5.0011.353/2","301904_5.0011.353/3","301904_5.0011.354/1","301904_5.0011.354/10","301904_5.0011.354/3","301904_5.0011.354/4","301904_5.0011.354/5","301904_5.0011.354/6","301904_5.0011.354/7","301904_5.0011.354/8","301904_5.0011.354/9","301904_5.0011.355/1","301904_5.0011.355/2","301904_5.0011.362/6","301904_5.0011.362/7","301904_5.0011.372"],"location_quality":"dokładny","gunb_url":"https://wyszukiwarka.gunb.gov.pl/","parcel_count":20,"parcel_shard":"x069-y213","parcel_id":"301904_5.0011.353/2","location_source":"powiat pilski (wfs)"}},{"type":"Feature","id":"ST-WK-PI/WNIOSEK/4510/2026::301904_5.0011.353/3","geometry":{"type":"Polygon","coordinates":[[[17.2647361118914,53.2565267422073],[17.2641734368192,53.2565253377664],[17.2633656077447,53.2565235844832],[17.2636832139983,53.2561182850939],[17.2638669576367,53.2559771658262],[17.2646170762634,53.2559880853273],[17.2646192738372,53.2560521715391],[17.2646423446327,53.2560700169403],[17.2647219258366,53.2561393431697],[17.2647361118914,53.2565267422073]]]},"properties":{"case_id":"ST-WK-PI/WNIOSEK/4510/2026","source_type":"wniosek_decyzja","received_date":"2026-03-09","decision_date":"2026-05-28","status":"decyzja wydana","description":"budowa sieci wodociągowej na terenie osiedla Berlinki w Luchowie","address":"Luchowo","city":"Luchowo","office":"Starosta Powiatu Piła","case_kind":"Obiekt budowlany inny niż budynek mieszkalny jednorodzinny","parcel_ids":["301904_5.0011.349/5","301904_5.0011.350/5","301904_5.0011.351/3","301904_5.0011.353/1","301904_5.0011.353/2","301904_5.0011.353/3","301904_5.0011.354/1","301904_5.0011.354/10","301904_5.0011.354/3","301904_5.0011.354/4","301904_5.0011.354/5","301904_5.0011.354/6","301904_5.0011.354/7","301904_5.0011.354/8","301904_5.0011.354/9","301904_5.0011.355/1","301904_5.0011.355/2","301904_5.0011.362/6","301904_5.0011.362/7","301904_5.0011.372"],"location_quality":"dokładny","gunb_url":"https://wyszukiwarka.gunb.gov.pl/","parcel_count":20,"parcel_shard":"x069-y213","parcel_id":"301904_5.0011.353/3","location_source":"powiat pilski (wfs)"}},{"type":"Feature","id":"ST-WK-PI/WNIOSEK/4510/2026::301904_5.0011.354/1","geometry":{"type":"Polygon","coordinates":[[[17.2642380011173,53.2557232553838],[17.2643699287533,53.2556499320844],[17.2646739213742,53.2558452834149],[17.2647723364041,53.2559086150538],[17.2649857560958,53.2559766995097],[17.2652292604272,53.2559769423431],[17.265297373127,53.2559372829816],[17.2653001460808,53.2557754559542],[17.26511449441,53.2556522771791],[17.2652706848101,53.2555621182381],[17.265486907224,53.2555540148474],[17.2654831872909,53.2557536685715],[17.2654829394664,53.255768135064],[17.265414421844,53.2557702291047],[17.2654086110488,53.2559344637303],[17.2654769586226,53.25597730038],[17.2659422380884,53.2559778294886],[17.2660246946146,53.2559230710991],[17.2660150318808,53.2557434644017],[17.2660027982613,53.2555127095541],[17.2659881504474,53.2552391648176],[17.2659674921742,53.2548528043903],[17.2659981617949,53.2548381657351],[17.2660421065065,53.2560089080358],[17.2646170762634,53.2559880853273],[17.2645213931121,53.2559052700389],[17.2642380011173,53.2557232553838]]]},"properties":{"case_id":"ST-WK-PI/WNIOSEK/4510/2026","source_type":"wniosek_decyzja","received_date":"2026-03-09","decision_date":"2026-05-28","status":"decyzja wydana","description":"budowa sieci wodociągowej na terenie osiedla Berlinki w Luchowie","address":"Luchowo","city":"Luchowo","office":"Starosta Powiatu Piła","case_kind":"Obiekt budowlany inny niż budynek mieszkalny jednorodzinny","parcel_ids":["301904_5.0011.349/5","301904_5.0011.350/5","301904_5.0011.351/3","301904_5.0011.353/1","301904_5.0011.353/2","301904_5.0011.353/3","301904_5.0011.354/1","301904_5.0011.354/10","301904_5.0011.354/3","301904_5.0011.354/4","301904_5.0011.354/5","301904_5.0011.354/6","301904_5.0011.354/7","301904_5.0011.354/8","301904_5.0011.354/9","301904_5.0011.355/1","301904_5.0011.355/2","301904_5.0011.362/6","301904_5.0011.362/7","301904_5.0011.372"],"location_quality":"dokładny","gunb_url":"https://wyszukiwarka.gunb.gov.pl/","parcel_count":20,"parcel_shard":"x069-y213","parcel_id":"301904_5.0011.354/1","location_source":"powiat pilski (wfs)"}},{"type":"Feature","id":"ST-WK-PI/WNIOSEK/4510/2026::301904_5.0011.354/10","geometry":{"type":"Polygon","coordinates":[[[17.2659422380884,53.2559778294886],[17.2654769586226,53.25597730038],[17.2654086110488,53.2559344637303],[17.265414421844,53.2557702291047],[17.2654829394664,53.255768135064],[17.2654831872909,53.2557536685715],[17.2660150318808,53.2557434644017],[17.2660246946146,53.2559230710991],[17.2659422380884,53.2559778294886]]]},"properties":{"case_id":"ST-WK-PI/WNIOSEK/4510/2026","source_type":"wniosek_decyzja","received_date":"2026-03-09","decision_date":"2026-05-28","status":"decyzja wydana","description":"budowa sieci wodociągowej na terenie osiedla Berlinki w Luchowie","address":"Luchowo","city":"Luchowo","office":"Starosta Powiatu Piła","case_kind":"Obiekt budowlany inny niż budynek mieszkalny jednorodzinny","parcel_ids":["301904_5.0011.349/5","301904_5.0011.350/5","301904_5.0011.351/3","301904_5.0011.353/1","301904_5.0011.353/2","301904_5.0011.353/3","301904_5.0011.354/1","301904_5.0011.354/10","301904_5.0011.354/3","301904_5.0011.354/4","301904_5.0011.354/5","301904_5.0011.354/6","301904_5.0011.354/7","301904_5.0011.354/8","301904_5.0011.354/9","301904_5.0011.355/1","301904_5.0011.355/2","301904_5.0011.362/6","301904_5.0011.362/7","301904_5.0011.372"],"location_quality":"dokładny","gunb_url":"https://wyszukiwarka.gunb.gov.pl/","parcel_count":20,"parcel_shard":"x069-y213","parcel_id":"301904_5.0011.354/10","location_source":"powiat pilski (wfs)"}},{"type":"Feature","id":"ST-WK-PI/WNIOSEK/4510/2026::301904_5.0011.354/3","geometry":{"type":"Polygon","coordinates":[[[17.2638669576367,53.2559771658262],[17.264071429259,53.2558156853479],[17.2642380011173,53.2557232553838],[17.2645213931121,53.2559052700389],[17.2646170762634,53.2559880853273],[17.2638669576367,53.2559771658262]]]},"properties":{"case_id":"ST-WK-PI/WNIOSEK/4510/2026","source_type":"wniosek_decyzja","received_date":"2026-03-09","decision_date":"2026-05-28","status":"decyzja wydana","description":"budowa sieci wodociągowej na terenie osiedla Berlinki w Luchowie","address":"Luchowo","city":"Luchowo","office":"Starosta Powiatu Piła","case_kind":"Obiekt budowlany inny niż budynek mieszkalny jednorodzinny","parcel_ids":["301904_5.0011.349/5","301904_5.0011.350/5","301904_5.0011.351/3","301904_5.0011.353/1","301904_5.0011.353/2","301904_5.0011.353/3","301904_5.0011.354/1","301904_5.0011.354/10","301904_5.0011.354/3","301904_5.0011.354/4","301904_5.0011.354/5","301904_5.0011.354/6","301904_5.0011.354/7","301904_5.0011.354/8","301904_5.0011.354/9","301904_5.0011.355/1","301904_5.0011.355/2","301904_5.0011.362/6","301904_5.0011.362/7","301904_5.0011.372"],"location_quality":"dokładny","gunb_url":"https://wyszukiwarka.gunb.gov.pl/","parcel_count":20,"parcel_shard":"x069-y213","parcel_id":"301904_5.0011.354/3","location_source":"powiat pilski (wfs)"}},{"type":"Feature","id":"ST-WK-PI/WNIOSEK/4510/2026::301904_5.0011.354/4","geometry":{"type":"Polygon","coordinates":[[[17.2646739213742,53.2558452834149],[17.2650812263178,53.2556173848141],[17.26511449441,53.2556522771791],[17.2653001460808,53.2557754559542],[17.265297373127,53.2559372829816],[17.2652292604272,53.2559769423431],[17.2649857560958,53.2559766995097],[17.2647723364041,53.2559086150538],[17.2646739213742,53.2558452834149]]]},"properties":{"case_id":"ST-WK-PI/WNIOSEK/4510/2026","source_type":"wniosek_decyzja","received_date":"2026-03-09","decision_date":"2026-05-28","status":"decyzja wydana","description":"budowa sieci wodociągowej na terenie osiedla Berlinki w Luchowie","address":"Luchowo","city":"Luchowo","office":"Starosta Powiatu Piła","case_kind":"Obiekt budowlany inny niż budynek mieszkalny jednorodzinny","parcel_ids":["301904_5.0011.349/5","301904_5.0011.350/5","301904_5.0011.351/3","301904_5.0011.353/1","301904_5.0011.353/2","301904_5.0011.353/3","301904_5.0011.354/1","301904_5.0011.354/10","301904_5.0011.354/3","301904_5.0011.354/4","301904_5.0011.354/5","301904_5.0011.354/6","301904_5.0011.354/7","301904_5.0011.354/8","301904_5.0011.354/9","301904_5.0011.355/1","301904_5.0011.355/2","301904_5.0011.362/6","301904_5.0011.362/7","301904_5.0011.372"],"location_quality":"dokładny","gunb_url":"https://wyszukiwarka.gunb.gov.pl/","parcel_count":20,"parcel_shard":"x069-y213","parcel_id":"301904_5.0011.354/4","location_source":"powiat pilski (wfs)"}},{"type":"Feature","id":"ST-WK-PI/WNIOSEK/4510/2026::301904_5.0011.354/5","geometry":{"type":"Polygon","coordinates":[[[17.2643699287533,53.2556499320844],[17.2647773524558,53.2554238325174],[17.2648589497,53.2553842565577],[17.2650812263178,53.2556173848141],[17.2646739213742,53.2558452834149],[17.2643699287533,53.2556499320844]]]},"properties":{"case_id":"ST-WK-PI/WNIOSEK/4510/2026","source_type":"wniosek_decyzja","received_date":"2026-03-09","decision_date":"2026-05-28","status":"decyzja wydana","description":"budowa sieci wodociągowej na terenie osiedla Berlinki w Luchowie","address":"Luchowo","city":"Luchowo","office":"Starosta Powiatu Piła","case_kind":"Obiekt budowlany inny niż budynek mieszkalny jednorodzinny","parcel_ids":["301904_5.0011.349/5","301904_5.0011.350/5","301904_5.0011.351/3","301904_5.0011.353/1","301904_5.0011.353/2","301904_5.0011.353/3","301904_5.0011.354/1","301904_5.0011.354/10","301904_5.0011.354/3","301904_5.0011.354/4","301904_5.0011.354/5","301904_5.0011.354/6","301904_5.0011.354/7","301904_5.0011.354/8","301904_5.0011.354/9","301904_5.0011.355/1","301904_5.0011.355/2","301904_5.0011.362/6","301904_5.0011.362/7","301904_5.0011.372"],"location_quality":"dokładny","gunb_url":"https://wyszukiwarka.gunb.gov.pl/","parcel_count":20,"parcel_shard":"x069-y213","parcel_id":"301904_5.0011.354/5","location_source":"powiat pilski (wfs)"}},{"type":"Feature","id":"ST-WK-PI/WNIOSEK/4510/2026::301904_5.0011.354/6","geometry":{"type":"Polygon","coordinates":[[[17.26511449441,53.2556522771791],[17.2650812263178,53.2556173848141],[17.2648589497,53.2553842565577],[17.2652995762219,53.2551703117764],[17.2653229942843,53.255159133284],[17.2653612764085,53.2552512096546],[17.2654739547507,53.2555228422876],[17.265486907224,53.2555540148474],[17.2652706848101,53.2555621182381],[17.26511449441,53.2556522771791]]]},"properties":{"case_id":"ST-WK-PI/WNIOSEK/4510/2026","source_type":"wniosek_decyzja","received_date":"2026-03-09","decision_date":"2026-05-28","status":"decyzja wydana","description":"budowa sieci wodociągowej na terenie osiedla Berlinki w Luchowie","address":"Luchowo","city":"Luchowo","office":"Starosta Powiatu Piła","case_kind":"Obiekt budowlany inny niż budynek mieszkalny jednorodzinny","parcel_ids":["301904_5.0011.349/5","301904_5.0011.350/5","301904_5.0011.351/3","301904_5.0011.353/1","301904_5.0011.353/2","301904_5.0011.353/3","301904_5.0011.354/1","301904_5.0011.354/10","301904_5.0011.354/3","301904_5.0011.354/4","301904_5.0011.354/5","301904_5.0011.354/6","301904_5.0011.354/7","301904_5.0011.354/8","301904_5.0011.354/9","301904_5.0011.355/1","301904_5.0011.355/2","301904_5.0011.362/6","301904_5.0011.362/7","301904_5.0011.372"],"location_quality":"dokładny","gunb_url":"https://wyszukiwarka.gunb.gov.pl/","parcel_count":20,"parcel_shard":"x069-y213","parcel_id":"301904_5.0011.354/6","location_source":"powiat pilski (wfs)"}},{"type":"Feature","id":"ST-WK-PI/WNIOSEK/4510/2026::301904_5.0011.354/7","geometry":{"type":"Polygon","coordinates":[[[17.2659881504474,53.2552391648176],[17.2653612764085,53.2552512096546],[17.2653229942843,53.255159133284],[17.2659674921742,53.2548528043903],[17.2659881504474,53.2552391648176]]]},"properties":{"case_id":"ST-WK-PI/WNIOSEK/4510/2026","source_type":"wniosek_decyzja","received_date":"2026-03-09","decision_date":"2026-05-28","status":"decyzja wydana","description":"budowa sieci wodociągowej na terenie osiedla Berlinki w Luchowie","address":"Luchowo","city":"Luchowo","office":"Starosta Powiatu Piła","case_kind":"Obiekt budowlany inny niż budynek mieszkalny jednorodzinny","parcel_ids":["301904_5.0011.349/5","301904_5.0011.350/5","301904_5.0011.351/3","301904_5.0011.353/1","301904_5.0011.353/2","301904_5.0011.353/3","301904_5.0011.354/1","301904_5.0011.354/10","301904_5.0011.354/3","301904_5.0011.354/4","301904_5.0011.354/5","301904_5.0011.354/6","301904_5.0011.354/7","301904_5.0011.354/8","301904_5.0011.354/9","301904_5.0011.355/1","301904_5.0011.355/2","301904_5.0011.362/6","301904_5.0011.362/7","301904_5.0011.372"],"location_quality":"dokładny","gunb_url":"https://wyszukiwarka.gunb.gov.pl/","parcel_count":20,"parcel_shard":"x069-y213","parcel_id":"301904_5.0011.354/7","location_source":"powiat pilski (wfs)"}},{"type":"Feature","id":"ST-WK-PI/WNIOSEK/4510/2026::301904_5.0011.354/8","geometry":{"type":"Polygon","coordinates":[[[17.2660027982613,53.2555127095541],[17.2654739547507,53.2555228422876],[17.2653612764085,53.2552512096546],[17.2659881504474,53.2552391648176],[17.2660027982613,53.2555127095541]]]},"properties":{"case_id":"ST-WK-PI/WNIOSEK/4510/2026","source_type":"wniosek_decyzja","received_date":"2026-03-09","decision_date":"2026-05-28","status":"decyzja wydana","description":"budowa sieci wodociągowej na terenie osiedla Berlinki w Luchowie","address":"Luchowo","city":"Luchowo","office":"Starosta Powiatu Piła","case_kind":"Obiekt budowlany inny niż budynek mieszkalny jednorodzinny","parcel_ids":["301904_5.0011.349/5","301904_5.0011.350/5","301904_5.0011.351/3","301904_5.0011.353/1","301904_5.0011.353/2","301904_5.0011.353/3","301904_5.0011.354/1","301904_5.0011.354/10","301904_5.0011.354/3","301904_5.0011.354/4","301904_5.0011.354/5","301904_5.0011.354/6","301904_5.0011.354/7","301904_5.0011.354/8","301904_5.0011.354/9","301904_5.0011.355/1","301904_5.0011.355/2","301904_5.0011.362/6","301904_5.0011.362/7","301904_5.0011.372"],"location_quality":"dokładny","gunb_url":"https://wyszukiwarka.gunb.gov.pl/","parcel_count":20,"parcel_shard":"x069-y213","parcel_id":"301904_5.0011.354/8","location_source":"powiat pilski (wfs)"}},{"type":"Feature","id":"ST-WK-PI/WNIOSEK/4510/2026::301904_5.0011.354/9","geometry":{"type":"Polygon","coordinates":[[[17.2660150318808,53.2557434644017],[17.2654831872909,53.2557536685715],[17.265486907224,53.2555540148474],[17.2654739547507,53.2555228422876],[17.2660027982613,53.2555127095541],[17.2660150318808,53.2557434644017]]]},"properties":{"case_id":"ST-WK-PI/WNIOSEK/4510/2026","source_type":"wniosek_decyzja","received_date":"2026-03-09","decision_date":"2026-05-28","status":"decyzja wydana","description":"budowa sieci wodociągowej na terenie osiedla Berlinki w Luchowie","address":"Luchowo","city":"Luchowo","office":"Starosta Powiatu Piła","case_kind":"Obiekt budowlany inny niż budynek mieszkalny jednorodzinny","parcel_ids":["301904_5.0011.349/5","301904_5.0011.350/5","301904_5.0011.351/3","301904_5.0011.353/1","301904_5.0011.353/2","301904_5.0011.353/3","301904_5.0011.354/1","301904_5.0011.354/10","301904_5.0011.354/3","301904_5.0011.354/4","301904_5.0011.354/5","301904_5.0011.354/6","301904_5.0011.354/7","301904_5.0011.354/8","301904_5.0011.354/9","301904_5.0011.355/1","301904_5.0011.355/2","301904_5.0011.362/6","301904_5.0011.362/7","301904_5.0011.372"],"location_quality":"dokładny","gunb_url":"https://wyszukiwarka.gunb.gov.pl/","parcel_count":20,"parcel_shard":"x069-y213","parcel_id":"301904_5.0011.354/9","location_source":"powiat pilski (wfs)"}},{"type":"Feature","id":"ST-WK-PI/WNIOSEK/4510/2026::301904_5.0011.355/1","geometry":{"type":"Polygon","coordinates":[[[17.2647481004291,53.2565267262756],[17.2648559895653,53.2565270321059],[17.2648571671334,53.2565719710993],[17.2648227029398,53.2565718484549],[17.2648533526097,53.257310086035],[17.2648667115242,53.2576496725229],[17.264874402618,53.2578478688452],[17.2648789782386,53.2580180085574],[17.2648831111663,53.2581003489528],[17.2648898123256,53.2582339273424],[17.2648969103913,53.2584317605334],[17.2649026996293,53.2586534893213],[17.2649094241626,53.2588556336392],[17.264917199215,53.259057694563],[17.2649218279477,53.2592684528338],[17.2649240523638,53.2593659683623],[17.2648595051189,53.2593634136785],[17.2648445564634,53.2589592056803],[17.2648307725383,53.2586531357047],[17.2648151702671,53.2582346353365],[17.2647965159695,53.2577843943198],[17.2647756676498,53.2572436472371],[17.264760288102,53.2568821215689],[17.2647481004291,53.2565267262756]]]},"properties":{"case_id":"ST-WK-PI/WNIOSEK/4510/2026","source_type":"wniosek_decyzja","received_date":"2026-03-09","decision_date":"2026-05-28","status":"decyzja wydana","description":"budowa sieci wodociągowej na terenie osiedla Berlinki w Luchowie","address":"Luchowo","city":"Luchowo","office":"Starosta Powiatu Piła","case_kind":"Obiekt budowlany inny niż budynek mieszkalny jednorodzinny","parcel_ids":["301904_5.0011.349/5","301904_5.0011.350/5","301904_5.0011.351/3","301904_5.0011.353/1","301904_5.0011.353/2","301904_5.0011.353/3","301904_5.0011.354/1","301904_5.0011.354/10","301904_5.0011.354/3","301904_5.0011.354/4","301904_5.0011.354/5","301904_5.0011.354/6","301904_5.0011.354/7","301904_5.0011.354/8","301904_5.0011.354/9","301904_5.0011.355/1","301904_5.0011.355/2","301904_5.0011.362/6","301904_5.0011.362/7","301904_5.0011.372"],"location_quality":"dokładny","gunb_url":"https://wyszukiwarka.gunb.gov.pl/","parcel_count":20,"parcel_shard":"x069-y213","parcel_id":"301904_5.0011.355/1","location_source":"powiat pilski (wfs)"}},{"type":"Feature","id":"ST-WK-PI/WNIOSEK/4510/2026::301904_5.0011.355/2","geometry":{"type":"Polygon","coordinates":[[[17.2648571671334,53.2565719710993],[17.2648559895653,53.2565270321059],[17.2660618072825,53.256530057668],[17.2660629891908,53.2565748169459],[17.2648571671334,53.2565719710993]]]},"properties":{"case_id":"ST-WK-PI/WNIOSEK/4510/2026","source_type":"wniosek_decyzja","received_date":"2026-03-09","decision_date":"2026-05-28","status":"decyzja wydana","description":"budowa sieci wodociągowej na terenie osiedla Berlinki w Luchowie","address":"Luchowo","city":"Luchowo","office":"Starosta Powiatu Piła","case_kind":"Obiekt budowlany inny niż budynek mieszkalny jednorodzinny","parcel_ids":["301904_5.0011.349/5","301904_5.0011.350/5","301904_5.0011.351/3","301904_5.0011.353/1","301904_5.0011.353/2","301904_5.0011.353/3","301904_5.0011.354/1","301904_5.0011.354/10","301904_5.0011.354/3","301904_5.0011.354/4","301904_5.0011.354/5","301904_5.0011.354/6","301904_5.0011.354/7","301904_5.0011.354/8","301904_5.0011.354/9","301904_5.0011.355/1","301904_5.0011.355/2","301904_5.0011.362/6","301904_5.0011.362/7","301904_5.0011.372"],"location_quality":"dokładny","gunb_url":"https://wyszukiwarka.gunb.gov.pl/","parcel_count":20,"parcel_shard":"x069-y213","parcel_id":"301904_5.0011.355/2","location_source":"powiat pilski (wfs)"}},{"type":"Feature","id":"ST-WK-PI/WNIOSEK/4510/2026::301904_5.0011.362/6","geometry":{"type":"Polygon","coordinates":[[[17.2648998046132,53.2573102825803],[17.2648533526097,53.257310086035],[17.2648227029398,53.2565718484549],[17.2648571671334,53.2565719710993],[17.2648666943582,53.2568640860966],[17.2648998046132,53.2573102825803]]]},"properties":{"case_id":"ST-WK-PI/WNIOSEK/4510/2026","source_type":"wniosek_decyzja","received_date":"2026-03-09","decision_date":"2026-05-28","status":"decyzja wydana","description":"budowa sieci wodociągowej na terenie osiedla Berlinki w Luchowie","address":"Luchowo","city":"Luchowo","office":"Starosta Powiatu Piła","case_kind":"Obiekt budowlany inny niż budynek mieszkalny jednorodzinny","parcel_ids":["301904_5.0011.349/5","301904_5.0011.350/5","301904_5.0011.351/3","301904_5.0011.353/1","301904_5.0011.353/2","301904_5.0011.353/3","301904_5.0011.354/1","301904_5.0011.354/10","301904_5.0011.354/3","301904_5.0011.354/4","301904_5.0011.354/5","301904_5.0011.354/6","301904_5.0011.354/7","301904_5.0011.354/8","301904_5.0011.354/9","301904_5.0011.355/1","301904_5.0011.355/2","301904_5.0011.362/6","301904_5.0011.362/7","301904_5.0011.372"],"location_quality":"dokładny","gunb_url":"https://wyszukiwarka.gunb.gov.pl/","parcel_count":20,"parcel_shard":"x069-y213","parcel_id":"301904_5.0011.362/6","location_source":"powiat pilski (wfs)"}},{"type":"Feature","id":"ST-WK-PI/WNIOSEK/4510/2026::301904_5.0011.362/7","geometry":{"type":"Polygon","coordinates":[[[17.2660629891908,53.2565748169459],[17.2660970042494,53.2573146744335],[17.2655395017643,53.2573125175096],[17.2648998046132,53.2573102825803],[17.2648666943582,53.2568640860966],[17.2648571671334,53.2565719710993],[17.2660629891908,53.2565748169459]]]},"properties":{"case_id":"ST-WK-PI/WNIOSEK/4510/2026","source_type":"wniosek_decyzja","received_date":"2026-03-09","decision_date":"2026-05-28","status":"decyzja wydana","description":"budowa sieci wodociągowej na terenie osiedla Berlinki w Luchowie","address":"Luchowo","city":"Luchowo","office":"Starosta Powiatu Piła","case_kind":"Obiekt budowlany inny niż budynek mieszkalny jednorodzinny","parcel_ids":["301904_5.0011.349/5","301904_5.0011.350/5","301904_5.0011.351/3","301904_5.0011.353/1","301904_5.0011.353/2","301904_5.0011.353/3","301904_5.0011.354/1","301904_5.0011.354/10","301904_5.0011.354/3","301904_5.0011.354/4","301904_5.0011.354/5","301904_5.0011.354/6","301904_5.0011.354/7","301904_5.0011.354/8","301904_5.0011.354/9","301904_5.0011.355/1","301904_5.0011.355/2","301904_5.0011.362/6","301904_5.0011.362/7","301904_5.0011.372"],"location_quality":"dokładny","gunb_url":"https://wyszukiwarka.gunb.gov.pl/","parcel_count":20,"parcel_shard":"x069-y213","parcel_id":"301904_5.0011.362/7","location_source":"powiat pilski (wfs)"}},{"type":"Feature","id":"ST-WK-PI/WNIOSEK/4510/2026::301904_5.0011.372","geometry":{"type":"Polygon","coordinates":[[[17.2659981617949,53.2548381657351],[17.2661311039597,53.2547752709017],[17.2661402689549,53.2550277538374],[17.2661482641541,53.2552522820198],[17.2661561120059,53.2554679128022],[17.2661659242695,53.2557176139225],[17.2661740758929,53.2559242602096],[17.2661797080085,53.2560679865567],[17.2661818435383,53.2561183232406],[17.2661965502642,53.2564760703332],[17.2662132699747,53.2568738190277],[17.2662232767613,53.257234772229],[17.2662319539454,53.2574194950127],[17.2662410967734,53.257612038775],[17.2662467910727,53.2578414682216],[17.2662522735511,53.2580359933973],[17.2662604674451,53.2582402135441],[17.2662614979694,53.2584518842101],[17.2662770577049,53.2586473430547],[17.266304716148,53.2594200331335],[17.2661685815634,53.2594147021704],[17.2661565146216,53.2591087993273],[17.266141608534,53.2586441370482],[17.2661330218721,53.2584278727885],[17.2661257682588,53.258230038729],[17.2661228024559,53.2581494129741],[17.2661179140344,53.2580147674589],[17.2661088694811,53.2578077562899],[17.266103318144,53.2576067874658],[17.2660970042494,53.2573146744335],[17.2660629891908,53.2565748169459],[17.2660618072825,53.256530057668],[17.2660464154341,53.2561248584322],[17.2660421065065,53.2560089080358],[17.2659981617949,53.2548381657351]]]},"properties":{"case_id":"ST-WK-PI/WNIOSEK/4510/2026","source_type":"wniosek_decyzja","received_date":"2026-03-09","decision_date":"2026-05-28","status":"decyzja wydana","description":"budowa sieci wodociągowej na terenie osiedla Berlinki w Luchowie","address":"Luchowo","city":"Luchowo","office":"Starosta Powiatu Piła","case_kind":"Obiekt budowlany inny niż budynek mieszkalny jednorodzinny","parcel_ids":["301904_5.0011.349/5","301904_5.0011.350/5","301904_5.0011.351/3","301904_5.0011.353/1","301904_5.0011.353/2","301904_5.0011.353/3","301904_5.0011.354/1","301904_5.0011.354/10","301904_5.0011.354/3","301904_5.0011.354/4","301904_5.0011.354/5","301904_5.0011.354/6","301904_5.0011.354/7","301904_5.0011.354/8","301904_5.0011.354/9","301904_5.0011.355/1","301904_5.0011.355/2","301904_5.0011.362/6","301904_5.0011.362/7","301904_5.0011.372"],"location_quality":"dokładny","gunb_url":"https://wyszukiwarka.gunb.gov.pl/","parcel_count":20,"parcel_shard":"x069-y213","parcel_id":"301904_5.0011.372","location_source":"powiat pilski (wfs)"}},{"type":"Feature","id":"ST-WK-PI/WNIOSEK/1410/2026::301904_5.0011.354/4","geometry":{"type":"Polygon","coordinates":[[[17.2646739213742,53.2558452834149],[17.2650812263178,53.2556173848141],[17.26511449441,53.2556522771791],[17.2653001460808,53.2557754559542],[17.265297373127,53.2559372829816],[17.2652292604272,53.2559769423431],[17.2649857560958,53.2559766995097],[17.2647723364041,53.2559086150538],[17.2646739213742,53.2558452834149]]]},"properties":{"case_id":"ST-WK-PI/WNIOSEK/1410/2026","source_type":"wniosek_decyzja","received_date":"2026-01-23","decision_date":"2026-02-19","status":"decyzja wydana","description":"budynek mieszkalny jednorodzinny","address":"Luchowo","city":"Luchowo","office":"Starosta Powiatu Piła","case_kind":"Budynek mieszkalny jednorodzinny","parcel_ids":["301904_5.0011.354/4"],"location_quality":"dokładny","gunb_url":"https://wyszukiwarka.gunb.gov.pl/","parcel_count":1,"parcel_shard":"x069-y213","parcel_id":"301904_5.0011.354/4","location_source":"powiat pilski (wfs)"}},{"type":"Feature","id":"ST-WK-PI/WNIOSEK/7413/2026::301904_5.0011.354/7","geometry":{"type":"Polygon","coordinates":[[[17.2659881504474,53.2552391648176],[17.2653612764085,53.2552512096546],[17.2653229942843,53.255159133284],[17.2659674921742,53.2548528043903],[17.2659881504474,53.2552391648176]]]},"properties":{"case_id":"ST-WK-PI/WNIOSEK/7413/2026","source_type":"wniosek_decyzja","received_date":"2026-04-15","decision_date":"2026-05-11","status":"decyzja wydana","description":"Budowa budynku mieszkalnego jednorodzinnego wraz z infrastrukturą techniczną","address":"Luchowo","city":"Luchowo","office":"Starosta Powiatu Piła","case_kind":"Budynek mieszkalny jednorodzinny","parcel_ids":["301904_5.0011.354/7"],"location_quality":"dokładny","gunb_url":"https://wyszukiwarka.gunb.gov.pl/","parcel_count":1,"parcel_shard":"x069-y213","parcel_id":"301904_5.0011.354/7","location_source":"powiat pilski (wfs)"}},{"type":"Feature","id":"ST-WK-PI/WNIOSEK/4385/2026::301904_5.0011.354/9","geometry":{"type":"Polygon","coordinates":[[[17.2660150318808,53.2557434644017],[17.2654831872909,53.2557536685715],[17.265486907224,53.2555540148474],[17.2654739547507,53.2555228422876],[17.2660027982613,53.2555127095541],[17.2660150318808,53.2557434644017]]]},"properties":{"case_id":"ST-WK-PI/WNIOSEK/4385/2026","source_type":"wniosek_decyzja","received_date":"2026-03-05","decision_date":"2026-05-20","status":"decyzja wydana","description":"Budynek mieszkalny jednorodzinny wraz z niezbędną in frastrukturą techniczną","address":"Luchowo","city":"Luchowo","office":"Starosta Powiatu Piła","case_kind":"Budynek mieszkalny jednorodzinny","parcel_ids":["301904_5.0011.354/9"],"location_quality":"dokładny","gunb_url":"https://wyszukiwarka.gunb.gov.pl/","parcel_count":1,"parcel_shard":"x069-y213","parcel_id":"301904_5.0011.354/9","location_source":"powiat pilski (wfs)"}},{"type":"Feature","id":"ST-WK-PI/WNIOSEK/24728/2025::301904_5.0011.89","geometry":{"type":"Polygon","coordinates":[[[17.2627881391138,53.2609644185692],[17.2628970862314,53.2605735033259],[17.2632015399698,53.2594723115803],[17.2639085260338,53.2595077561246],[17.2646022944823,53.2595425338748],[17.2636653400764,53.2611142765036],[17.2627881391138,53.2609644185692]]]},"properties":{"case_id":"ST-WK-PI/WNIOSEK/24728/2025","source_type":"wniosek_decyzja","received_date":"2025-12-03","decision_date":"2026-02-12","status":"decyzja wydana","description":"Rozbudowa i przebudowa budynków gospodarczych","address":"1, Luchowo","city":"Luchowo","office":"Starosta Powiatu Piła","case_kind":"Obiekt budowlany inny niż budynek mieszkalny jednorodzinny","parcel_ids":["301904_5.0011.89"],"location_quality":"dokładny","gunb_url":"https://wyszukiwarka.gunb.gov.pl/","parcel_count":1,"parcel_shard":"x069-y213","parcel_id":"301904_5.0011.89","location_source":"powiat pilski (wfs)"}},{"type":"Feature","id":"ST-WK-PI/WNIOSEK/17769/2025::301904_5.0021.296/5","geometry":{"type":"Polygon","coordinates":[[[17.3138664734035,53.2979601719138],[17.3142400668476,53.2978416349142],[17.3151242709875,53.2975997727356],[17.3156939158769,53.297977769064],[17.3148017431838,53.2986984672891],[17.3144713696709,53.2985250213944],[17.3143747215122,53.2983313512437],[17.3143026841403,53.2982962501981],[17.3138664734035,53.2979601719138]]]},"properties":{"case_id":"ST-WK-PI/WNIOSEK/17769/2025","source_type":"wniosek_decyzja","received_date":"2025-08-28","decision_date":"2025-10-20","status":"decyzja wydana","description":"Budynek mieszkalny jednorodzinny w zabudowie zagrodowej wraz z wewnętrzną infrastrukturą techniczną","address":"Witrogoszcz","city":"Witrogoszcz","office":"Starosta Powiatu Piła","case_kind":"Budynek mieszkalny jednorodzinny","parcel_ids":["301904_5.0021.296/5"],"location_quality":"dokładny","gunb_url":"https://wyszukiwarka.gunb.gov.pl/","parcel_count":1,"parcel_shard":"x069-y213","parcel_id":"301904_5.0021.296/5","location_source":"powiat pilski (wfs)"}},{"type":"Feature","id":"ST-WK-PI/WNIOSEK/26006/2025::301904_5.0021.313/3","geometry":{"type":"Polygon","coordinates":[[[17.3091519847606,53.2860587019435],[17.3091811630853,53.2860110634193],[17.30937549899,53.2856240361923],[17.3112486839901,53.2869885653391],[17.3135147427599,53.2886625641391],[17.3149570173103,53.2898012132793],[17.3138957616965,53.2902879867018],[17.3128459249839,53.2898335003117],[17.3123320022529,53.2892953161394],[17.311598573962,53.2888490878258],[17.3092980430144,53.2872403214322],[17.3086854809479,53.2869946865351],[17.3085699901673,53.2870088826133],[17.3091519847606,53.2860587019435]]]},"properties":{"case_id":"ST-WK-PI/WNIOSEK/26006/2025","source_type":"wniosek_decyzja","received_date":"2025-12-19","decision_date":"2026-01-15","status":"decyzja wydana","description":"Budynek mieszkalny jednorodziny w zabudowie zagrodowej wraz z infrastrukturą techniczną","address":"Witrogoszcz","city":"Witrogoszcz","office":"Starosta Powiatu Piła","case_kind":"Budynek mieszkalny jednorodzinny","parcel_ids":["301904_5.0021.313/3"],"location_quality":"dokładny","gunb_url":"https://wyszukiwarka.gunb.gov.pl/","parcel_count":1,"parcel_shard":"x069-y213","parcel_id":"301904_5.0021.313/3","location_source":"powiat pilski (wfs)"}},{"type":"Feature","id":"ST-WK-PI/WNIOSEK/23031/2025::301904_5.0021.428","geometry":{"type":"Polygon","coordinates":[[[17.2933788880384,53.2861977603607],[17.2937301982782,53.2860636990559],[17.2939945940255,53.2863261363638],[17.2936445960988,53.2864532867773],[17.2933788880384,53.2861977603607]]]},"properties":{"case_id":"ST-WK-PI/WNIOSEK/23031/2025","source_type":"wniosek_decyzja","received_date":"2025-11-07","decision_date":"2025-12-29","status":"decyzja wydana","description":"wykonanie otworu drzwiowego w budynku wielorodzinnym oraz płyty fundamentowej dla dźwigu platformowego pionowego dla osoby z niepełnosprawnością","address":"Witrogoszcz-Osada","city":"Witrogoszcz-Osada","office":"Starosta Powiatu Piła","case_kind":"Obiekt budowlany inny niż budynek mieszkalny jednorodzinny","parcel_ids":["301904_5.0021.428"],"location_quality":"dokładny","gunb_url":"https://wyszukiwarka.gunb.gov.pl/","parcel_count":1,"parcel_shard":"x069-y213","parcel_id":"301904_5.0021.428","location_source":"powiat pilski (wfs)"}},{"type":"Feature","id":"ST-WK-PI/WNIOSEK/19163/2025::301904_5.0022.159","geometry":{"type":"Polygon","coordinates":[[[17.3179290338955,53.3342376874363],[17.321651145263,53.3343482872991],[17.3217284523097,53.334448469635],[17.3214433577317,53.3346386523277],[17.3207958527102,53.3351150620457],[17.3198756447474,53.3350640873039],[17.3198734224733,53.3357595122849],[17.3198330881588,53.3359110497419],[17.3180080541156,53.335539614067],[17.3179389715999,53.3346031535088],[17.3179290338955,53.3342376874363]]]},"properties":{"case_id":"ST-WK-PI/WNIOSEK/19163/2025","source_type":"wniosek_decyzja","received_date":"2025-09-16","decision_date":"2025-12-11","status":"decyzja wydana","description":"rozbudowa i przebudowa budynku mieszkalnego jednorodzinnego","address":"Witrogoszcz-Kolonia","city":"Witrogoszcz-Kolonia","office":"Starosta Powiatu Piła","case_kind":"Budynek mieszkalny jednorodzinny","parcel_ids":["301904_5.0022.159"],"location_quality":"dokładny","gunb_url":"https://wyszukiwarka.gunb.gov.pl/","parcel_count":1,"parcel_shard":"x069-y213","parcel_id":"301904_5.0022.159","location_source":"powiat pilski (wfs)"}}]}