{"type":"FeatureCollection","features":[{"type":"Feature","id":"ST-WK-WA/WNIOSEK/6213/2026::302802_2.0001.194/1","geometry":{"type":"Polygon","coordinates":[[[17.5029890642049,52.8457943928249],[17.5030699656708,52.8459198327522],[17.5031425563437,52.8460256518446],[17.5032234289816,52.8460537596139],[17.5038272843365,52.8459994876961],[17.5037599106926,52.8457247476738],[17.5035905542002,52.8457400671801],[17.5029890642049,52.8457943928249]]]},"properties":{"case_id":"ST-WK-WA/WNIOSEK/6213/2026","source_type":"wniosek_decyzja","received_date":"2026-03-31","decision_date":"2026-06-01","status":"decyzja wydana","description":"budowa budynku gospodarczego z wiatą","address":"Piotrkowicka 14B, Damasławek","city":"Damasławek","office":"Starosta Powiatu Wągrowiec","case_kind":"Obiekt budowlany inny niż budynek mieszkalny jednorodzinny","parcel_ids":["302802_2.0001.194/1"],"location_quality":"dokładny","gunb_url":"https://wyszukiwarka.gunb.gov.pl/","parcel_count":1,"parcel_shard":"x070-y211","parcel_id":"302802_2.0001.194/1","location_source":"powiat wągrowiecki (wfs)"}},{"type":"Feature","id":"ST-WK-WA/WNIOSEK/17740/2025::302802_2.0001.195/2","geometry":{"type":"Polygon","coordinates":[[[17.5039322705871,52.8457091134608],[17.5038704952414,52.8454573597688],[17.5034300830575,52.8454969076592],[17.5035905542002,52.8457400671801],[17.5037599106926,52.8457247476738],[17.5039322705871,52.8457091134608]]]},"properties":{"case_id":"ST-WK-WA/WNIOSEK/17740/2025","source_type":"wniosek_decyzja","received_date":"2025-08-29","decision_date":"2025-12-18","status":"decyzja wydana","description":"budowa muru oporowego wraz z ogrodzeniem","address":"Boczna 2, Damasławek","city":"Damasławek","office":"Starosta Powiatu Wągrowiec","case_kind":"Obiekt budowlany inny niż budynek mieszkalny jednorodzinny","parcel_ids":["302802_2.0001.195/2"],"location_quality":"dokładny","gunb_url":"https://wyszukiwarka.gunb.gov.pl/","parcel_count":1,"parcel_shard":"x070-y211","parcel_id":"302802_2.0001.195/2","location_source":"powiat wągrowiecki (wfs)"}},{"type":"Feature","id":"ST-WK-WA/WNIOSEK/4001/2026::302802_2.0001.317/3","geometry":{"type":"Polygon","coordinates":[[[17.502196205005,52.8448879413368],[17.5021455146799,52.8449570593106],[17.5020371313862,52.8451048427083],[17.5019287473245,52.8452526259655],[17.5023671434154,52.8451458727271],[17.502196205005,52.8448879413368]]]},"properties":{"case_id":"ST-WK-WA/WNIOSEK/4001/2026","source_type":"wniosek_decyzja","received_date":"2026-03-04","decision_date":"2026-04-24","status":"decyzja wydana","description":"budowa magazynu ochrony ludności przy OSP Damasławek","address":"Wspólna 2, Damasławek","city":"Damasławek","office":"Starosta Powiatu Wągrowiec","case_kind":"Obiekt budowlany inny niż budynek mieszkalny jednorodzinny","parcel_ids":["302802_2.0001.317/3","302802_2.0001.318/43","302802_2.0001.318/44","302802_2.0001.318/45"],"location_quality":"dokładny","gunb_url":"https://wyszukiwarka.gunb.gov.pl/","parcel_count":4,"parcel_shard":"x070-y211","parcel_id":"302802_2.0001.317/3","location_source":"powiat wągrowiecki (wfs)"}},{"type":"Feature","id":"ST-WK-WA/WNIOSEK/4001/2026::302802_2.0001.318/43","geometry":{"type":"Polygon","coordinates":[[[17.5020371313862,52.8451048427083],[17.5015671662781,52.844978683624],[17.5014589310555,52.8451265552885],[17.5019287473245,52.8452526259655],[17.5020371313862,52.8451048427083]]]},"properties":{"case_id":"ST-WK-WA/WNIOSEK/4001/2026","source_type":"wniosek_decyzja","received_date":"2026-03-04","decision_date":"2026-04-24","status":"decyzja wydana","description":"budowa magazynu ochrony ludności przy OSP Damasławek","address":"Wspólna 2, Damasławek","city":"Damasławek","office":"Starosta Powiatu Wągrowiec","case_kind":"Obiekt budowlany inny niż budynek mieszkalny jednorodzinny","parcel_ids":["302802_2.0001.317/3","302802_2.0001.318/43","302802_2.0001.318/44","302802_2.0001.318/45"],"location_quality":"dokładny","gunb_url":"https://wyszukiwarka.gunb.gov.pl/","parcel_count":4,"parcel_shard":"x070-y211","parcel_id":"302802_2.0001.318/43","location_source":"powiat wągrowiecki (wfs)"}},{"type":"Feature","id":"ST-WK-WA/WNIOSEK/4001/2026::302802_2.0001.318/44","geometry":{"type":"Polygon","coordinates":[[[17.5021455146799,52.8449570593106],[17.5016753990311,52.8448307219526],[17.5015671662781,52.844978683624],[17.5020371313862,52.8451048427083],[17.5021455146799,52.8449570593106]]]},"properties":{"case_id":"ST-WK-WA/WNIOSEK/4001/2026","source_type":"wniosek_decyzja","received_date":"2026-03-04","decision_date":"2026-04-24","status":"decyzja wydana","description":"budowa magazynu ochrony ludności przy OSP Damasławek","address":"Wspólna 2, Damasławek","city":"Damasławek","office":"Starosta Powiatu Wągrowiec","case_kind":"Obiekt budowlany inny niż budynek mieszkalny jednorodzinny","parcel_ids":["302802_2.0001.317/3","302802_2.0001.318/43","302802_2.0001.318/44","302802_2.0001.318/45"],"location_quality":"dokładny","gunb_url":"https://wyszukiwarka.gunb.gov.pl/","parcel_count":4,"parcel_shard":"x070-y211","parcel_id":"302802_2.0001.318/44","location_source":"powiat wągrowiecki (wfs)"}},{"type":"Feature","id":"ST-WK-WA/WNIOSEK/4001/2026::302802_2.0001.318/45","geometry":{"type":"Polygon","coordinates":[[[17.5016753990311,52.8448307219526],[17.5021455146799,52.8449570593106],[17.502196205005,52.8448879413368],[17.5019507623825,52.8445175836019],[17.5019048864331,52.8445170928086],[17.5016753990311,52.8448307219526]]]},"properties":{"case_id":"ST-WK-WA/WNIOSEK/4001/2026","source_type":"wniosek_decyzja","received_date":"2026-03-04","decision_date":"2026-04-24","status":"decyzja wydana","description":"budowa magazynu ochrony ludności przy OSP Damasławek","address":"Wspólna 2, Damasławek","city":"Damasławek","office":"Starosta Powiatu Wągrowiec","case_kind":"Obiekt budowlany inny niż budynek mieszkalny jednorodzinny","parcel_ids":["302802_2.0001.317/3","302802_2.0001.318/43","302802_2.0001.318/44","302802_2.0001.318/45"],"location_quality":"dokładny","gunb_url":"https://wyszukiwarka.gunb.gov.pl/","parcel_count":4,"parcel_shard":"x070-y211","parcel_id":"302802_2.0001.318/45","location_source":"powiat wągrowiecki (wfs)"}},{"type":"Feature","id":"ST-WK-WA/WNIOSEK/23387/2025::302802_2.0001.334/4","geometry":{"type":"Polygon","coordinates":[[[17.5033783579032,52.8454007724668],[17.5035217699685,52.8453879822604],[17.5038663705264,52.8453572701473],[17.5035748197577,52.8449300095294],[17.5032510535872,52.8449867229731],[17.503128102613,52.8450082992001],[17.5032457434393,52.8451927952635],[17.5033783579032,52.8454007724668]]]},"properties":{"case_id":"ST-WK-WA/WNIOSEK/23387/2025","source_type":"wniosek_decyzja","received_date":"2025-11-18","decision_date":"2026-03-03","status":"decyzja wydana","description":"budowa budynku garażowego wraz z niezbędną infrastrukturą","address":"Damasławek","city":"Damasławek","office":"Starosta Powiatu Wągrowiec","case_kind":"Obiekt budowlany inny niż budynek mieszkalny jednorodzinny","parcel_ids":["302802_2.0001.334/4"],"location_quality":"dokładny","gunb_url":"https://wyszukiwarka.gunb.gov.pl/","parcel_count":1,"parcel_shard":"x070-y211","parcel_id":"302802_2.0001.334/4","location_source":"powiat wągrowiecki (wfs)"}},{"type":"Feature","id":"ST-WK-WA/WNIOSEK/18018/2025::302802_2.0001.418/2","geometry":{"type":"Polygon","coordinates":[[[17.5007496984743,52.838862115756],[17.5010071906065,52.8387990994934],[17.5012392858288,52.838739718976],[17.5015552128364,52.8386590114548],[17.5014828769215,52.8385524852333],[17.5011480898903,52.8380635056739],[17.5007751553265,52.8381633908089],[17.5000770003016,52.8383497074455],[17.4996042529813,52.8384756977969],[17.4997020105762,52.8385905485151],[17.499744693569,52.8386576535498],[17.4996987947361,52.8387993537398],[17.4997483239786,52.8388053769453],[17.4997197191352,52.8389053700779],[17.4997212507861,52.8389399759577],[17.4997318336831,52.8389876509291],[17.4997500440219,52.8390302355256],[17.5000772343177,52.8389651828054],[17.5001080330418,52.8390243193355],[17.5007496984743,52.838862115756]]]},"properties":{"case_id":"ST-WK-WA/WNIOSEK/18018/2025","source_type":"wniosek_decyzja","received_date":"2025-09-03","decision_date":"2026-02-10","status":"decyzja wydana","description":"budowa hali produkcyjnej","address":"Rynek 4, Damasławek","city":"Damasławek","office":"Starosta Powiatu Wągrowiec","case_kind":"Obiekt budowlany inny niż budynek mieszkalny jednorodzinny","parcel_ids":["302802_2.0001.418/2"],"location_quality":"dokładny","gunb_url":"https://wyszukiwarka.gunb.gov.pl/","parcel_count":1,"parcel_shard":"x070-y211","parcel_id":"302802_2.0001.418/2","location_source":"powiat wągrowiecki (wfs)"}},{"type":"Feature","id":"ST-WK-WA/WNIOSEK/18017/2025::302802_2.0001.418/2","geometry":{"type":"Polygon","coordinates":[[[17.5007496984743,52.838862115756],[17.5010071906065,52.8387990994934],[17.5012392858288,52.838739718976],[17.5015552128364,52.8386590114548],[17.5014828769215,52.8385524852333],[17.5011480898903,52.8380635056739],[17.5007751553265,52.8381633908089],[17.5000770003016,52.8383497074455],[17.4996042529813,52.8384756977969],[17.4997020105762,52.8385905485151],[17.499744693569,52.8386576535498],[17.4996987947361,52.8387993537398],[17.4997483239786,52.8388053769453],[17.4997197191352,52.8389053700779],[17.4997212507861,52.8389399759577],[17.4997318336831,52.8389876509291],[17.4997500440219,52.8390302355256],[17.5000772343177,52.8389651828054],[17.5001080330418,52.8390243193355],[17.5007496984743,52.838862115756]]]},"properties":{"case_id":"ST-WK-WA/WNIOSEK/18017/2025","source_type":"wniosek_decyzja","received_date":"2025-09-03","decision_date":"2026-01-29","status":"decyzja wydana","description":"budowa hali produkcyjnej","address":"Rynek 4, Damasławek","city":"Damasławek","office":"Starosta Powiatu Wągrowiec","case_kind":"Obiekt budowlany inny niż budynek mieszkalny jednorodzinny","parcel_ids":["302802_2.0001.418/2"],"location_quality":"dokładny","gunb_url":"https://wyszukiwarka.gunb.gov.pl/","parcel_count":1,"parcel_shard":"x070-y211","parcel_id":"302802_2.0001.418/2","location_source":"powiat wągrowiecki (wfs)"}},{"type":"Feature","id":"ST-WK-WA/WNIOSEK/21275/2025::302806_2.0005.99","geometry":{"type":"Polygon","coordinates":[[[17.5080406090063,52.9003270835922],[17.5067969994422,52.9019696385651],[17.5069932683895,52.9022684288183],[17.5076357637032,52.9032501557196],[17.507747290289,52.9034205621753],[17.5096771321325,52.9010642449233],[17.5080406090063,52.9003270835922]]]},"properties":{"case_id":"ST-WK-WA/WNIOSEK/21275/2025","source_type":"wniosek_decyzja","received_date":"2025-10-17","decision_date":"2025-12-03","status":"decyzja wydana","description":"nadbudowa istniejacego budynku mieszkalnego jednorodzinnego wraz ze zminą sposobu użytkowania poddasza nieużytkowego na mieszkalne w ramach zabudowy zagrodowej","address":"Srebrna Góra","city":"Srebrna Góra","office":"Starosta Powiatu Wągrowiec","case_kind":"Budynek mieszkalny jednorodzinny","parcel_ids":["302806_2.0005.99"],"location_quality":"dokładny","gunb_url":"https://wyszukiwarka.gunb.gov.pl/","parcel_count":1,"parcel_shard":"x070-y211","parcel_id":"302806_2.0005.99","location_source":"powiat wągrowiecki (wfs)"}}]}