{"type":"FeatureCollection","features":[{"type":"Feature","id":"ST-WK-OS/ZGŁOSZENIE/129/2026::301708_2.0003.550/1","geometry":{"type":"Polygon","coordinates":[[[17.5708150256446,51.4147105718842],[17.5717519556403,51.4145308026637],[17.5727654944481,51.4143359340031],[17.5728337060641,51.4143227974108],[17.5730591575731,51.4142791643237],[17.5737462767411,51.4141474605873],[17.5744291136857,51.4140175844387],[17.5758012232433,51.4137568726108],[17.5759547329464,51.4137254781296],[17.5766407190023,51.4135898838811],[17.5771777357419,51.4134837743485],[17.5773270669519,51.4134550986417],[17.5780148226606,51.4133231010469],[17.5785545410928,51.4132195118592],[17.5787022919018,51.4131905590486],[17.5793887699657,51.413055941991],[17.5799274941117,51.4129503653344],[17.5800758099265,51.4129223117193],[17.580764397459,51.4127919190016],[17.5813099935818,51.4126886977156],[17.5814529810952,51.412661522227],[17.5821414195529,51.4125308512214],[17.5826703094607,51.4124304405327],[17.5828294310673,51.4123992757538],[17.5835158852859,51.4122646344527],[17.5840430711897,51.4121612451447],[17.5842023458946,51.4121297916136],[17.5848883594256,51.4119943494667],[17.584965544215,51.4119790718018],[17.5850172212894,51.4119709848803],[17.5854389309807,51.4119110821963],[17.5855400897043,51.411899214876],[17.5857232686631,51.4118777494753],[17.5860014316821,51.4118436751351],[17.5862479736321,51.4118252192894],[17.5865708711926,51.4118036164435],[17.5868535958344,51.4117896016658],[17.5869990463358,51.4117755520524],[17.587041350697,51.4117706672579],[17.5872245261491,51.4117253981269],[17.5872725026464,51.4117089298758],[17.5873313192237,51.4116881512728],[17.5876803579234,51.4115645881098],[17.5881092393848,51.4114160328433],[17.5881447020699,51.4114046515207],[17.5890003750093,51.4111343890618],[17.5892572474119,51.4110533097036],[17.5896184568254,51.410958122822],[17.5898152294415,51.4108947199392],[17.5902456730672,51.4107592553207],[17.5906969842032,51.4106464783278],[17.591117832253,51.4105703503836],[17.5911868750418,51.4105578506895],[17.5913905113097,51.410548359809],[17.5925575789033,51.4105194473417],[17.5933330957911,51.4105038998018],[17.5933439551657,51.4106277180137],[17.5932002239487,51.4106297478742],[17.5929191788006,51.4106337160924],[17.5926382457447,51.4106376813296],[17.5923573111987,51.4106416467873],[17.5922140427786,51.4106427389188],[17.5918367384152,51.4106464247698],[17.5913350743589,51.4106642126658],[17.5909218675367,51.4107199628669],[17.5905069915494,51.4108143838345],[17.5896340433275,51.411063528606],[17.5892450658042,51.4111775850428],[17.5888014902264,51.4113208427312],[17.5887285457188,51.4113444076892],[17.5883247651453,51.41147369045],[17.5882000706895,51.4115135232022],[17.5881966434044,51.4115147733173],[17.5878721117782,51.4116331468918],[17.5877524504463,51.4116756925248],[17.5875195482814,51.4117585079601],[17.5873716599697,51.4118150496803],[17.5873064832956,51.4118318150413],[17.5871923278484,51.4118611790716],[17.5869926111847,51.4118994878372],[17.5869499997776,51.4119133951776],[17.5869339737799,51.4119143526807],[17.5864275878092,51.4119438788851],[17.5858317049981,51.411983124328],[17.5855902821861,51.4120076200351],[17.5851297430385,51.4120637689363],[17.5845500131257,51.4121788456534],[17.583950972614,51.412297565852],[17.5834542792863,51.4123935002075],[17.58311092681,51.4124598159153],[17.5826989025168,51.4125393934294],[17.5825724107802,51.4125638234436],[17.5817208885184,51.4127282781205],[17.5816673200533,51.4127386939819],[17.5813518103552,51.4128003108124],[17.5809259481511,51.4128884094472],[17.5806813261822,51.4129278282369],[17.5800447768321,51.4130520236166],[17.5791619847463,51.4132386835787],[17.5786058807542,51.4133422166558],[17.5775020980877,51.4135545188944],[17.5774495455148,51.4135636780295],[17.5772316618796,51.4136062194057],[17.5763746389685,51.4137611519915],[17.5761424878106,51.4138074151637],[17.5758636756481,51.4138629475067],[17.5744901484381,51.4141264711844],[17.5735513828488,51.4143047274698],[17.5731130277753,51.4143882577767],[17.5716360346231,51.4146753718282],[17.571208345165,51.4147551586084],[17.5709440650494,51.4148080357118],[17.5708216835063,51.4148439032864],[17.5708150256446,51.4147105718842]]]},"properties":{"case_id":"ST-WK-OS/ZGŁOSZENIE/129/2026","source_type":"zgloszenie","received_date":"2026-01-13","decision_date":null,"status":"Brak sprzeciwu","description":"Budowa linii kablowej nN","address":"Cieszyn","city":"Cieszyn","office":"Starosta Powiatu Ostrów Wielkopolski","case_kind":"budowa nowego/nowych obiektów budowlanych","parcel_ids":["301708_2.0003.550/1","301708_2.0003.558/3","301708_2.0003.558/5","301708_2.0003.558/6","301708_2.0003.558/7"],"location_quality":"dokładny","gunb_url":"https://wyszukiwarka.gunb.gov.pl/","parcel_count":5,"parcel_shard":"x070-y205","parcel_id":"301708_2.0003.550/1","location_source":"powiat ostrowski (wfs)"}},{"type":"Feature","id":"ST-WK-OS/ZGŁOSZENIE/129/2026::301708_2.0003.558/3","geometry":{"type":"Polygon","coordinates":[[[17.5914213670716,51.4111240274684],[17.5913350743589,51.4106642126658],[17.5918367384152,51.4106464247698],[17.5922140427786,51.4106427389188],[17.5922253011904,51.4110955012752],[17.5914213670716,51.4111240274684]]]},"properties":{"case_id":"ST-WK-OS/ZGŁOSZENIE/129/2026","source_type":"zgloszenie","received_date":"2026-01-13","decision_date":null,"status":"Brak sprzeciwu","description":"Budowa linii kablowej nN","address":"Cieszyn","city":"Cieszyn","office":"Starosta Powiatu Ostrów Wielkopolski","case_kind":"budowa nowego/nowych obiektów budowlanych","parcel_ids":["301708_2.0003.550/1","301708_2.0003.558/3","301708_2.0003.558/5","301708_2.0003.558/6","301708_2.0003.558/7"],"location_quality":"dokładny","gunb_url":"https://wyszukiwarka.gunb.gov.pl/","parcel_count":5,"parcel_shard":"x070-y205","parcel_id":"301708_2.0003.558/3","location_source":"powiat ostrowski (wfs)"}},{"type":"Feature","id":"ST-WK-OS/ZGŁOSZENIE/129/2026::301708_2.0003.558/5","geometry":{"type":"Polygon","coordinates":[[[17.5923573111987,51.4106416467873],[17.5926382457447,51.4106376813296],[17.5926561978534,51.4110897291658],[17.5923684951837,51.411093636974],[17.5923573111987,51.4106416467873]]]},"properties":{"case_id":"ST-WK-OS/ZGŁOSZENIE/129/2026","source_type":"zgloszenie","received_date":"2026-01-13","decision_date":null,"status":"Brak sprzeciwu","description":"Budowa linii kablowej nN","address":"Cieszyn","city":"Cieszyn","office":"Starosta Powiatu Ostrów Wielkopolski","case_kind":"budowa nowego/nowych obiektów budowlanych","parcel_ids":["301708_2.0003.550/1","301708_2.0003.558/3","301708_2.0003.558/5","301708_2.0003.558/6","301708_2.0003.558/7"],"location_quality":"dokładny","gunb_url":"https://wyszukiwarka.gunb.gov.pl/","parcel_count":5,"parcel_shard":"x070-y205","parcel_id":"301708_2.0003.558/5","location_source":"powiat ostrowski (wfs)"}},{"type":"Feature","id":"ST-WK-OS/ZGŁOSZENIE/129/2026::301708_2.0003.558/6","geometry":{"type":"Polygon","coordinates":[[[17.5926382457447,51.4106376813296],[17.5929191788006,51.4106337160924],[17.5929439003982,51.4110858296399],[17.5928004307366,51.4110877743178],[17.5926561978534,51.4110897291658],[17.5926382457447,51.4106376813296]]]},"properties":{"case_id":"ST-WK-OS/ZGŁOSZENIE/129/2026","source_type":"zgloszenie","received_date":"2026-01-13","decision_date":null,"status":"Brak sprzeciwu","description":"Budowa linii kablowej nN","address":"Cieszyn","city":"Cieszyn","office":"Starosta Powiatu Ostrów Wielkopolski","case_kind":"budowa nowego/nowych obiektów budowlanych","parcel_ids":["301708_2.0003.550/1","301708_2.0003.558/3","301708_2.0003.558/5","301708_2.0003.558/6","301708_2.0003.558/7"],"location_quality":"dokładny","gunb_url":"https://wyszukiwarka.gunb.gov.pl/","parcel_count":5,"parcel_shard":"x070-y205","parcel_id":"301708_2.0003.558/6","location_source":"powiat ostrowski (wfs)"}},{"type":"Feature","id":"ST-WK-OS/ZGŁOSZENIE/129/2026::301708_2.0003.558/7","geometry":{"type":"Polygon","coordinates":[[[17.5929439003982,51.4110858296399],[17.5929191788006,51.4106337160924],[17.5932002239487,51.4106297478742],[17.5932316460986,51.4110819205687],[17.5929439003982,51.4110858296399]]]},"properties":{"case_id":"ST-WK-OS/ZGŁOSZENIE/129/2026","source_type":"zgloszenie","received_date":"2026-01-13","decision_date":null,"status":"Brak sprzeciwu","description":"Budowa linii kablowej nN","address":"Cieszyn","city":"Cieszyn","office":"Starosta Powiatu Ostrów Wielkopolski","case_kind":"budowa nowego/nowych obiektów budowlanych","parcel_ids":["301708_2.0003.550/1","301708_2.0003.558/3","301708_2.0003.558/5","301708_2.0003.558/6","301708_2.0003.558/7"],"location_quality":"dokładny","gunb_url":"https://wyszukiwarka.gunb.gov.pl/","parcel_count":5,"parcel_shard":"x070-y205","parcel_id":"301708_2.0003.558/7","location_source":"powiat ostrowski (wfs)"}},{"type":"Feature","id":"ST-WK-OS/WNIOSEK/4775/2026::301708_2.0003.593/30","geometry":{"type":"Polygon","coordinates":[[[17.5873064832956,51.4118318150413],[17.5873716599697,51.4118150496803],[17.5875195482814,51.4117585079601],[17.5877524504463,51.4116756925248],[17.5880433973731,51.4120878980613],[17.5875836842073,51.4122252850533],[17.5873064832956,51.4118318150413]]]},"properties":{"case_id":"ST-WK-OS/WNIOSEK/4775/2026","source_type":"wniosek_decyzja","received_date":"2026-03-10","decision_date":"2026-05-19","status":"decyzja wydana","description":"Budowa budynku mieszkalnego jednorodzinnego z instalacjami wewnętrznymi  i urządzeniami budowlanymi,","address":"Cieszyn","city":"Cieszyn","office":"Starosta Powiatu Ostrów Wielkopolski","case_kind":"Budynek mieszkalny jednorodzinny","parcel_ids":["301708_2.0003.593/30"],"location_quality":"dokładny","gunb_url":"https://wyszukiwarka.gunb.gov.pl/","parcel_count":1,"parcel_shard":"x070-y205","parcel_id":"301708_2.0003.593/30","location_source":"powiat ostrowski (wfs)"}},{"type":"Feature","id":"ST-WK-OS/ZGŁOSZENIE/585/2026::301708_2.0007.99/2","geometry":{"type":"Polygon","coordinates":[[[17.6947577364127,51.4672135977815],[17.6941676788005,51.4668907071271],[17.6938038175116,51.4670906595866],[17.6937836327978,51.4670746066338],[17.6934147139054,51.4672771514575],[17.6926868659357,51.4666494393549],[17.6927322935367,51.4666295126553],[17.6929849800604,51.4668480655021],[17.6933059198084,51.4671258534108],[17.6934450072165,51.4671377228861],[17.6936962710633,51.4670108269332],[17.6940747523704,51.4668197220714],[17.6941556181107,51.4667788537194],[17.6942648908308,51.4668372968663],[17.6948558586925,51.4671531780593],[17.6947577364127,51.4672135977815]]]},"properties":{"case_id":"ST-WK-OS/ZGŁOSZENIE/585/2026","source_type":"zgloszenie","received_date":"2026-02-26","decision_date":null,"status":"Brak sprzeciwu","description":"Budowa sieci wodociągowej","address":"Kałkowskie","city":"Kałkowskie","office":"Starosta Powiatu Ostrów Wielkopolski","case_kind":"budowa nowego/nowych obiektów budowlanych","parcel_ids":["301708_2.0007.99/2"],"location_quality":"dokładny","gunb_url":"https://wyszukiwarka.gunb.gov.pl/","parcel_count":1,"parcel_shard":"x070-y205","parcel_id":"301708_2.0007.99/2","location_source":"powiat ostrowski (wfs)"}},{"type":"Feature","id":"ST-WK-OS/WNIOSEK/6013/2026::301708_2.0014.129/1","geometry":{"type":"Polygon","coordinates":[[[17.6543804105683,51.4283269905227],[17.6550086080323,51.4294057937296],[17.6555945590158,51.4304119982542],[17.6564708219605,51.4319166433194],[17.6559856450783,51.4321011782627],[17.6555490040374,51.4324469551502],[17.6551934294784,51.4318368767074],[17.6550486414388,51.4315884510919],[17.6545177653291,51.4306775555704],[17.6539805086197,51.4297556726731],[17.6534915301742,51.4289165964631],[17.6537887696294,51.4288489080836],[17.653591853588,51.4285076344558],[17.6538357646288,51.4284494103876],[17.6538357950039,51.4284441498175],[17.6543745728423,51.4283354668905],[17.6543804105683,51.4283269905227]]]},"properties":{"case_id":"ST-WK-OS/WNIOSEK/6013/2026","source_type":"wniosek_decyzja","received_date":"2026-03-25","decision_date":"2026-05-04","status":"decyzja wydana","description":"Rozbiórka budynku - szpoa drewniana","address":"63, Pawłów","city":"Pawłów","office":"Starosta Powiatu Ostrów Wielkopolski","case_kind":"Obiekt budowlany inny niż budynek mieszkalny jednorodzinny","parcel_ids":["301708_2.0014.129/1"],"location_quality":"dokładny","gunb_url":"https://wyszukiwarka.gunb.gov.pl/","parcel_count":1,"parcel_shard":"x070-y205","parcel_id":"301708_2.0014.129/1","location_source":"powiat ostrowski (wfs)"}},{"type":"Feature","id":"ST-WK-OS/WNIOSEK/23405/2025::301708_2.0014.197","geometry":{"type":"Polygon","coordinates":[[[17.6787964414696,51.4201412991684],[17.6789671138629,51.4203482764023],[17.6790225403189,51.4204192554097],[17.678908521455,51.4203878053315],[17.6787953682282,51.4203990192004],[17.6784802543966,51.4204973756548],[17.6781810302026,51.4205910107279],[17.6776340742224,51.420762293974],[17.677452529601,51.4208182273776],[17.6774006573318,51.4208345344633],[17.6767593078856,51.4210366376976],[17.6761072876117,51.4212412796304],[17.675939621504,51.4212939041032],[17.675455149389,51.4214457121206],[17.6749859839192,51.4215949618623],[17.6746010093578,51.4217269757399],[17.6745419152236,51.4217453222085],[17.6744826830919,51.4217658158924],[17.6743105107951,51.4218168444947],[17.6736360434957,51.4220220746479],[17.6731974492215,51.4221545188032],[17.6728921410081,51.4222454446946],[17.672790425892,51.4222748244391],[17.6727355458649,51.4222890535996],[17.6726943453846,51.4223003545685],[17.6717838249133,51.422499791017],[17.6710608074736,51.422655520931],[17.6708599288126,51.4226987333906],[17.670680217485,51.4227374205961],[17.6702994830134,51.4228192287297],[17.6696376575976,51.4229615486048],[17.6695973371973,51.4229702441627],[17.6695802884871,51.4229737995644],[17.668711028368,51.4231569694515],[17.6684772991383,51.423203814637],[17.6679498553361,51.4233095255217],[17.6676395859861,51.423337572507],[17.6675483950037,51.4233424376396],[17.6674585810891,51.4233556663544],[17.667290689204,51.4233895278469],[17.6670139071082,51.4234499568744],[17.666398537754,51.4236092640996],[17.6658519684782,51.4237507566684],[17.6655001945806,51.4238633207357],[17.6652303275372,51.423935245526],[17.6652116988224,51.4239490909517],[17.6646485592925,51.424095343704],[17.6643458138137,51.4241816494188],[17.6641052494565,51.4242430905877],[17.6635649171634,51.4243836244625],[17.6633428756702,51.4244430682157],[17.6632968569085,51.4244563142385],[17.6631548559606,51.4244971875781],[17.6627073667113,51.4246174899409],[17.6626649721696,51.4246063888464],[17.6626389036394,51.4246140022319],[17.6624552796258,51.4246679702691],[17.6622753584663,51.4247202884319],[17.6622296266599,51.4247335316174],[17.6621827030482,51.4247472355322],[17.6617390119114,51.4248639110813],[17.6614401203995,51.4249300633306],[17.6612549354628,51.424970357074],[17.6610693023954,51.4250035315531],[17.6609454104383,51.4250256720937],[17.6606800730931,51.4250520748438],[17.6606106055274,51.4250615235341],[17.6603086339202,51.4251025959366],[17.6600388453208,51.4251580281876],[17.6594450803042,51.4256565796013],[17.6593915084225,51.4257064925381],[17.659198775909,51.4259077348289],[17.6590454948251,51.4260822145204],[17.6589576014813,51.426184073578],[17.658864348772,51.4263104568667],[17.6587762422088,51.4264601364958],[17.6585885631686,51.4265420189276],[17.6582821983066,51.4267089503833],[17.6580874152639,51.4268369247272],[17.6577324597579,51.4271058823771],[17.6575668390066,51.4272342852506],[17.6573849710064,51.4273752832306],[17.6573759133792,51.4273828344158],[17.6570645019308,51.4276424509638],[17.6570097242086,51.4276881175035],[17.6567673401214,51.427878879911],[17.6566714579045,51.4278426972385],[17.6566913672571,51.4278147099579],[17.6567876221976,51.4277306854727],[17.656837409103,51.4276872245053],[17.6570829013452,51.42747944228],[17.6572424488418,51.4273444015636],[17.6573019491572,51.4273117927405],[17.6574989241164,51.4271393037375],[17.6578542514534,51.4268669867236],[17.6580843975198,51.4267018116818],[17.6583464066976,51.4265441898993],[17.658404036543,51.4265095705222],[17.6585619055744,51.4264145675548],[17.6586348950769,51.4263447560285],[17.6588711239588,51.4260957300332],[17.6589048357255,51.4260869290458],[17.6590520831459,51.425911446798],[17.6591682502204,51.4257936659059],[17.6592156776419,51.4257541084843],[17.6593200272995,51.4256510925305],[17.6593730507945,51.4255975824432],[17.6594508432439,51.4255002780993],[17.6596020756295,51.4253107803294],[17.6597396546766,51.4252164536707],[17.659892934003,51.42511523677],[17.6599017092408,51.4250628082497],[17.6600527072692,51.4250550080496],[17.6603588373778,51.4250069327303],[17.6606677561903,51.4249584185524],[17.6609073112955,51.424914448352],[17.6612977931105,51.4248500061166],[17.6613122250174,51.4248471269995],[17.6613179341784,51.4248553768819],[17.6615708148089,51.4247997109752],[17.6618774419662,51.4247162663948],[17.6621860748855,51.4246317934109],[17.6622302099585,51.424623534666],[17.6627624383317,51.4244747713469],[17.6628884048531,51.4244443014348],[17.6629435121638,51.4244401688474],[17.6629927108956,51.4244251852059],[17.6630520787334,51.4244068845292],[17.6632597207697,51.4243311297673],[17.6634056603661,51.4243010269712],[17.6638018277673,51.4241926131761],[17.6640833432786,51.4241205873425],[17.6645338725054,51.4239984495327],[17.664763926098,51.4239430228079],[17.6649873484888,51.4238833005898],[17.6651706854501,51.4238344037856],[17.6652490600548,51.4238132588131],[17.6654245527149,51.4237678659636],[17.6655515786177,51.4237388344945],[17.6657295582589,51.4236824419314],[17.6657920406477,51.4236712040864],[17.6660937163908,51.4235887359751],[17.6661896666828,51.4235622220968],[17.6662555060671,51.4235440720536],[17.6664317396449,51.4234954203674],[17.6667522010481,51.4234082835627],[17.666890933204,51.423378538087],[17.6675244965333,51.4232278503186],[17.6677515367425,51.4232442742338],[17.6677905186495,51.4232448761851],[17.6678651132438,51.4232329362711],[17.6681301313862,51.4231738789026],[17.6681266909296,51.4231664472713],[17.6683442388058,51.4231199675852],[17.6684941629154,51.4230852447657],[17.6685612712732,51.4230703330472],[17.6686695661441,51.4230462790648],[17.6688874456206,51.4229987137814],[17.6691581742733,51.4229396115927],[17.6696955353844,51.4228264570632],[17.6698395593024,51.4227966303958],[17.6699007571742,51.422783768728],[17.6703841456555,51.4226823849439],[17.6708144276916,51.4225921374138],[17.6717096036175,51.4224005963494],[17.6719992975181,51.4223394883398],[17.6725571510674,51.4222144097147],[17.6726880120193,51.4221806037292],[17.6728867712356,51.4221257614907],[17.6729997572225,51.4220942807025],[17.6737378133131,51.4218637025175],[17.6742831220413,51.4216853495656],[17.6744996309038,51.4216068049984],[17.6745542468076,51.4215881318094],[17.674638621163,51.4215712779195],[17.6748327794338,51.421506521489],[17.6754990195708,51.4213029238762],[17.6768214611535,51.420887699921],[17.6775266849128,51.420666262571],[17.6780389877997,51.4205088209909],[17.6780721243039,51.4204989342336],[17.6785026674152,51.4203622249313],[17.6786751725462,51.4203073887439],[17.678753133686,51.4202609136729],[17.6788064206878,51.4201923389602],[17.6787964414696,51.4201412991684]]]},"properties":{"case_id":"ST-WK-OS/WNIOSEK/23405/2025","source_type":"wniosek_decyzja","received_date":"2025-11-14","decision_date":"2025-12-05","status":"decyzja wydana","description":"Przebudowa drogi nr 5341P w miejscowości Pawłów w ramach zadania: „Przebudowa drogi nr 5341P w miejscowości Pawłów, w zakresie budowy drogi dla rowerów wraz z odwodnieniem i rozbudową (wydłużeniem) przepustu”","address":"Pawłów","city":"Pawłów","office":"Starosta Powiatu Ostrów Wielkopolski","case_kind":"Obiekt budowlany inny niż budynek mieszkalny jednorodzinny","parcel_ids":["301708_2.0014.197"],"location_quality":"dokładny","gunb_url":"https://wyszukiwarka.gunb.gov.pl/","parcel_count":1,"parcel_shard":"x070-y205","parcel_id":"301708_2.0014.197","location_source":"powiat ostrowski (wfs)"}},{"type":"Feature","id":"ST-WK-OS/WNIOSEK/6941/2026::301708_2.0015.198/5","geometry":{"type":"Polygon","coordinates":[[[17.6239054467109,51.4772755454199],[17.6245065227351,51.4772356391564],[17.6245437591432,51.477413904492],[17.623941410661,51.4774537179133],[17.6239125112143,51.4773105516212],[17.6239054467109,51.4772755454199]]]},"properties":{"case_id":"ST-WK-OS/WNIOSEK/6941/2026","source_type":"wniosek_decyzja","received_date":"2026-04-08","decision_date":"2026-06-02","status":"decyzja wydana","description":"Budowa wewnętrznej instalacji gazowej do budynku mieszkalnego jednorodzinnego","address":"Jerzego Lanca 31, Sośnie","city":"Sośnie","office":"Starosta Powiatu Ostrów Wielkopolski","case_kind":"Budynek mieszkalny jednorodzinny","parcel_ids":["301708_2.0015.198/5"],"location_quality":"dokładny","gunb_url":"https://wyszukiwarka.gunb.gov.pl/","parcel_count":1,"parcel_shard":"x070-y205","parcel_id":"301708_2.0015.198/5","location_source":"powiat ostrowski (wfs)"}},{"type":"Feature","id":"ST-WK-OS/WNIOSEK/2142/2026::301708_2.0015.58/7","geometry":{"type":"Polygon","coordinates":[[[17.6133534490337,51.4781994309847],[17.6134556382691,51.4784057035988],[17.6136319967688,51.4787614362578],[17.6132790489644,51.4788095321279],[17.6130054597662,51.4782574301715],[17.6133534490337,51.4781994309847]]]},"properties":{"case_id":"ST-WK-OS/WNIOSEK/2142/2026","source_type":"wniosek_decyzja","received_date":"2026-02-02","decision_date":"2026-03-16","status":"decyzja wydana","description":"Budowa budynku mieszkalnego jednorodzinnego","address":"Sośnie","city":"Sośnie","office":"Starosta Powiatu Ostrów Wielkopolski","case_kind":"Budynek mieszkalny jednorodzinny","parcel_ids":["301708_2.0015.58/7"],"location_quality":"dokładny","gunb_url":"https://wyszukiwarka.gunb.gov.pl/","parcel_count":1,"parcel_shard":"x070-y205","parcel_id":"301708_2.0015.58/7","location_source":"powiat ostrowski (wfs)"}},{"type":"Feature","id":"ST-WK-OT/WNIOSEK/1726/2026::301804_2.0008.1","geometry":{"type":"Polygon","coordinates":[[[17.7373513454604,51.3504647187276],[17.7392012953282,51.34977451081],[17.7410511886722,51.3490842736534],[17.7426849674545,51.3484746318745],[17.7416914255781,51.3470571296988],[17.7404050585033,51.3474397462232],[17.7388563799535,51.3479402732716],[17.7373599932565,51.3484238697634],[17.7373166201383,51.3484568194717],[17.7371495840597,51.3488536484529],[17.7370407633322,51.3489792962214],[17.7367940101719,51.3490488611146],[17.7357279337415,51.3492614882582],[17.7358801564355,51.3492970101223],[17.7360345875712,51.3494264378612],[17.7361696403681,51.3496357985633],[17.7364953781658,51.3499045690689],[17.7373513454604,51.3504647187276]]]},"properties":{"case_id":"ST-WK-OT/WNIOSEK/1726/2026","source_type":"wniosek_decyzja","received_date":"2026-01-28","decision_date":"2026-03-12","status":"decyzja wydana","description":"Budynek gospodarczy","address":"175, Mąkoszyce","city":"Mąkoszyce","office":"Starosta Powiatu Ostrzeszów","case_kind":"Obiekt budowlany inny niż budynek mieszkalny jednorodzinny","parcel_ids":["301804_2.0008.1"],"location_quality":"dokładny","gunb_url":"https://wyszukiwarka.gunb.gov.pl/","parcel_count":1,"parcel_shard":"x070-y205","parcel_id":"301804_2.0008.1","location_source":"powiat ostrzeszowski (wfs)"}},{"type":"Feature","id":"ST-WK-OT/WNIOSEK/9529/2026::301804_2.0012.341/18","geometry":{"type":"Polygon","coordinates":[[[17.7494561576002,51.3375997847029],[17.7497231028526,51.337464979593],[17.7492835616009,51.3371176899463],[17.7490164735762,51.3372524937562],[17.7494561576002,51.3375997847029]]]},"properties":{"case_id":"ST-WK-OT/WNIOSEK/9529/2026","source_type":"wniosek_decyzja","received_date":"2026-05-15","decision_date":"2026-07-14","status":"decyzja wydana","description":"Budowa 2 budynków mieszkalnych jednorodzinnych w zabudowie bliźniaczej wraz z urządzeniami budowlanymi","address":"Pisarzowice","city":"Pisarzowice","office":"Starosta Powiatu Ostrzeszów","case_kind":"Budynek mieszkalny jednorodzinny","parcel_ids":["301804_2.0012.341/18","301804_2.0012.341/19"],"location_quality":"dokładny","gunb_url":"https://wyszukiwarka.gunb.gov.pl/","parcel_count":2,"parcel_shard":"x070-y205","parcel_id":"301804_2.0012.341/18","location_source":"powiat ostrzeszowski (wfs)"}},{"type":"Feature","id":"ST-WK-OT/WNIOSEK/9529/2026::301804_2.0012.341/19","geometry":{"type":"Polygon","coordinates":[[[17.7497231028526,51.337464979593],[17.7499900465397,51.3373301738696],[17.7495500725643,51.3369831539647],[17.7492835616009,51.3371176899463],[17.7497231028526,51.337464979593]]]},"properties":{"case_id":"ST-WK-OT/WNIOSEK/9529/2026","source_type":"wniosek_decyzja","received_date":"2026-05-15","decision_date":"2026-07-14","status":"decyzja wydana","description":"Budowa 2 budynków mieszkalnych jednorodzinnych w zabudowie bliźniaczej wraz z urządzeniami budowlanymi","address":"Pisarzowice","city":"Pisarzowice","office":"Starosta Powiatu Ostrzeszów","case_kind":"Budynek mieszkalny jednorodzinny","parcel_ids":["301804_2.0012.341/18","301804_2.0012.341/19"],"location_quality":"dokładny","gunb_url":"https://wyszukiwarka.gunb.gov.pl/","parcel_count":2,"parcel_shard":"x070-y205","parcel_id":"301804_2.0012.341/19","location_source":"powiat ostrzeszowski (wfs)"}},{"type":"Feature","id":"ST-WK-OT/WNIOSEK/10524/2026::301804_2.0014.245/2","geometry":{"type":"Polygon","coordinates":[[[17.7499170734311,51.3984010562495],[17.7499459321753,51.3980893793366],[17.7499677702941,51.3978529253506],[17.7493876882162,51.3979002269943],[17.7493473665506,51.3983366465758],[17.7496697294767,51.3983812917545],[17.7499170734311,51.3984010562495]]]},"properties":{"case_id":"ST-WK-OT/WNIOSEK/10524/2026","source_type":"wniosek_decyzja","received_date":"2026-05-29","decision_date":"2026-07-28","status":"decyzja wydana","description":"Budynek mieszkalny jednorodzinny","address":"Zmyślona Ligocka","city":"Zmyślona Ligocka","office":"Starosta Powiatu Ostrzeszów","case_kind":"Budynek mieszkalny jednorodzinny","parcel_ids":["301804_2.0014.245/2"],"location_quality":"dokładny","gunb_url":"https://wyszukiwarka.gunb.gov.pl/","parcel_count":1,"parcel_shard":"x070-y205","parcel_id":"301804_2.0014.245/2","location_source":"powiat ostrzeszowski (wfs)"}},{"type":"Feature","id":"ST-WK-OT/WNIOSEK/10526/2026::301804_2.0014.245/2","geometry":{"type":"Polygon","coordinates":[[[17.7499170734311,51.3984010562495],[17.7499459321753,51.3980893793366],[17.7499677702941,51.3978529253506],[17.7493876882162,51.3979002269943],[17.7493473665506,51.3983366465758],[17.7496697294767,51.3983812917545],[17.7499170734311,51.3984010562495]]]},"properties":{"case_id":"ST-WK-OT/WNIOSEK/10526/2026","source_type":"wniosek_decyzja","received_date":"2026-05-29","decision_date":"2026-07-28","status":"decyzja wydana","description":"Budynek gospodarczo - garażowy","address":"Zmyślona Ligocka","city":"Zmyślona Ligocka","office":"Starosta Powiatu Ostrzeszów","case_kind":"Obiekt budowlany inny niż budynek mieszkalny jednorodzinny","parcel_ids":["301804_2.0014.245/2"],"location_quality":"dokładny","gunb_url":"https://wyszukiwarka.gunb.gov.pl/","parcel_count":1,"parcel_shard":"x070-y205","parcel_id":"301804_2.0014.245/2","location_source":"powiat ostrzeszowski (wfs)"}},{"type":"Feature","id":"ST-WK-OT/WNIOSEK/26327/2025::301807_5.0005.121","geometry":{"type":"Polygon","coordinates":[[[17.7477539926008,51.475078032556],[17.7485017988956,51.4754887006266],[17.7487561075781,51.4752969727562],[17.7491792277129,51.4750056322042],[17.7493580654925,51.4748482014625],[17.7490745757047,51.4746798627838],[17.7486235086982,51.4744208797237],[17.7482197872674,51.4747233059708],[17.7477539926008,51.475078032556]]]},"properties":{"case_id":"ST-WK-OT/WNIOSEK/26327/2025","source_type":"wniosek_decyzja","received_date":"2025-12-23","decision_date":"2026-04-02","status":"decyzja wydana","description":"Budowa sali wiejskiej","address":"Kotowskie","city":"Kotowskie","office":"Starosta Powiatu Ostrzeszów","case_kind":"Obiekt budowlany inny niż budynek mieszkalny jednorodzinny","parcel_ids":["301807_5.0005.121"],"location_quality":"dokładny","gunb_url":"https://wyszukiwarka.gunb.gov.pl/","parcel_count":1,"parcel_shard":"x070-y205","parcel_id":"301807_5.0005.121","location_source":"powiat ostrzeszowski (wfs)"}}]}