{"type":"FeatureCollection","features":[{"type":"Feature","id":"ST-WK-KE/WNIOSEK/1902/2026::300801_2.0003.199","geometry":{"type":"Polygon","coordinates":[[[17.9638993074632,51.2441969523757],[17.9638984961131,51.243799628661],[17.9640203266161,51.2438462746325],[17.9640109755817,51.2445263180827],[17.9638999811487,51.2445268568874],[17.963899463494,51.2442733607793],[17.9638993074632,51.2441969523757]]]},"properties":{"case_id":"ST-WK-KE/WNIOSEK/1902/2026","source_type":"wniosek_decyzja","received_date":"2025-10-03","decision_date":"2025-12-05","status":"decyzja wydana","description":"rozbudowa sieci wodociągowej oraz kanalizacji sanitarnej wraz z odcinkami do granic działek","address":"Grębanin","city":"Grębanin","office":"Starosta Powiatu Kępno","case_kind":"Obiekt budowlany inny niż budynek mieszkalny jednorodzinny","parcel_ids":["300801_2.0003.199","300801_2.0003.231"],"location_quality":"dokładny","gunb_url":"https://wyszukiwarka.gunb.gov.pl/","parcel_count":2,"parcel_shard":"x071-y204","parcel_id":"300801_2.0003.199","location_source":"powiat kępiński (wfs)"}},{"type":"Feature","id":"ST-WK-KE/WNIOSEK/1902/2026::300801_2.0003.231","geometry":{"type":"Polygon","coordinates":[[[17.9461106619028,51.2411913106401],[17.9442589471094,51.241203477894],[17.9422352246039,51.2412251495694],[17.9405146828821,51.2412409179401],[17.9396795539393,51.2410502969233],[17.9388854806288,51.2408449123973],[17.9382428504788,51.2406748791658],[17.9382589416339,51.2405930268849],[17.9383540510076,51.2406177457093],[17.9390815731906,51.2408145591203],[17.9393810768493,51.2408926961249],[17.9405114757026,51.2411404347683],[17.9421523174312,51.2411362591411],[17.9425410408537,51.2411354612614],[17.9432400109605,51.2411351310403],[17.9455060697796,51.2411342368284],[17.9471898496202,51.2411135063546],[17.9478072031184,51.241107661585],[17.9488358288782,51.241098299474],[17.9490560396173,51.2411003012341],[17.9492948094448,51.2411030836938],[17.9496557645117,51.2411067722565],[17.9499615199021,51.2411035773453],[17.9507380049107,51.2410997716535],[17.9520771642084,51.2410910686643],[17.9531321939548,51.2410842145673],[17.9550701140587,51.2410714906073],[17.9569064970827,51.2410595062583],[17.957233015991,51.2410573787026],[17.9581217807078,51.2413959546537],[17.9595891528053,51.2419701724445],[17.9625960691977,51.243160535697],[17.9626501560042,51.2431824727933],[17.9634099708587,51.2434897471109],[17.963996438481,51.2437030247213],[17.9648386192564,51.2439966888232],[17.9651182628634,51.2440783046989],[17.9655378313308,51.2441611297811],[17.9656671424961,51.244181842981],[17.9657254314966,51.2441832983373],[17.966207093744,51.2441598866234],[17.9663143779371,51.2441416694319],[17.966911805526,51.2440550039763],[17.9674310451699,51.2439521331492],[17.9681428402054,51.243743689257],[17.9688322484634,51.2435922267212],[17.969108831414,51.2435461853421],[17.969416065174,51.2434956567117],[17.9697217210493,51.2434479135244],[17.9700547334889,51.2433957718225],[17.9700330581609,51.2434721746406],[17.9698134845659,51.2435064570418],[17.9695934809941,51.2435407389193],[17.9691988680582,51.2436162350852],[17.9690007734415,51.2436539375141],[17.9687869270897,51.2436879498288],[17.9685653447825,51.2437247463334],[17.9683580865898,51.2437575910348],[17.9681400760981,51.2438058938996],[17.9679170470225,51.2438621054952],[17.9676776801524,51.2439331443662],[17.9674351604094,51.2440060696057],[17.9669418431885,51.2441083185284],[17.9665797458093,51.2441643983251],[17.9664531405489,51.2441740578909],[17.9663143892672,51.2441997229039],[17.9662150334786,51.2442295413428],[17.966153105829,51.2443130021156],[17.9661236224076,51.2443884321477],[17.9661282826706,51.2448336498685],[17.9661377365111,51.2449566620499],[17.9661554762401,51.2450308791359],[17.9662253079133,51.2452225148628],[17.9662523292243,51.2452632056843],[17.9662833217338,51.2452865272316],[17.9661576849901,51.2453284706187],[17.9661330933843,51.2452703931674],[17.9660990719846,51.2451813001821],[17.9660443831248,51.2449570033682],[17.9660343948194,51.2447595151964],[17.9660310904414,51.2445316297416],[17.9658892537093,51.2444042112793],[17.9658003539106,51.2443508792776],[17.9656316964959,51.2442770284009],[17.9651277993659,51.2441565137407],[17.9640203266161,51.2438462746325],[17.9638984961131,51.243799628661],[17.9626089604309,51.2433349306803],[17.9607907247246,51.2426167263186],[17.9587848573236,51.2418287612347],[17.9578516217383,51.2413855749],[17.957189707704,51.2411242907585],[17.9569671851284,51.2410944966632],[17.95507136301,51.2411124819451],[17.9549364582743,51.2411140481484],[17.9540628736825,51.2411216190991],[17.9534078281717,51.2411273829829],[17.953132863688,51.241129790198],[17.9527377453333,51.241133316915],[17.9523052489963,51.2411370967514],[17.9518628710487,51.2411409608188],[17.9514293721047,51.2411447370067],[17.9510037496077,51.2411485148864],[17.9504784524254,51.2411530581229],[17.9500287703986,51.241157002061],[17.9496693111219,51.2411601740692],[17.9492943775673,51.2411702599736],[17.9489191657936,51.241172793608],[17.9480914086001,51.2411781825697],[17.9461965882438,51.2411908108131],[17.9462264719293,51.2417225370881],[17.9462507429228,51.2421554691812],[17.9463036357181,51.2430988223326],[17.946368876499,51.2442634955336],[17.9463706286868,51.2444809455328],[17.9464479533112,51.2462196752899],[17.9464494888055,51.2462541046883],[17.9463417792389,51.2462576510525],[17.9463382904542,51.2461787241395],[17.9462736670477,51.2447283742475],[17.9462231004783,51.2433857212739],[17.9461106619028,51.2411913106401]]]},"properties":{"case_id":"ST-WK-KE/WNIOSEK/1902/2026","source_type":"wniosek_decyzja","received_date":"2025-10-03","decision_date":"2025-12-05","status":"decyzja wydana","description":"rozbudowa sieci wodociągowej oraz kanalizacji sanitarnej wraz z odcinkami do granic działek","address":"Grębanin","city":"Grębanin","office":"Starosta Powiatu Kępno","case_kind":"Obiekt budowlany inny niż budynek mieszkalny jednorodzinny","parcel_ids":["300801_2.0003.199","300801_2.0003.231"],"location_quality":"dokładny","gunb_url":"https://wyszukiwarka.gunb.gov.pl/","parcel_count":2,"parcel_shard":"x071-y204","parcel_id":"300801_2.0003.231","location_source":"powiat kępiński (wfs)"}},{"type":"Feature","id":"ST-WK-KE/WNIOSEK/4878/2026::300801_2.0003.323/2","geometry":{"type":"Polygon","coordinates":[[[17.9788341800164,51.2373210060689],[17.9747730561694,51.2372690195562],[17.9748089085407,51.2369097277893],[17.9766787762575,51.23688890069],[17.977294094547,51.2368805717913],[17.9787965168553,51.2368636841613],[17.9788341800164,51.2373210060689]]]},"properties":{"case_id":"ST-WK-KE/WNIOSEK/4878/2026","source_type":"wniosek_decyzja","received_date":"2026-03-06","decision_date":"2026-03-19","status":"decyzja wydana","description":"Budowa budynku mieszkalnego jednorodzinnego z wbudowanym garażem","address":"Grębanin","city":"Grębanin","office":"Starosta Powiatu Kępno","case_kind":"Budynek mieszkalny jednorodzinny","parcel_ids":["300801_2.0003.323/2"],"location_quality":"dokładny","gunb_url":"https://wyszukiwarka.gunb.gov.pl/","parcel_count":1,"parcel_shard":"x071-y204","parcel_id":"300801_2.0003.323/2","location_source":"powiat kępiński (wfs)"}},{"type":"Feature","id":"ST-WK-KE/WNIOSEK/5621/2026::300801_2.0003.484/3","geometry":{"type":"Polygon","coordinates":[[[17.9772793922533,51.2428029758976],[17.9773363486574,51.2434441879851],[17.977380399481,51.2439750638149],[17.9773485606732,51.2439797124014],[17.9773384816444,51.2438832757863],[17.9773105013751,51.243699440843],[17.9772424123961,51.2437021736701],[17.9771894399959,51.2437032156286],[17.9771669672907,51.2436634562919],[17.9771645251667,51.2436228435669],[17.9771443412156,51.2436233390059],[17.9770638874442,51.2425552798399],[17.9771255298991,51.2425518931853],[17.9771103699492,51.2424921815886],[17.9772515203443,51.242488365745],[17.9772793922533,51.2428029758976]]]},"properties":{"case_id":"ST-WK-KE/WNIOSEK/5621/2026","source_type":"wniosek_decyzja","received_date":"2026-03-17","decision_date":"2026-04-28","status":"decyzja wydana","description":"rozbiórka budynku gospodarczego","address":"Grębanin","city":"Grębanin","office":"Starosta Powiatu Kępno","case_kind":"Obiekt budowlany inny niż budynek mieszkalny jednorodzinny","parcel_ids":["300801_2.0003.484/3","300801_2.0003.485/1","300801_2.0003.485/2"],"location_quality":"dokładny","gunb_url":"https://wyszukiwarka.gunb.gov.pl/","parcel_count":3,"parcel_shard":"x071-y204","parcel_id":"300801_2.0003.484/3","location_source":"powiat kępiński (wfs)"}},{"type":"Feature","id":"ST-WK-KE/WNIOSEK/5621/2026::300801_2.0003.485/1","geometry":{"type":"Polygon","coordinates":[[[17.9771103699492,51.2424921815886],[17.9771255298991,51.2425518931853],[17.9770638874442,51.2425552798399],[17.977062617342,51.2424969045986],[17.9771103699492,51.2424921815886]]]},"properties":{"case_id":"ST-WK-KE/WNIOSEK/5621/2026","source_type":"wniosek_decyzja","received_date":"2026-03-17","decision_date":"2026-04-28","status":"decyzja wydana","description":"rozbiórka budynku gospodarczego","address":"Grębanin","city":"Grębanin","office":"Starosta Powiatu Kępno","case_kind":"Obiekt budowlany inny niż budynek mieszkalny jednorodzinny","parcel_ids":["300801_2.0003.484/3","300801_2.0003.485/1","300801_2.0003.485/2"],"location_quality":"dokładny","gunb_url":"https://wyszukiwarka.gunb.gov.pl/","parcel_count":3,"parcel_shard":"x071-y204","parcel_id":"300801_2.0003.485/1","location_source":"powiat kępiński (wfs)"}},{"type":"Feature","id":"ST-WK-KE/WNIOSEK/5621/2026::300801_2.0003.485/2","geometry":{"type":"Polygon","coordinates":[[[17.9771669672907,51.2436634562919],[17.9771443412156,51.2436233390059],[17.9771645251667,51.2436228435669],[17.9771669672907,51.2436634562919]]]},"properties":{"case_id":"ST-WK-KE/WNIOSEK/5621/2026","source_type":"wniosek_decyzja","received_date":"2026-03-17","decision_date":"2026-04-28","status":"decyzja wydana","description":"rozbiórka budynku gospodarczego","address":"Grębanin","city":"Grębanin","office":"Starosta Powiatu Kępno","case_kind":"Obiekt budowlany inny niż budynek mieszkalny jednorodzinny","parcel_ids":["300801_2.0003.484/3","300801_2.0003.485/1","300801_2.0003.485/2"],"location_quality":"dokładny","gunb_url":"https://wyszukiwarka.gunb.gov.pl/","parcel_count":3,"parcel_shard":"x071-y204","parcel_id":"300801_2.0003.485/2","location_source":"powiat kępiński (wfs)"}},{"type":"Feature","id":"ST-WK-KE/WNIOSEK/1900/2026::300801_2.0003.672","geometry":{"type":"Polygon","coordinates":[[[17.9787261314556,51.2478949736064],[17.9787363016572,51.2454083789932],[17.9787350241772,51.24538338874],[17.9787760168681,51.2453159770571],[17.978778086517,51.2451757456553],[17.9787790418197,51.244967196],[17.9787809627389,51.2445276236249],[17.978783666214,51.2439435047269],[17.9788866370376,51.243950085474],[17.978883111976,51.2444546496493],[17.978880958698,51.244778261089],[17.9788788059655,51.2451006140203],[17.9788419760011,51.2485821299556],[17.9788372260992,51.2486327383566],[17.9788368439919,51.2500893498953],[17.9788362660147,51.2522846041054],[17.9788923553223,51.2524208006953],[17.9788909002401,51.2524702410624],[17.9788943072459,51.2525376607162],[17.9787453806035,51.2527442955961],[17.9787522920155,51.2526669896881],[17.9787826838041,51.2504365033326],[17.9787835727276,51.2503724104371],[17.9787261314556,51.2478949736064]]]},"properties":{"case_id":"ST-WK-KE/WNIOSEK/1900/2026","source_type":"wniosek_decyzja","received_date":"2025-10-03","decision_date":"2025-12-05","status":"decyzja wydana","description":"rozbudowa sieci wodociągowej oraz kanalizacji sanitarnej wraz z odcinkami do granic działek przebiegającymi w pasie drogowym","address":"Grębanin","city":"Grębanin","office":"Starosta Powiatu Kępno","case_kind":"Obiekt budowlany inny niż budynek mieszkalny jednorodzinny","parcel_ids":["300801_2.0003.672","300801_2.0003.704/1"],"location_quality":"dokładny","gunb_url":"https://wyszukiwarka.gunb.gov.pl/","parcel_count":2,"parcel_shard":"x071-y204","parcel_id":"300801_2.0003.672","location_source":"powiat kępiński (wfs)"}},{"type":"Feature","id":"ST-WK-KE/WNIOSEK/1900/2026::300801_2.0003.704/1","geometry":{"type":"Polygon","coordinates":[[[17.9787675350458,51.2438295185106],[17.9789535748823,51.2438296419993],[17.9788866370376,51.243950085474],[17.978783666214,51.2439435047269],[17.9784572615801,51.2439660080511],[17.9782787573843,51.2439777021201],[17.9780993479706,51.2439898529571],[17.9776256961302,51.2440496315776],[17.9773665961784,51.2440858083171],[17.9771070666551,51.244120995585],[17.976811728787,51.2441626474266],[17.976516100011,51.2442120291919],[17.9761709121935,51.2442702994583],[17.9761137630107,51.2442794568132],[17.9752357663744,51.244396943226],[17.9748517732617,51.2444364139198],[17.9742542374626,51.2444782636714],[17.9741564151318,51.2444839952151],[17.9736264982995,51.2444901694768],[17.973130956233,51.2444926636556],[17.9731023122168,51.2444927469695],[17.9729734141688,51.2444930768494],[17.9723392329795,51.2444993110571],[17.9721799598293,51.2445203080825],[17.9716462786407,51.2445914645288],[17.9710243453014,51.2447052056204],[17.9703161293155,51.2449131285543],[17.9702513048899,51.2448282538881],[17.9704741996537,51.2447609810831],[17.9706817718092,51.2446895689763],[17.9709173376353,51.2446069368069],[17.9709236937981,51.2446048576068],[17.9709782296522,51.2445870180596],[17.9710377022425,51.2445675646427],[17.9713275389728,51.2445081437062],[17.9716454289001,51.2444725093492],[17.9717420357337,51.2444600114036],[17.9721713648545,51.244404519467],[17.972340782897,51.2443825818006],[17.9725710512739,51.2443504142659],[17.9728723935152,51.24433574217],[17.9729553198804,51.2443317162101],[17.9730564204299,51.244352774294],[17.9731613985647,51.2443556749595],[17.9737226665091,51.2443713536446],[17.9738972517736,51.2443700443224],[17.97404333631,51.2443688183157],[17.9742775012406,51.2443668024848],[17.9746479833111,51.2443372601492],[17.9748408081234,51.2443213495749],[17.9754038408828,51.2442507240859],[17.9755148427262,51.2442374433139],[17.9755790089451,51.2442297259903],[17.9756428887046,51.244222008572],[17.9758616092523,51.2441910818774],[17.9760548132411,51.2441705853385],[17.9762367139762,51.2441457222716],[17.9764123124801,51.2441216666819],[17.976794614138,51.2440604432935],[17.9769886703439,51.2440297318049],[17.9771704978376,51.2440048110535],[17.9773485606732,51.2439797124014],[17.977380399481,51.2439750638149],[17.977661127172,51.243933857211],[17.9779544580577,51.2438915736017],[17.9782285876259,51.2438696013216],[17.9784739284307,51.2438513086886],[17.9787675350458,51.2438295185106]]]},"properties":{"case_id":"ST-WK-KE/WNIOSEK/1900/2026","source_type":"wniosek_decyzja","received_date":"2025-10-03","decision_date":"2025-12-05","status":"decyzja wydana","description":"rozbudowa sieci wodociągowej oraz kanalizacji sanitarnej wraz z odcinkami do granic działek przebiegającymi w pasie drogowym","address":"Grębanin","city":"Grębanin","office":"Starosta Powiatu Kępno","case_kind":"Obiekt budowlany inny niż budynek mieszkalny jednorodzinny","parcel_ids":["300801_2.0003.672","300801_2.0003.704/1"],"location_quality":"dokładny","gunb_url":"https://wyszukiwarka.gunb.gov.pl/","parcel_count":2,"parcel_shard":"x071-y204","parcel_id":"300801_2.0003.704/1","location_source":"powiat kępiński (wfs)"}},{"type":"Feature","id":"ST-WK-KE/WNIOSEK/22701/2025::300801_2.0005.247","geometry":{"type":"Polygon","coordinates":[[[17.9539619808239,51.2271340614653],[17.953590114598,51.2271979180282],[17.9518377849871,51.2258030679226],[17.9490585019105,51.2235433424857],[17.9493150273325,51.2234203011218],[17.9502408743298,51.2241545807907],[17.9521407192506,51.225661341866],[17.9539619808239,51.2271340614653]]]},"properties":{"case_id":"ST-WK-KE/WNIOSEK/22701/2025","source_type":"wniosek_decyzja","received_date":"2025-10-29","decision_date":"2026-01-23","status":"decyzja wydana","description":"budowa budynku mieszkalnego jednorodzinnego dwulokalowego w zabudowie bliźniaczej budynek A","address":"Łęka Mroczeńska","city":"Łęka Mroczeńska","office":"Starosta Powiatu Kępno","case_kind":"Budynek mieszkalny jednorodzinny","parcel_ids":["300801_2.0005.247"],"location_quality":"dokładny","gunb_url":"https://wyszukiwarka.gunb.gov.pl/","parcel_count":1,"parcel_shard":"x071-y204","parcel_id":"300801_2.0005.247","location_source":"powiat kępiński (wfs)"}},{"type":"Feature","id":"ST-WK-KE/WNIOSEK/22820/2025::300801_2.0005.247","geometry":{"type":"Polygon","coordinates":[[[17.9539619808239,51.2271340614653],[17.953590114598,51.2271979180282],[17.9518377849871,51.2258030679226],[17.9490585019105,51.2235433424857],[17.9493150273325,51.2234203011218],[17.9502408743298,51.2241545807907],[17.9521407192506,51.225661341866],[17.9539619808239,51.2271340614653]]]},"properties":{"case_id":"ST-WK-KE/WNIOSEK/22820/2025","source_type":"wniosek_decyzja","received_date":"2025-11-06","decision_date":"2026-01-28","status":"decyzja wydana","description":"budowa budynku mieszkalnego jednorodzinnego dwulokalowego w zabudowie bliźniaczej budynek B","address":"Łęka Opatowska","city":"Łęka Opatowska","office":"Starosta Powiatu Kępno","case_kind":"Budynek mieszkalny jednorodzinny","parcel_ids":["300801_2.0005.247"],"location_quality":"dokładny","gunb_url":"https://wyszukiwarka.gunb.gov.pl/","parcel_count":1,"parcel_shard":"x071-y204","parcel_id":"300801_2.0005.247","location_source":"powiat kępiński (wfs)"}},{"type":"Feature","id":"ST-WK-KE/ZGŁOSZENIE/453/2026::300801_2.0005.32/5","geometry":{"type":"Polygon","coordinates":[[[17.9348416547241,51.2262795403036],[17.934851172175,51.2265351098849],[17.9342487248745,51.2265440319226],[17.9342390693887,51.2262872037199],[17.9348416547241,51.2262795403036]]]},"properties":{"case_id":"ST-WK-KE/ZGŁOSZENIE/453/2026","source_type":"zgloszenie","received_date":"2025-11-25","decision_date":null,"status":"Brak sprzeciwu","description":"Budowa i przebudowa elektroenergetycznych linii kablowych nn-0,4kV w celu zasilania w energię elektryczną budynku mieszkalnego jednorodzinnego","address":"Żurawiniec","city":"Żurawiniec","office":"Starosta Powiatu Kępno","case_kind":"budowa nowego/nowych obiektów budowlanych","parcel_ids":["300801_2.0005.32/5","300801_2.0005.32/6","300801_2.0005.33/2","300801_2.0007.169"],"location_quality":"dokładny","gunb_url":"https://wyszukiwarka.gunb.gov.pl/","parcel_count":4,"parcel_shard":"x071-y204","parcel_id":"300801_2.0005.32/5","location_source":"powiat kępiński (wfs)"}},{"type":"Feature","id":"ST-WK-KE/ZGŁOSZENIE/453/2026::300801_2.0005.32/6","geometry":{"type":"Polygon","coordinates":[[[17.9396930990794,51.226774481601],[17.9384654398597,51.226789933358],[17.9384557577373,51.2265354427086],[17.9347037770462,51.2265911206465],[17.9337358226546,51.2266054987892],[17.9337088414553,51.2265519974941],[17.9342487248745,51.2265440319226],[17.934851172175,51.2265351098849],[17.9348416547241,51.2262795403036],[17.935511241615,51.2262709219037],[17.9373012434259,51.2262479830819],[17.9385117946004,51.2262327862497],[17.9385182937975,51.2264265079296],[17.9387949191556,51.2264232549765],[17.9388789684904,51.2264140399742],[17.9392149691273,51.2263849639466],[17.9392742082197,51.2263538649358],[17.9396930990794,51.226774481601]]]},"properties":{"case_id":"ST-WK-KE/ZGŁOSZENIE/453/2026","source_type":"zgloszenie","received_date":"2025-11-25","decision_date":null,"status":"Brak sprzeciwu","description":"Budowa i przebudowa elektroenergetycznych linii kablowych nn-0,4kV w celu zasilania w energię elektryczną budynku mieszkalnego jednorodzinnego","address":"Żurawiniec","city":"Żurawiniec","office":"Starosta Powiatu Kępno","case_kind":"budowa nowego/nowych obiektów budowlanych","parcel_ids":["300801_2.0005.32/5","300801_2.0005.32/6","300801_2.0005.33/2","300801_2.0007.169"],"location_quality":"dokładny","gunb_url":"https://wyszukiwarka.gunb.gov.pl/","parcel_count":4,"parcel_shard":"x071-y204","parcel_id":"300801_2.0005.32/6","location_source":"powiat kępiński (wfs)"}},{"type":"Feature","id":"ST-WK-KE/ZGŁOSZENIE/453/2026::300801_2.0005.33/2","geometry":{"type":"Polygon","coordinates":[[[17.9347037770462,51.2265911206465],[17.9347117827015,51.2268016532595],[17.933840321142,51.2268132094931],[17.9337358226546,51.2266054987892],[17.9347037770462,51.2265911206465]]]},"properties":{"case_id":"ST-WK-KE/ZGŁOSZENIE/453/2026","source_type":"zgloszenie","received_date":"2025-11-25","decision_date":null,"status":"Brak sprzeciwu","description":"Budowa i przebudowa elektroenergetycznych linii kablowych nn-0,4kV w celu zasilania w energię elektryczną budynku mieszkalnego jednorodzinnego","address":"Żurawiniec","city":"Żurawiniec","office":"Starosta Powiatu Kępno","case_kind":"budowa nowego/nowych obiektów budowlanych","parcel_ids":["300801_2.0005.32/5","300801_2.0005.32/6","300801_2.0005.33/2","300801_2.0007.169"],"location_quality":"dokładny","gunb_url":"https://wyszukiwarka.gunb.gov.pl/","parcel_count":4,"parcel_shard":"x071-y204","parcel_id":"300801_2.0005.33/2","location_source":"powiat kępiński (wfs)"}},{"type":"Feature","id":"ST-WK-KE/ZGŁOSZENIE/453/2026::300801_2.0007.169","geometry":{"type":"Polygon","coordinates":[[[17.9300150342362,51.2194907672026],[17.9299691561238,51.2194442652979],[17.9300265018053,51.2193951103797],[17.9300796466148,51.2194739240586],[17.9301378172518,51.2195598870463],[17.9301439993337,51.2195893665114],[17.9304423089814,51.2201589237194],[17.9306475537449,51.2205561009669],[17.9307558952681,51.2207600414361],[17.9312086441429,51.2216395474433],[17.9314307462066,51.2220687528416],[17.9314782789635,51.222160542979],[17.9315609217809,51.2223232968177],[17.9316933825384,51.2225823545762],[17.9318127127336,51.2228156952621],[17.9320410994438,51.2232621444591],[17.9322818177469,51.2236978132096],[17.9323871674515,51.2239018402171],[17.9325100771643,51.2241394970456],[17.9325624708636,51.2242385887832],[17.9325954489807,51.2243009931756],[17.9327049096309,51.2245347766593],[17.9328109641164,51.2247489615122],[17.9329128806471,51.2249544243177],[17.9331162889021,51.22536400101],[17.9333740871369,51.2258831872218],[17.9334888561256,51.2261144559397],[17.9335799334659,51.2262954612033],[17.9337088414553,51.2265519974941],[17.9337358226546,51.2266054987892],[17.933840321142,51.2268132094931],[17.9338583087616,51.2268489069663],[17.9338851477865,51.2269019586814],[17.9340403289673,51.2272093885475],[17.9342139223225,51.2275578194985],[17.9343383158292,51.2278149844544],[17.9344003704683,51.2279294496265],[17.9346245220572,51.2282680200814],[17.9346604982699,51.2283404035827],[17.9347148966981,51.2284458777654],[17.9347228922134,51.2284614336161],[17.9349609070594,51.2289223547215],[17.934973988963,51.2290510049838],[17.9350548578817,51.2291042592688],[17.9354064449451,51.2298512800452],[17.9354736807779,51.2299937966045],[17.93550393755,51.2300508949617],[17.9356557495586,51.2303373757284],[17.9357187103396,51.2304561492007],[17.9358025367878,51.2306231343886],[17.9359266144045,51.2308701367978],[17.9360125698608,51.2310413389419],[17.9360975269421,51.2312102032705],[17.9361783433955,51.2313711547444],[17.936263443876,51.2315407381601],[17.9363482599857,51.2317093325379],[17.9365668801702,51.2320333334732],[17.9367107596691,51.2323592712247],[17.9367509981694,51.2324292382311],[17.9368190492906,51.2325363278099],[17.9369052456356,51.2326721836988],[17.9369137621363,51.2326847732209],[17.9370245749286,51.2328501719259],[17.9371098534465,51.2329774604203],[17.9371524387308,51.2330177910297],[17.9375333360023,51.2333783734016],[17.9377319325957,51.2335173808899],[17.9381047112887,51.2336922214736],[17.9394434151281,51.2341957795172],[17.9402294198572,51.2344914798669],[17.9410769768109,51.2348102183608],[17.9414761426571,51.2349603590316],[17.9418863315718,51.2351146388572],[17.9423756672734,51.235301497254],[17.9428240916313,51.2354580399084],[17.9433407711445,51.2356557845825],[17.9440883019682,51.2359553955688],[17.9442632510832,51.2360221997158],[17.9453423190718,51.2364342306844],[17.9461485740685,51.2367420795109],[17.9465491363172,51.2368950208553],[17.9471397450604,51.2371226908317],[17.9504385973534,51.2383942479437],[17.9504025193919,51.2385193627101],[17.9500897854258,51.238370691786],[17.9498903197915,51.2382926969296],[17.9496715167123,51.238207142468],[17.9487075756287,51.2378358374733],[17.9481985509816,51.2376397020627],[17.9461034261593,51.236843847543],[17.9456146359042,51.2366534992385],[17.9451401624326,51.2364688188123],[17.9446407886074,51.2362744163128],[17.9437389493388,51.2359233164011],[17.9429361651188,51.2356107317637],[17.9422050955538,51.235326133547],[17.9417027308357,51.2351385488108],[17.9411844825177,51.2349459199611],[17.9406084082344,51.2347279458012],[17.9400914700652,51.2345368948668],[17.9393916195828,51.2342754872183],[17.9393370943928,51.2342560355923],[17.9377278378903,51.2336551166229],[17.9376182121347,51.2336895033269],[17.9374959898303,51.2335403948568],[17.9370176646575,51.2330868243755],[17.9366508131501,51.2325067091395],[17.9366228630985,51.2324509138862],[17.9364598979797,51.2321560684353],[17.9362854961419,51.2318498900771],[17.9361017101372,51.2314979510946],[17.9359699013702,51.2312486973594],[17.9357804727489,51.23082921859],[17.9357243759176,51.2307161031601],[17.9356698783896,51.2306062516743],[17.935527332324,51.2303188591412],[17.9353595305929,51.2300222295134],[17.935213618546,51.2297282905418],[17.9350614281017,51.2294205943497],[17.9349891814384,51.2292794231424],[17.9349029429077,51.2291109168089],[17.9347484746031,51.2287970163318],[17.9345612144268,51.2284887605278],[17.934556786482,51.2284814767649],[17.9344859604872,51.228350194186],[17.9344578239996,51.228302355657],[17.9343845553551,51.2281776337929],[17.9342380174013,51.2278591704998],[17.9340390027508,51.2275362367566],[17.9339556288706,51.2273715067706],[17.9338385633807,51.2271405069408],[17.9338105822978,51.2270851173674],[17.9336803850639,51.2268276815574],[17.9335774559892,51.2266241965475],[17.9335700378465,51.2266058542747],[17.9330478432905,51.2255712045175],[17.9329305055553,51.2253371966288],[17.9327420790127,51.2249631357553],[17.9327208237968,51.2249211617245],[17.9326955431364,51.2247730762772],[17.93241578602,51.2242037157752],[17.9322657757987,51.2238987136826],[17.932054966487,51.2234694446496],[17.9317258443285,51.2227986549334],[17.9313500116965,51.222067249255],[17.930573096751,51.2205702598469],[17.9300150342362,51.2194907672026]]]},"properties":{"case_id":"ST-WK-KE/ZGŁOSZENIE/453/2026","source_type":"zgloszenie","received_date":"2025-11-25","decision_date":null,"status":"Brak sprzeciwu","description":"Budowa i przebudowa elektroenergetycznych linii kablowych nn-0,4kV w celu zasilania w energię elektryczną budynku mieszkalnego jednorodzinnego","address":"Żurawiniec","city":"Żurawiniec","office":"Starosta Powiatu Kępno","case_kind":"budowa nowego/nowych obiektów budowlanych","parcel_ids":["300801_2.0005.32/5","300801_2.0005.32/6","300801_2.0005.33/2","300801_2.0007.169"],"location_quality":"dokładny","gunb_url":"https://wyszukiwarka.gunb.gov.pl/","parcel_count":4,"parcel_shard":"x071-y204","parcel_id":"300801_2.0007.169","location_source":"powiat kępiński (wfs)"}},{"type":"Feature","id":"ST-WK-KE/ZGŁOSZENIE/2153/2026::300801_2.0005.34/4","geometry":{"type":"Polygon","coordinates":[[[17.9398555574407,51.2269102129149],[17.9402539856792,51.2271319119849],[17.9394458005695,51.2271420140662],[17.9392463670449,51.2271445175977],[17.9392375904888,51.2269600537235],[17.9396333062862,51.2269550447255],[17.9396879051433,51.2269146212672],[17.9398555574407,51.2269102129149]]]},"properties":{"case_id":"ST-WK-KE/ZGŁOSZENIE/2153/2026","source_type":"zgloszenie","received_date":"2026-03-02","decision_date":null,"status":"Brak sprzeciwu","description":"budowa elektroenergetycznej linii kablowej nn - 0,4kV i szafki pomiarowej nn - 0,4kV w celu zasilania w energię elektryczną domu jednorodzinnego","address":"Marianka Mroczeńska","city":"Marianka Mroczeńska","office":"Starosta Powiatu Kępno","case_kind":"budowa nowego/nowych obiektów budowlanych","parcel_ids":["300801_2.0005.34/4","300801_2.0005.42/3","300801_2.0005.42/4","300801_2.0005.84/2"],"location_quality":"dokładny","gunb_url":"https://wyszukiwarka.gunb.gov.pl/","parcel_count":4,"parcel_shard":"x071-y204","parcel_id":"300801_2.0005.34/4","location_source":"powiat kępiński (wfs)"}},{"type":"Feature","id":"ST-WK-KE/ZGŁOSZENIE/2153/2026::300801_2.0005.42/3","geometry":{"type":"Polygon","coordinates":[[[17.9398728351843,51.2268350716973],[17.9398887500304,51.2268170114878],[17.9399116567638,51.2268167535726],[17.9404466887925,51.2271305719141],[17.940384267431,51.2271313491687],[17.9399392081426,51.226877804693],[17.9398728351843,51.2268350716973]]]},"properties":{"case_id":"ST-WK-KE/ZGŁOSZENIE/2153/2026","source_type":"zgloszenie","received_date":"2026-03-02","decision_date":null,"status":"Brak sprzeciwu","description":"budowa elektroenergetycznej linii kablowej nn - 0,4kV i szafki pomiarowej nn - 0,4kV w celu zasilania w energię elektryczną domu jednorodzinnego","address":"Marianka Mroczeńska","city":"Marianka Mroczeńska","office":"Starosta Powiatu Kępno","case_kind":"budowa nowego/nowych obiektów budowlanych","parcel_ids":["300801_2.0005.34/4","300801_2.0005.42/3","300801_2.0005.42/4","300801_2.0005.84/2"],"location_quality":"dokładny","gunb_url":"https://wyszukiwarka.gunb.gov.pl/","parcel_count":4,"parcel_shard":"x071-y204","parcel_id":"300801_2.0005.42/3","location_source":"powiat kępiński (wfs)"}},{"type":"Feature","id":"ST-WK-KE/ZGŁOSZENIE/2153/2026::300801_2.0005.42/4","geometry":{"type":"Polygon","coordinates":[[[17.9404466887925,51.2271305719141],[17.9399116567638,51.2268167535726],[17.9415500635639,51.2267956494792],[17.9415601080564,51.2271166604551],[17.9404466887925,51.2271305719141]]]},"properties":{"case_id":"ST-WK-KE/ZGŁOSZENIE/2153/2026","source_type":"zgloszenie","received_date":"2026-03-02","decision_date":null,"status":"Brak sprzeciwu","description":"budowa elektroenergetycznej linii kablowej nn - 0,4kV i szafki pomiarowej nn - 0,4kV w celu zasilania w energię elektryczną domu jednorodzinnego","address":"Marianka Mroczeńska","city":"Marianka Mroczeńska","office":"Starosta Powiatu Kępno","case_kind":"budowa nowego/nowych obiektów budowlanych","parcel_ids":["300801_2.0005.34/4","300801_2.0005.42/3","300801_2.0005.42/4","300801_2.0005.84/2"],"location_quality":"dokładny","gunb_url":"https://wyszukiwarka.gunb.gov.pl/","parcel_count":4,"parcel_shard":"x071-y204","parcel_id":"300801_2.0005.42/4","location_source":"powiat kępiński (wfs)"}},{"type":"Feature","id":"ST-WK-KE/ZGŁOSZENIE/2153/2026::300801_2.0005.84/2","geometry":{"type":"Polygon","coordinates":[[[17.9296264220325,51.2132816506563],[17.9296885927871,51.213433247067],[17.9297517307286,51.2135872007912],[17.9297618763212,51.2136185598606],[17.9298896558491,51.2139212151869],[17.9299558384282,51.2140711058813],[17.9300261699046,51.2142224372977],[17.9302223273856,51.2146463083859],[17.9304183460142,51.2150697295679],[17.9304585768789,51.215156949344],[17.9305073685695,51.2152621527167],[17.9305577399085,51.2153640309767],[17.9306088411707,51.2154565608118],[17.9306447457465,51.2155658016485],[17.9310734044032,51.2165350974252],[17.9312324741963,51.2168865812445],[17.931416084852,51.2172924642384],[17.9315476246462,51.2175831640461],[17.9316074205171,51.2177034753082],[17.9317779611016,51.218047054468],[17.931904826921,51.218210103628],[17.9322794034669,51.2189042018652],[17.9324726213744,51.2192125551687],[17.932491882208,51.2192558046104],[17.9326676975968,51.2195244150157],[17.9328293342897,51.2197012366929],[17.9328616330436,51.2197366728986],[17.9338240020741,51.2207221738155],[17.9341103149718,51.2210084633489],[17.9344843993387,51.221382716242],[17.9345590168128,51.221457368799],[17.935372677737,51.222271168595],[17.935567911089,51.2224937602459],[17.9362549268466,51.2231965566046],[17.9366747673066,51.2236353700828],[17.9368879332306,51.2238389119671],[17.9371042312379,51.2240565682618],[17.9372667750077,51.2242221475915],[17.9375029472474,51.2244606688441],[17.9376870848874,51.2246454062077],[17.9377515619079,51.2247101631122],[17.9378058889057,51.2247644870583],[17.9378902385831,51.2248491206836],[17.9383274322363,51.2252877575255],[17.9390511195263,51.2260372106277],[17.9394124114272,51.2264027211998],[17.9397774241769,51.2267737159872],[17.9398728351843,51.2268350716973],[17.9399392081426,51.226877804693],[17.940384267431,51.2271313491687],[17.940992568545,51.2274758556178],[17.9415809953472,51.2278069549916],[17.941591009936,51.2278126232135],[17.9420222135014,51.2280553674091],[17.9419641706923,51.228102622066],[17.9414492724934,51.2278134513204],[17.9409170744508,51.2275110553729],[17.9408551281718,51.2274758761394],[17.9402539856792,51.2271319119849],[17.9398555574407,51.2269102129149],[17.9396930990794,51.226774481601],[17.9392742082197,51.2263538649358],[17.9391450731426,51.226224775207],[17.9389584960594,51.2260376272012],[17.9387689009068,51.2258583083677],[17.9382282185291,51.225290491872],[17.9378146042333,51.2248835992387],[17.9374020192082,51.2244620531875],[17.93716741768,51.2242268585969],[17.9367985961082,51.2238447067724],[17.9365887273169,51.2236381101666],[17.9361585855611,51.2231956950607],[17.9357237346604,51.2227485114489],[17.9354804412709,51.2224967684056],[17.9352430005414,51.2222586917481],[17.9347980282418,51.2217941497611],[17.9346360710334,51.2216309943565],[17.934251396392,51.2212526009589],[17.9337099239063,51.2207157268859],[17.9333976125883,51.2203949927152],[17.9331263272312,51.2201161710769],[17.9328586187622,51.2198407667653],[17.9325521802267,51.2195254272114],[17.9321683667355,51.2188768102178],[17.9319783271604,51.218550929186],[17.9317831499118,51.2182165050358],[17.9316521518296,51.2179444136095],[17.9314720395115,51.2175893224025],[17.9313343184785,51.2173166872981],[17.9313316066619,51.2173114719357],[17.9312045914287,51.2170596081397],[17.9311667725531,51.2169846154634],[17.9309930732101,51.2165575232422],[17.930696773363,51.2158996038169],[17.9306619655177,51.2158222755367],[17.9304178856948,51.2152801679694],[17.9301473026621,51.214663523019],[17.9299555805163,51.2142410927433],[17.9298816769792,51.2140858937606],[17.9298665540324,51.2140540626974],[17.9298129293047,51.2139288100732],[17.9296845936452,51.2136157267801],[17.9296197120837,51.2134583756111],[17.9295757929723,51.213351556699],[17.9295552595098,51.2133015640159],[17.9294283523737,51.2129925264376],[17.9293342303433,51.2127713336547],[17.9292287764163,51.2124739049395],[17.9292599588906,51.2124855199485],[17.9295016591072,51.2129740527286],[17.9296264220325,51.2132816506563]]]},"properties":{"case_id":"ST-WK-KE/ZGŁOSZENIE/2153/2026","source_type":"zgloszenie","received_date":"2026-03-02","decision_date":null,"status":"Brak sprzeciwu","description":"budowa elektroenergetycznej linii kablowej nn - 0,4kV i szafki pomiarowej nn - 0,4kV w celu zasilania w energię elektryczną domu jednorodzinnego","address":"Marianka Mroczeńska","city":"Marianka Mroczeńska","office":"Starosta Powiatu Kępno","case_kind":"budowa nowego/nowych obiektów budowlanych","parcel_ids":["300801_2.0005.34/4","300801_2.0005.42/3","300801_2.0005.42/4","300801_2.0005.84/2"],"location_quality":"dokładny","gunb_url":"https://wyszukiwarka.gunb.gov.pl/","parcel_count":4,"parcel_shard":"x071-y204","parcel_id":"300801_2.0005.84/2","location_source":"powiat kępiński (wfs)"}},{"type":"Feature","id":"ST-WK-KE/ZGŁOSZENIE/430/2026::300801_2.0006.232/2","geometry":{"type":"Polygon","coordinates":[[[17.9831645962028,51.2175701496853],[17.9822788078051,51.2181020032473],[17.9819575809392,51.2178911444226],[17.9824993459873,51.2175649740663],[17.9849840622799,51.2160634376712],[17.9850545071294,51.2164311074714],[17.9831645962028,51.2175701496853]]]},"properties":{"case_id":"ST-WK-KE/ZGŁOSZENIE/430/2026","source_type":"zgloszenie","received_date":"2025-10-13","decision_date":null,"status":"Brak sprzeciwu","description":"budowa sieci elektroenergetycznej kablowej do 1kV","address":"Mroczeń","city":"Mroczeń","office":"Starosta Powiatu Kępno","case_kind":"budowa nowego/nowych obiektów budowlanych","parcel_ids":["300801_2.0006.232/2","300801_2.0006.5055/3"],"location_quality":"dokładny","gunb_url":"https://wyszukiwarka.gunb.gov.pl/","parcel_count":2,"parcel_shard":"x071-y204","parcel_id":"300801_2.0006.232/2","location_source":"powiat kępiński (wfs)"}},{"type":"Feature","id":"ST-WK-KE/ZGŁOSZENIE/430/2026::300801_2.0006.5055/3","geometry":{"type":"Polygon","coordinates":[[[17.9870709395463,51.2151443526409],[17.9871956527505,51.2150699381853],[17.9873393673484,51.214984160258],[17.9874809681331,51.214899574838],[17.9876128606362,51.2148209430121],[17.9877554493949,51.2147358965366],[17.987878611944,51.21466239792],[17.9880189459412,51.2145786353186],[17.988141545527,51.2145055024085],[17.9882656906753,51.2144313628883],[17.9884050395575,51.2143482402879],[17.9884217529531,51.2141667889244],[17.9884570799311,51.2141456205838],[17.9884649544489,51.2141506567147],[17.9886396548868,51.2142732783434],[17.9874930277619,51.2149647953715],[17.9874764221833,51.2149747716778],[17.9862430101809,51.2157099548714],[17.9856436116204,51.2160671161405],[17.9852618069755,51.216294496993],[17.9852560889358,51.2162275557438],[17.9869459448688,51.2152189499526],[17.9870709395463,51.2151443526409]]]},"properties":{"case_id":"ST-WK-KE/ZGŁOSZENIE/430/2026","source_type":"zgloszenie","received_date":"2025-10-13","decision_date":null,"status":"Brak sprzeciwu","description":"budowa sieci elektroenergetycznej kablowej do 1kV","address":"Mroczeń","city":"Mroczeń","office":"Starosta Powiatu Kępno","case_kind":"budowa nowego/nowych obiektów budowlanych","parcel_ids":["300801_2.0006.232/2","300801_2.0006.5055/3"],"location_quality":"dokładny","gunb_url":"https://wyszukiwarka.gunb.gov.pl/","parcel_count":2,"parcel_shard":"x071-y204","parcel_id":"300801_2.0006.5055/3","location_source":"powiat kępiński (wfs)"}},{"type":"Feature","id":"PL-WP/ZGŁOSZENIE/3347/2025::300801_2.0006.241","geometry":{"type":"Polygon","coordinates":[[[17.986821576946,51.2231522077018],[17.986083300895,51.2222137121488],[17.98600418774,51.2221131541553],[17.9859146543921,51.2219993229052],[17.9858260749619,51.2217567987552],[17.9857757745765,51.2214707546254],[17.985695715549,51.2210159036092],[17.9856716141804,51.2208688092741],[17.9856467180254,51.2206537504518],[17.9856254040786,51.220493947135],[17.9856039202551,51.220338447179],[17.9855636487453,51.2200336165777],[17.9855116651562,51.2196487801199],[17.9854696763911,51.2193463763367],[17.9854291570142,51.2190610716476],[17.9854183790452,51.2189894432321],[17.9853712775946,51.2186336058946],[17.9853137211075,51.218228902299],[17.9852659155081,51.2179013364701],[17.9852617392562,51.2178753989217],[17.9852070775048,51.2175352477977],[17.9851520564928,51.2171975283212],[17.9850948686208,51.2168039079542],[17.9850806412414,51.2166142220479],[17.9850680763027,51.2165190241746],[17.9850545071294,51.2164311074714],[17.9849840622799,51.2160634376712],[17.9849628174624,51.2158737261413],[17.9849588744584,51.2158509328759],[17.9849305189616,51.2156850047211],[17.9848442305302,51.2151676396706],[17.9847852372747,51.2148067131006],[17.9847342430868,51.2144970263267],[17.9847222596189,51.2143786361561],[17.984718693183,51.2143432179898],[17.9846811104894,51.2138874135708],[17.9845804968738,51.2131353528384],[17.9845539792197,51.2129869859269],[17.9843453738274,51.2123684966583],[17.984553511614,51.2122457309237],[17.984663791147,51.2124438688771],[17.9847731417749,51.2128576591047],[17.9848157613756,51.2131375608087],[17.9849130589547,51.2137531722829],[17.9849686727561,51.2141821459381],[17.9850138841334,51.214482302826],[17.985052899149,51.2146555736996],[17.9851302475834,51.2151538046153],[17.9851752676197,51.2155374918305],[17.9851975648045,51.2157319003193],[17.9852092110323,51.2158339991588],[17.9852196908501,51.2159253216919],[17.9852560889358,51.2162275557438],[17.9852618069755,51.216294496993],[17.9852915130803,51.2164998154506],[17.9853173634768,51.216677985843],[17.9853507023818,51.2168590215267],[17.9853790834372,51.2170370246245],[17.9853805117088,51.2170467332037],[17.9854107936389,51.2172448602686],[17.9854252525477,51.2173393391884],[17.9854504942369,51.2175336002239],[17.9854760535837,51.2177307378497],[17.9854804799377,51.2177653470455],[17.9854968571615,51.2178616031017],[17.9855379063906,51.2181511070799],[17.9855878160637,51.2185002128413],[17.98564404572,51.2188600368586],[17.9856897282521,51.2191512868449],[17.9856995036554,51.2192128563935],[17.9857440177508,51.2195383759752],[17.9857943776889,51.2198630204982],[17.9858455408901,51.2201656275241],[17.9858513774227,51.2201995485278],[17.9858590963651,51.2202442377623],[17.9859045612311,51.2205077073115],[17.9859142985912,51.2205879789492],[17.9859464517931,51.2208550113726],[17.9859871640675,51.221133233661],[17.9859950553158,51.2211797691489],[17.9860179670042,51.2214957314769],[17.9860219841861,51.2215311115443],[17.9860731401519,51.2217914370379],[17.9860900207242,51.2218281151959],[17.9861612625385,51.2219836377086],[17.9862857523403,51.2221541784763],[17.9865909541815,51.2224472890881],[17.9868486683116,51.2226973075694],[17.9871007170762,51.2230595994752],[17.9872149685264,51.2231894932521],[17.9869181833518,51.2232458862506],[17.986821576946,51.2231522077018]]]},"properties":{"case_id":"PL-WP/ZGŁOSZENIE/3347/2025","source_type":"zgloszenie","received_date":"2025-10-20","decision_date":null,"status":"Brak sprzeciwu","description":"budowa elektroenergetycznej linii kablowej","address":"Mroczeń","city":"Mroczeń","office":"Wojewoda Wielkopolski","case_kind":"budowa nowego/nowych obiektów budowlanych","parcel_ids":["300801_2.0006.241"],"location_quality":"dokładny","gunb_url":"https://wyszukiwarka.gunb.gov.pl/","parcel_count":1,"parcel_shard":"x071-y204","parcel_id":"300801_2.0006.241","location_source":"powiat kępiński (wfs)"}},{"type":"Feature","id":"ST-WK-KE/WNIOSEK/17783/2025::300801_2.0006.253/1","geometry":{"type":"Polygon","coordinates":[[[17.9894660459394,51.2225096732607],[17.9896237554929,51.2227032259303],[17.989592976411,51.2227092459958],[17.9890728800824,51.2228118558415],[17.9889681401041,51.2226123745321],[17.9894660459394,51.2225096732607]]]},"properties":{"case_id":"ST-WK-KE/WNIOSEK/17783/2025","source_type":"wniosek_decyzja","received_date":"2025-08-29","decision_date":"2025-10-21","status":"decyzja wydana","description":"Budowa budynku magazynowego wraz z niezbędnymi urządzeniami i infrastrukturą techniczną","address":"Mroczeń","city":"Mroczeń","office":"Starosta Powiatu Kępno","case_kind":"Obiekt budowlany inny niż budynek mieszkalny jednorodzinny","parcel_ids":["300801_2.0006.253/1","300801_2.0006.255/3","300801_2.0006.260/1"],"location_quality":"dokładny","gunb_url":"https://wyszukiwarka.gunb.gov.pl/","parcel_count":3,"parcel_shard":"x071-y204","parcel_id":"300801_2.0006.253/1","location_source":"powiat kępiński (wfs)"}},{"type":"Feature","id":"ST-WK-KE/WNIOSEK/17783/2025::300801_2.0006.255/3","geometry":{"type":"Polygon","coordinates":[[[17.9893205083728,51.222303896101],[17.989302899554,51.222309288044],[17.9892804232422,51.2223162077115],[17.988812431606,51.2224440809643],[17.9887550497973,51.2223541829486],[17.9892240506067,51.2221926003213],[17.9897232555096,51.2220188829757],[17.9897789253032,51.2220892736953],[17.9892781625348,51.2222458796611],[17.9893205083728,51.222303896101]]]},"properties":{"case_id":"ST-WK-KE/WNIOSEK/17783/2025","source_type":"wniosek_decyzja","received_date":"2025-08-29","decision_date":"2025-10-21","status":"decyzja wydana","description":"Budowa budynku magazynowego wraz z niezbędnymi urządzeniami i infrastrukturą techniczną","address":"Mroczeń","city":"Mroczeń","office":"Starosta Powiatu Kępno","case_kind":"Obiekt budowlany inny niż budynek mieszkalny jednorodzinny","parcel_ids":["300801_2.0006.253/1","300801_2.0006.255/3","300801_2.0006.260/1"],"location_quality":"dokładny","gunb_url":"https://wyszukiwarka.gunb.gov.pl/","parcel_count":3,"parcel_shard":"x071-y204","parcel_id":"300801_2.0006.255/3","location_source":"powiat kępiński (wfs)"}},{"type":"Feature","id":"ST-WK-KE/WNIOSEK/17783/2025::300801_2.0006.260/1","geometry":{"type":"Polygon","coordinates":[[[17.9892240506067,51.2221926003213],[17.9887550497973,51.2223541829486],[17.9883494679993,51.2224914990431],[17.9883706868231,51.2224113993438],[17.9883769907172,51.2223865125166],[17.9905567863934,51.2214759124432],[17.9905583523276,51.2215184317365],[17.9896330965619,51.2219048913048],[17.9897232555096,51.2220188829757],[17.9892240506067,51.2221926003213]]]},"properties":{"case_id":"ST-WK-KE/WNIOSEK/17783/2025","source_type":"wniosek_decyzja","received_date":"2025-08-29","decision_date":"2025-10-21","status":"decyzja wydana","description":"Budowa budynku magazynowego wraz z niezbędnymi urządzeniami i infrastrukturą techniczną","address":"Mroczeń","city":"Mroczeń","office":"Starosta Powiatu Kępno","case_kind":"Obiekt budowlany inny niż budynek mieszkalny jednorodzinny","parcel_ids":["300801_2.0006.253/1","300801_2.0006.255/3","300801_2.0006.260/1"],"location_quality":"dokładny","gunb_url":"https://wyszukiwarka.gunb.gov.pl/","parcel_count":3,"parcel_shard":"x071-y204","parcel_id":"300801_2.0006.260/1","location_source":"powiat kępiński (wfs)"}},{"type":"Feature","id":"ST-WK-KE/WNIOSEK/1897/2026::300801_2.0006.57","geometry":{"type":"Polygon","coordinates":[[[17.9933912741169,51.2394245611766],[17.9937782272434,51.2393475702874],[17.9939131150448,51.2393116066069],[17.994118960583,51.2392597929592],[17.994288493709,51.2391734056365],[17.9943376006875,51.2391484617702],[17.9944521716693,51.239078710864],[17.9951029296663,51.2385892702809],[17.995525999283,51.2382146655618],[17.9958858865779,51.237851740574],[17.99620538649,51.2375786586215],[17.9965598250996,51.2372749235466],[17.9970094899634,51.2368900171147],[17.9973656363867,51.2365852907923],[17.9974860693461,51.2364802093444],[17.9983822573998,51.2356848441314],[17.9984965797369,51.2355766393942],[17.9990024032318,51.235138412125],[17.9995848350444,51.2346255832244],[18.0001480084022,51.2341207928061],[18.0001644769743,51.2341058598064],[18.0027441923934,51.2317814652054],[18.0027924439575,51.2317345169641],[18.0043466787979,51.230357857615],[18.0052520361231,51.2295899596163],[18.0053555534529,51.2296144056597],[18.0042298735747,51.2306453377615],[18.0041549907338,51.2307063414904],[18.0027439331627,51.2319407923721],[18.0019770057684,51.2326183915849],[17.9986487418523,51.2355588154602],[17.9985944126497,51.2356068166682],[17.9970428351329,51.236977438782],[17.9966706050195,51.237306246508],[17.9956941218539,51.2381687918759],[17.9951676606743,51.2386329668599],[17.9951219754537,51.2386698207937],[17.9948468600896,51.2388917530037],[17.9946595698496,51.2390703791376],[17.9946033761225,51.2391185793513],[17.9943507471252,51.2393355860543],[17.9934225708819,51.2394554152102],[17.9935359794135,51.2396006876495],[17.9928638646786,51.2396595887685],[17.9923746567869,51.2397025278738],[17.9924107531494,51.239542268266],[17.9933912741169,51.2394245611766]]]},"properties":{"case_id":"ST-WK-KE/WNIOSEK/1897/2026","source_type":"wniosek_decyzja","received_date":"2025-10-03","decision_date":"2025-12-05","status":"decyzja wydana","description":"rozbudowa sieci wodociągowej oraz kanalizacji sanitarnej wraz z odcinkami do granic działek przebiegajacymi w ul. Borówno","address":"Mroczeń","city":"Mroczeń","office":"Starosta Powiatu Kępno","case_kind":"Obiekt budowlany inny niż budynek mieszkalny jednorodzinny","parcel_ids":["300801_2.0006.57"],"location_quality":"dokładny","gunb_url":"https://wyszukiwarka.gunb.gov.pl/","parcel_count":1,"parcel_shard":"x071-y204","parcel_id":"300801_2.0006.57","location_source":"powiat kępiński (wfs)"}},{"type":"Feature","id":"ST-WK-KE/WNIOSEK/23832/2025::300801_2.0006.6/2","geometry":{"type":"Polygon","coordinates":[[[17.9919376831615,51.2368898141285],[17.9915091328224,51.2372886541007],[17.9905804617821,51.2372645345013],[17.9904513182027,51.2370814046098],[17.9919376831615,51.2368898141285]]]},"properties":{"case_id":"ST-WK-KE/WNIOSEK/23832/2025","source_type":"wniosek_decyzja","received_date":"2025-09-18","decision_date":"2025-10-17","status":"decyzja wydana","description":"budowa budynku magazynowego-zmiany","address":"Mroczeń","city":"Mroczeń","office":"Starosta Powiatu Kępno","case_kind":"Obiekt budowlany inny niż budynek mieszkalny jednorodzinny","parcel_ids":["300801_2.0006.6/2"],"location_quality":"dokładny","gunb_url":"https://wyszukiwarka.gunb.gov.pl/","parcel_count":1,"parcel_shard":"x071-y204","parcel_id":"300801_2.0006.6/2","location_source":"powiat kępiński (wfs)"}},{"type":"Feature","id":"ST-WK-KE/WNIOSEK/6116/2026::300801_2.0007.147/12","geometry":{"type":"Polygon","coordinates":[[[17.9331732511112,51.2386206427973],[17.9328024294061,51.238768842657],[17.9325019957919,51.2384722949566],[17.9328728160764,51.2383240960405],[17.9331732511112,51.2386206427973]]]},"properties":{"case_id":"ST-WK-KE/WNIOSEK/6116/2026","source_type":"wniosek_decyzja","received_date":"2026-03-27","decision_date":"2026-05-06","status":"decyzja wydana","description":"budowa budynku gospodarczego","address":"Żurawiniec","city":"Żurawiniec","office":"Starosta Powiatu Kępno","case_kind":"Obiekt budowlany inny niż budynek mieszkalny jednorodzinny","parcel_ids":["300801_2.0007.147/12"],"location_quality":"dokładny","gunb_url":"https://wyszukiwarka.gunb.gov.pl/","parcel_count":1,"parcel_shard":"x071-y204","parcel_id":"300801_2.0007.147/12","location_source":"powiat kępiński (wfs)"}},{"type":"Feature","id":"ST-WK-KE/ZGŁOSZENIE/379/2026::300801_2.0007.36","geometry":{"type":"Polygon","coordinates":[[[17.9327208237968,51.2249211617245],[17.9316425798125,51.224417399666],[17.9313787806526,51.224294092573],[17.9311832070063,51.2242025480812],[17.9309603246489,51.2240982314092],[17.9306159889116,51.2239372100948],[17.9303290205988,51.2238029200009],[17.9300420538201,51.2236687190934],[17.9297550888475,51.2235344275874],[17.9296392152423,51.2234807820472],[17.9292614153487,51.2233036458457],[17.9289590051293,51.2231623314258],[17.92878748751,51.2230822228495],[17.9270248475771,51.2222623959623],[17.9255470680271,51.2215730681503],[17.9249524495913,51.221295819332],[17.9240020566815,51.2213166004872],[17.9240086722396,51.2212109810356],[17.9245217493152,51.2211889297996],[17.9250190779455,51.2211679449368],[17.9251429493412,51.221226094818],[17.9252136092936,51.221260029482],[17.9271370935415,51.2221617862561],[17.9281050846599,51.2226167017327],[17.9286356496091,51.2228661186345],[17.9291330327291,51.2230998717341],[17.9305519652701,51.2237688034553],[17.9312663854645,51.2241035354198],[17.9317074313655,51.224310186783],[17.9322374640804,51.2245585981483],[17.9326955431364,51.2247730762772],[17.9327208237968,51.2249211617245]]]},"properties":{"case_id":"ST-WK-KE/ZGŁOSZENIE/379/2026","source_type":"zgloszenie","received_date":"2025-10-08","decision_date":null,"status":"Brak sprzeciwu","description":"budowa elektroenergetycznej linii kablowej nn-0,4kV i szafki pomiatowej nn 0,4kV","address":"Żurawiniec","city":"Żurawiniec","office":"Starosta Powiatu Kępno","case_kind":"budowa nowego/nowych obiektów budowlanych","parcel_ids":["300801_2.0007.36","300801_2.0007.47","300801_2.0007.48/5"],"location_quality":"dokładny","gunb_url":"https://wyszukiwarka.gunb.gov.pl/","parcel_count":2,"parcel_shard":"x071-y204","parcel_id":"300801_2.0007.36","location_source":"powiat kępiński (wfs)"}},{"type":"Feature","id":"ST-WK-KE/ZGŁOSZENIE/379/2026::300801_2.0007.48/5","geometry":{"type":"Polygon","coordinates":[[[17.9292614153487,51.2233036458457],[17.9296392152423,51.2234807820472],[17.9297550888475,51.2235344275874],[17.9293227763781,51.2238985016706],[17.9291937419737,51.2238383754841],[17.9292290980428,51.2235605391168],[17.9292614153487,51.2233036458457]]]},"properties":{"case_id":"ST-WK-KE/ZGŁOSZENIE/379/2026","source_type":"zgloszenie","received_date":"2025-10-08","decision_date":null,"status":"Brak sprzeciwu","description":"budowa elektroenergetycznej linii kablowej nn-0,4kV i szafki pomiatowej nn 0,4kV","address":"Żurawiniec","city":"Żurawiniec","office":"Starosta Powiatu Kępno","case_kind":"budowa nowego/nowych obiektów budowlanych","parcel_ids":["300801_2.0007.36","300801_2.0007.47","300801_2.0007.48/5"],"location_quality":"dokładny","gunb_url":"https://wyszukiwarka.gunb.gov.pl/","parcel_count":2,"parcel_shard":"x071-y204","parcel_id":"300801_2.0007.48/5","location_source":"powiat kępiński (wfs)"}},{"type":"Feature","id":"ST-WK-KE/WNIOSEK/5637/2026::300802_2.0006.56/20","geometry":{"type":"Polygon","coordinates":[[[17.9233076023928,51.2491627254367],[17.9229491095232,51.2503490658963],[17.9225482600578,51.2504756391301],[17.921422864816,51.2489456445237],[17.9233076023928,51.2491627254367]]]},"properties":{"case_id":"ST-WK-KE/WNIOSEK/5637/2026","source_type":"wniosek_decyzja","received_date":"2026-03-05","decision_date":"2026-05-20","status":"decyzja wydana","description":"budowa budynku mieszkalnego jednorodzinnego","address":"Nosale","city":"Nosale","office":"Starosta Powiatu Kępno","case_kind":"Budynek mieszkalny jednorodzinny","parcel_ids":["300802_2.0006.56/20"],"location_quality":"dokładny","gunb_url":"https://wyszukiwarka.gunb.gov.pl/","parcel_count":1,"parcel_shard":"x071-y204","parcel_id":"300802_2.0006.56/20","location_source":"powiat kępiński (wfs)"}},{"type":"Feature","id":"ST-WK-KE/ZGŁOSZENIE/2450/2026::300802_2.0007.129/4","geometry":{"type":"Polygon","coordinates":[[[17.8699966455887,51.2327945487703],[17.8703762385602,51.2326879079047],[17.8705372580468,51.2329139857262],[17.8701576638384,51.2330205372167],[17.8699966455887,51.2327945487703]]]},"properties":{"case_id":"ST-WK-KE/ZGŁOSZENIE/2450/2026","source_type":"zgloszenie","received_date":"2026-04-07","decision_date":null,"status":"Brak sprzeciwu","description":"budowa elektroenergetycznej linii kablowej nn-0,4kV i szafki pomiarowej nn-0,4kV w celu zasilania w energię elektryczną bud. mieszk. jednorodzinnego","address":"Bralin","city":"Bralin","office":"Starosta Powiatu Kępno","case_kind":"budowa nowego/nowych obiektów budowlanych","parcel_ids":["300802_2.0007.129/4","300802_2.0007.129/5","300802_2.0007.129/8"],"location_quality":"dokładny","gunb_url":"https://wyszukiwarka.gunb.gov.pl/","parcel_count":3,"parcel_shard":"x071-y204","parcel_id":"300802_2.0007.129/4","location_source":"powiat kępiński (wfs)"}},{"type":"Feature","id":"ST-WK-KE/ZGŁOSZENIE/2450/2026::300802_2.0007.129/5","geometry":{"type":"Polygon","coordinates":[[[17.8698356291684,51.2325684702027],[17.8702152203971,51.2324619197461],[17.8703762385602,51.2326879079047],[17.8699966455887,51.2327945487703],[17.8698356291684,51.2325684702027]]]},"properties":{"case_id":"ST-WK-KE/ZGŁOSZENIE/2450/2026","source_type":"zgloszenie","received_date":"2026-04-07","decision_date":null,"status":"Brak sprzeciwu","description":"budowa elektroenergetycznej linii kablowej nn-0,4kV i szafki pomiarowej nn-0,4kV w celu zasilania w energię elektryczną bud. mieszk. jednorodzinnego","address":"Bralin","city":"Bralin","office":"Starosta Powiatu Kępno","case_kind":"budowa nowego/nowych obiektów budowlanych","parcel_ids":["300802_2.0007.129/4","300802_2.0007.129/5","300802_2.0007.129/8"],"location_quality":"dokładny","gunb_url":"https://wyszukiwarka.gunb.gov.pl/","parcel_count":3,"parcel_shard":"x071-y204","parcel_id":"300802_2.0007.129/5","location_source":"powiat kępiński (wfs)"}},{"type":"Feature","id":"ST-WK-KE/ZGŁOSZENIE/2450/2026::300802_2.0007.129/8","geometry":{"type":"Polygon","coordinates":[[[17.8711247914097,51.2335625785004],[17.8709799227301,51.2336010726344],[17.8710007864508,51.233564689211],[17.8708555935367,51.2333609228315],[17.8706982793619,51.2331399734265],[17.8705372580468,51.2329139857262],[17.8703762385602,51.2326879079047],[17.8702152203971,51.2324619197461],[17.8700542040631,51.2322358414663],[17.8699037426001,51.2320246968288],[17.8698497916028,51.2320146587927],[17.8699899497709,51.2319695986699],[17.8711247914097,51.2335625785004]]]},"properties":{"case_id":"ST-WK-KE/ZGŁOSZENIE/2450/2026","source_type":"zgloszenie","received_date":"2026-04-07","decision_date":null,"status":"Brak sprzeciwu","description":"budowa elektroenergetycznej linii kablowej nn-0,4kV i szafki pomiarowej nn-0,4kV w celu zasilania w energię elektryczną bud. mieszk. jednorodzinnego","address":"Bralin","city":"Bralin","office":"Starosta Powiatu Kępno","case_kind":"budowa nowego/nowych obiektów budowlanych","parcel_ids":["300802_2.0007.129/4","300802_2.0007.129/5","300802_2.0007.129/8"],"location_quality":"dokładny","gunb_url":"https://wyszukiwarka.gunb.gov.pl/","parcel_count":3,"parcel_shard":"x071-y204","parcel_id":"300802_2.0007.129/8","location_source":"powiat kępiński (wfs)"}},{"type":"Feature","id":"ST-WK-KE/WNIOSEK/23955/2025::300802_2.0007.209","geometry":{"type":"Polygon","coordinates":[[[17.8574263941066,51.2367390426114],[17.8568422009497,51.2366781017084],[17.8569917606458,51.236241947016],[17.8572423664589,51.2355428004115],[17.8577948273046,51.2355809580179],[17.8574263941066,51.2367390426114]]]},"properties":{"case_id":"ST-WK-KE/WNIOSEK/23955/2025","source_type":"wniosek_decyzja","received_date":"2025-11-24","decision_date":"2026-01-21","status":"decyzja wydana","description":"Budowa wiaty dla potrzby gospodarstwa rolnego","address":"Nowa Wieś Książęca","city":"Nowa Wieś Książęca","office":"Starosta Powiatu Kępno","case_kind":"Obiekt budowlany inny niż budynek mieszkalny jednorodzinny","parcel_ids":["300802_2.0007.209"],"location_quality":"dokładny","gunb_url":"https://wyszukiwarka.gunb.gov.pl/","parcel_count":1,"parcel_shard":"x071-y204","parcel_id":"300802_2.0007.209","location_source":"powiat kępiński (wfs)"}},{"type":"Feature","id":"ST-WK-KE/ZGŁOSZENIE/1057/2026::300802_2.0007.279/2","geometry":{"type":"Polygon","coordinates":[[[17.859458377789,51.237479695954],[17.8594851383476,51.2371563853201],[17.8594940581757,51.2370487049954],[17.8594985178001,51.2369949547241],[17.8599053509613,51.2370383210007],[17.8602303111432,51.2370701718007],[17.8601023655264,51.237801742615],[17.8600602491448,51.2380429632965],[17.8596581180572,51.2380043675009],[17.859407704478,51.2379903134712],[17.8594465587724,51.2375988790063],[17.859458377789,51.237479695954]]]},"properties":{"case_id":"ST-WK-KE/ZGŁOSZENIE/1057/2026","source_type":"zgloszenie","received_date":"2025-12-30","decision_date":null,"status":"Brak sprzeciwu","description":"budowa elektroenergetycznej sieci do 1kV napięcia","address":"Nowa Wieś Książęca","city":"Nowa Wieś Książęca","office":"Starosta Powiatu Kępno","case_kind":"budowa nowego/nowych obiektów budowlanych","parcel_ids":["300802_2.0007.279/2","300802_2.0007.282/2","300802_2.0007.299/12","300802_2.0007.301/3","300802_2.0007.301/4","300802_2.0007.301/7","300802_2.0007.370","300802_2.0007.389"],"location_quality":"dokładny","gunb_url":"https://wyszukiwarka.gunb.gov.pl/","parcel_count":8,"parcel_shard":"x071-y204","parcel_id":"300802_2.0007.279/2","location_source":"powiat kępiński (wfs)"}},{"type":"Feature","id":"ST-WK-KE/ZGŁOSZENIE/1057/2026::300802_2.0007.282/2","geometry":{"type":"Polygon","coordinates":[[[17.8594465587724,51.2375988790063],[17.859407704478,51.2379903134712],[17.8593650073563,51.2384207565503],[17.8591965746991,51.2384299927591],[17.8587901023936,51.2384520660841],[17.8588931823936,51.2375707960584],[17.8594465587724,51.2375988790063]]]},"properties":{"case_id":"ST-WK-KE/ZGŁOSZENIE/1057/2026","source_type":"zgloszenie","received_date":"2025-12-30","decision_date":null,"status":"Brak sprzeciwu","description":"budowa elektroenergetycznej sieci do 1kV napięcia","address":"Nowa Wieś Książęca","city":"Nowa Wieś Książęca","office":"Starosta Powiatu Kępno","case_kind":"budowa nowego/nowych obiektów budowlanych","parcel_ids":["300802_2.0007.279/2","300802_2.0007.282/2","300802_2.0007.299/12","300802_2.0007.301/3","300802_2.0007.301/4","300802_2.0007.301/7","300802_2.0007.370","300802_2.0007.389"],"location_quality":"dokładny","gunb_url":"https://wyszukiwarka.gunb.gov.pl/","parcel_count":8,"parcel_shard":"x071-y204","parcel_id":"300802_2.0007.282/2","location_source":"powiat kępiński (wfs)"}},{"type":"Feature","id":"ST-WK-KE/ZGŁOSZENIE/1057/2026::300802_2.0007.299/12","geometry":{"type":"Polygon","coordinates":[[[17.8532679918728,51.2367373195809],[17.8532500266939,51.2370730450074],[17.8532142132893,51.2375274958217],[17.853216727455,51.2379524200787],[17.8531826377821,51.2379549842036],[17.8531828342104,51.2378482822421],[17.8531846320033,51.2376486754578],[17.8531857132202,51.2375286286793],[17.8531966491571,51.2374220300718],[17.8532183625208,51.2372135969439],[17.85323978958,51.2370050735532],[17.8532548625766,51.2368582982347],[17.8531233721603,51.2367797471798],[17.8524959175058,51.236815094899],[17.8522681934454,51.2368282915635],[17.8518267835954,51.2368529933802],[17.8516967408626,51.2368593908327],[17.8516922591793,51.2368281026138],[17.8532679918728,51.2367373195809]]]},"properties":{"case_id":"ST-WK-KE/ZGŁOSZENIE/1057/2026","source_type":"zgloszenie","received_date":"2025-12-30","decision_date":null,"status":"Brak sprzeciwu","description":"budowa elektroenergetycznej sieci do 1kV napięcia","address":"Nowa Wieś Książęca","city":"Nowa Wieś Książęca","office":"Starosta Powiatu Kępno","case_kind":"budowa nowego/nowych obiektów budowlanych","parcel_ids":["300802_2.0007.279/2","300802_2.0007.282/2","300802_2.0007.299/12","300802_2.0007.301/3","300802_2.0007.301/4","300802_2.0007.301/7","300802_2.0007.370","300802_2.0007.389"],"location_quality":"dokładny","gunb_url":"https://wyszukiwarka.gunb.gov.pl/","parcel_count":8,"parcel_shard":"x071-y204","parcel_id":"300802_2.0007.299/12","location_source":"powiat kępiński (wfs)"}},{"type":"Feature","id":"ST-WK-KE/ZGŁOSZENIE/1057/2026::300802_2.0007.301/3","geometry":{"type":"Polygon","coordinates":[[[17.8531826377821,51.2379549842036],[17.853216727455,51.2379524200787],[17.8533202076281,51.2384194505878],[17.8533351727946,51.2384867986961],[17.853351975038,51.2385618798436],[17.8534563174354,51.2390288213701],[17.853422224409,51.2390321945914],[17.8533183136673,51.2385647142215],[17.8532864063041,51.2384212959656],[17.8531826377821,51.2379549842036]]]},"properties":{"case_id":"ST-WK-KE/ZGŁOSZENIE/1057/2026","source_type":"zgloszenie","received_date":"2025-12-30","decision_date":null,"status":"Brak sprzeciwu","description":"budowa elektroenergetycznej sieci do 1kV napięcia","address":"Nowa Wieś Książęca","city":"Nowa Wieś Książęca","office":"Starosta Powiatu Kępno","case_kind":"budowa nowego/nowych obiektów budowlanych","parcel_ids":["300802_2.0007.279/2","300802_2.0007.282/2","300802_2.0007.299/12","300802_2.0007.301/3","300802_2.0007.301/4","300802_2.0007.301/7","300802_2.0007.370","300802_2.0007.389"],"location_quality":"dokładny","gunb_url":"https://wyszukiwarka.gunb.gov.pl/","parcel_count":8,"parcel_shard":"x071-y204","parcel_id":"300802_2.0007.301/3","location_source":"powiat kępiński (wfs)"}},{"type":"Feature","id":"ST-WK-KE/ZGŁOSZENIE/1057/2026::300802_2.0007.301/4","geometry":{"type":"Polygon","coordinates":[[[17.8533183136673,51.2385647142215],[17.853422224409,51.2390321945914],[17.8531066501637,51.2390629916337],[17.8529809588613,51.2385559310053],[17.853252969211,51.2385337093577],[17.8533183136673,51.2385647142215]]]},"properties":{"case_id":"ST-WK-KE/ZGŁOSZENIE/1057/2026","source_type":"zgloszenie","received_date":"2025-12-30","decision_date":null,"status":"Brak sprzeciwu","description":"budowa elektroenergetycznej sieci do 1kV napięcia","address":"Nowa Wieś Książęca","city":"Nowa Wieś Książęca","office":"Starosta Powiatu Kępno","case_kind":"budowa nowego/nowych obiektów budowlanych","parcel_ids":["300802_2.0007.279/2","300802_2.0007.282/2","300802_2.0007.299/12","300802_2.0007.301/3","300802_2.0007.301/4","300802_2.0007.301/7","300802_2.0007.370","300802_2.0007.389"],"location_quality":"dokładny","gunb_url":"https://wyszukiwarka.gunb.gov.pl/","parcel_count":8,"parcel_shard":"x071-y204","parcel_id":"300802_2.0007.301/4","location_source":"powiat kępiński (wfs)"}},{"type":"Feature","id":"ST-WK-KE/ZGŁOSZENIE/1057/2026::300802_2.0007.301/7","geometry":{"type":"Polygon","coordinates":[[[17.8532864063041,51.2384212959656],[17.8533183136673,51.2385647142215],[17.853252969211,51.2385337093577],[17.8529809588613,51.2385559310053],[17.8526401933931,51.2385838185939],[17.8523561506874,51.2386069225647],[17.8523083363531,51.2386469542243],[17.8522427049065,51.238616308004],[17.8522250322844,51.2385452707533],[17.8522729906498,51.2385049696318],[17.8523386208073,51.2385359754035],[17.8526225201711,51.2385127814023],[17.852963285125,51.2384848938644],[17.8532371572445,51.2384624948075],[17.8532864063041,51.2384212959656]]]},"properties":{"case_id":"ST-WK-KE/ZGŁOSZENIE/1057/2026","source_type":"zgloszenie","received_date":"2025-12-30","decision_date":null,"status":"Brak sprzeciwu","description":"budowa elektroenergetycznej sieci do 1kV napięcia","address":"Nowa Wieś Książęca","city":"Nowa Wieś Książęca","office":"Starosta Powiatu Kępno","case_kind":"budowa nowego/nowych obiektów budowlanych","parcel_ids":["300802_2.0007.279/2","300802_2.0007.282/2","300802_2.0007.299/12","300802_2.0007.301/3","300802_2.0007.301/4","300802_2.0007.301/7","300802_2.0007.370","300802_2.0007.389"],"location_quality":"dokładny","gunb_url":"https://wyszukiwarka.gunb.gov.pl/","parcel_count":8,"parcel_shard":"x071-y204","parcel_id":"300802_2.0007.301/7","location_source":"powiat kępiński (wfs)"}},{"type":"Feature","id":"ST-WK-KE/ZGŁOSZENIE/1057/2026::300802_2.0007.370","geometry":{"type":"Polygon","coordinates":[[[17.8532500266939,51.2370730450074],[17.8532679918728,51.2367373195809],[17.8534333083525,51.2367157727476],[17.8533906381188,51.2368953242397],[17.8533789046822,51.2369376488423],[17.8533604313479,51.2370730934784],[17.8533019774928,51.2375326398175],[17.8532955477002,51.2377533174641],[17.853324459167,51.2379380824565],[17.8533169059387,51.2379961070813],[17.8535806469405,51.2391024289519],[17.8535504437079,51.2391509230521],[17.8537418474957,51.2398018029451],[17.853790940739,51.2400359438476],[17.8544603643998,51.2407826145009],[17.854928257192,51.2413191331468],[17.8554096819414,51.2418824544825],[17.8558135787195,51.2423279194365],[17.8567243204869,51.2433724171795],[17.8567526903361,51.2434143416895],[17.8585284268866,51.2454237049532],[17.8592403630496,51.2462293681708],[17.8592831840042,51.246277422091],[17.8597331062553,51.24677857174],[17.860791575721,51.2479574229071],[17.8615813270462,51.2488257860419],[17.8616384452246,51.2488885865655],[17.8619034907627,51.2491957460197],[17.8621102970506,51.2494073722317],[17.8623841889072,51.2497085009449],[17.8625236958254,51.2499645145623],[17.8623860933485,51.24999635449],[17.8613963154899,51.2489514489734],[17.8613288262359,51.248864892785],[17.8609956721851,51.248482455951],[17.859110471331,51.2463186546558],[17.8580965777904,51.2451549438605],[17.857092699623,51.2440109226576],[17.8570215426615,51.2439574397741],[17.8570657682224,51.243874343458],[17.8567146863548,51.2434770399686],[17.8563319288172,51.2430437396214],[17.8557211300634,51.2423522562229],[17.8542217721499,51.2406942231582],[17.8536819379976,51.2400883047529],[17.8535126986975,51.2393572685871],[17.8534563174354,51.2390288213701],[17.853351975038,51.2385618798436],[17.8533351727946,51.2384867986961],[17.8533202076281,51.2384194505878],[17.853216727455,51.2379524200787],[17.8532142132893,51.2375274958217],[17.8532500266939,51.2370730450074]]]},"properties":{"case_id":"ST-WK-KE/ZGŁOSZENIE/1057/2026","source_type":"zgloszenie","received_date":"2025-12-30","decision_date":null,"status":"Brak sprzeciwu","description":"budowa elektroenergetycznej sieci do 1kV napięcia","address":"Nowa Wieś Książęca","city":"Nowa Wieś Książęca","office":"Starosta Powiatu Kępno","case_kind":"budowa nowego/nowych obiektów budowlanych","parcel_ids":["300802_2.0007.279/2","300802_2.0007.282/2","300802_2.0007.299/12","300802_2.0007.301/3","300802_2.0007.301/4","300802_2.0007.301/7","300802_2.0007.370","300802_2.0007.389"],"location_quality":"dokładny","gunb_url":"https://wyszukiwarka.gunb.gov.pl/","parcel_count":8,"parcel_shard":"x071-y204","parcel_id":"300802_2.0007.370","location_source":"powiat kępiński (wfs)"}},{"type":"Feature","id":"ST-WK-KE/ZGŁOSZENIE/1057/2026::300802_2.0007.389","geometry":{"type":"Polygon","coordinates":[[[17.8541356484083,51.238085440845],[17.8533169059387,51.2379961070813],[17.853324459167,51.2379380824565],[17.8533980354607,51.2379469840786],[17.8538075757824,51.2379954987945],[17.8541869263445,51.2380362437323],[17.8545124771155,51.2380634367334],[17.8549561271523,51.2381037197245],[17.8559147466993,51.2382290449612],[17.8564945268874,51.2382874680733],[17.8572310655812,51.23836136131],[17.8572732943864,51.2383663568864],[17.8577537029503,51.2384226749191],[17.8580303074726,51.2384421577939],[17.8583286577481,51.2384684981528],[17.8585532135239,51.238463196395],[17.8587901023936,51.2384520660841],[17.8591965746991,51.2384299927591],[17.8593650073563,51.2384207565503],[17.8595673595859,51.2384177633689],[17.8599950957876,51.2384195342467],[17.8604014060814,51.2384033894379],[17.8605198362114,51.2383550786539],[17.8605453600914,51.2383911558882],[17.8605896718144,51.2384178168001],[17.860653907486,51.2384382089524],[17.8607158872918,51.2384469123828],[17.8610783310899,51.2384463542833],[17.8611743020324,51.2384376586962],[17.8616632536352,51.2384166634129],[17.8622148626249,51.2383692216227],[17.8624694358881,51.2383339236456],[17.8625402063035,51.238324118619],[17.8629257182461,51.2382707251993],[17.8637343967533,51.2381654166688],[17.8637894072371,51.2381581095244],[17.8639978447894,51.23813057516],[17.8644302177219,51.2380642867271],[17.8648416733654,51.2380010288853],[17.8655855483226,51.2378700134058],[17.8659505201242,51.2377863826111],[17.8661630433022,51.2377316116928],[17.8666383304116,51.2376291375511],[17.867139383496,51.2374795871435],[17.86731108222,51.2374283634877],[17.8677507900314,51.2372970789405],[17.8688532787473,51.2369911572449],[17.8689178998133,51.2369772963162],[17.8692428658537,51.2369080831079],[17.869583592105,51.2368354706486],[17.8696258645589,51.2368250003355],[17.8702414687986,51.2366707998739],[17.8703247243314,51.2366498573285],[17.8703528102808,51.2366428768369],[17.871006952396,51.2364803550365],[17.8715036179362,51.236354153104],[17.8723097854395,51.2361538562362],[17.8724375799942,51.2361301741025],[17.8729537701515,51.236034910258],[17.8730418843461,51.236120763167],[17.8723794276491,51.2362393299208],[17.8723208242906,51.2362526599716],[17.8711650845072,51.236515587209],[17.8711418736564,51.2365203259537],[17.8710576130973,51.2365424365739],[17.8707033735448,51.2366355338546],[17.8705979037977,51.2366632839316],[17.8701393384156,51.2367838610743],[17.8697674693848,51.2368814305775],[17.8688648294242,51.2370584995492],[17.868463476456,51.2371492000544],[17.8678858931824,51.2373233901756],[17.8674050419796,51.2374684042265],[17.8668280599445,51.2376424053886],[17.8664022263379,51.2377708218623],[17.865953911741,51.2378511988658],[17.8654611218718,51.2379395473969],[17.8650410350251,51.2380405418605],[17.8645382964797,51.2381257184202],[17.8634810461338,51.2382720933305],[17.8633852045239,51.2382857350377],[17.8627985632677,51.2383646035998],[17.8621421385829,51.238457679936],[17.8616787620043,51.2384979444014],[17.8613232432946,51.2385288961703],[17.8609667959456,51.2385352152596],[17.8606309079899,51.2385145001546],[17.8599265936687,51.2384838151986],[17.859601244309,51.2384825264915],[17.8591815262334,51.2384809436057],[17.8587558942933,51.2384932853896],[17.8583428522045,51.2385094163404],[17.858019425479,51.2384882593591],[17.8574799046579,51.2384313928083],[17.856915867507,51.2383887478599],[17.8564373199554,51.2383365458737],[17.8562043989666,51.2383111371147],[17.8552165817239,51.2382033732002],[17.8545872914308,51.2381340052888],[17.8541356484083,51.238085440845]]]},"properties":{"case_id":"ST-WK-KE/ZGŁOSZENIE/1057/2026","source_type":"zgloszenie","received_date":"2025-12-30","decision_date":null,"status":"Brak sprzeciwu","description":"budowa elektroenergetycznej sieci do 1kV napięcia","address":"Nowa Wieś Książęca","city":"Nowa Wieś Książęca","office":"Starosta Powiatu Kępno","case_kind":"budowa nowego/nowych obiektów budowlanych","parcel_ids":["300802_2.0007.279/2","300802_2.0007.282/2","300802_2.0007.299/12","300802_2.0007.301/3","300802_2.0007.301/4","300802_2.0007.301/7","300802_2.0007.370","300802_2.0007.389"],"location_quality":"dokładny","gunb_url":"https://wyszukiwarka.gunb.gov.pl/","parcel_count":8,"parcel_shard":"x071-y204","parcel_id":"300802_2.0007.389","location_source":"powiat kępiński (wfs)"}},{"type":"Feature","id":"ST-WK-KE/WNIOSEK/17556/2025::300802_2.0007.401/3","geometry":{"type":"Polygon","coordinates":[[[17.8697674693848,51.2368814305775],[17.8706223767687,51.237842338865],[17.8697400721021,51.2380642933076],[17.8688648294242,51.2370584995492],[17.8697674693848,51.2368814305775]]]},"properties":{"case_id":"ST-WK-KE/WNIOSEK/17556/2025","source_type":"wniosek_decyzja","received_date":"2025-08-26","decision_date":"2025-10-17","status":"decyzja wydana","description":"rozbudowa mikroinstalacji fotowoltaicznej o mocy 50kW do łącznej mocy do 600kW","address":"Nowa Wieś Książęca","city":"Nowa Wieś Książęca","office":"Starosta Powiatu Kępno","case_kind":"Obiekt budowlany inny niż budynek mieszkalny jednorodzinny","parcel_ids":["300802_2.0007.401/3","300802_2.0007.402/14"],"location_quality":"dokładny","gunb_url":"https://wyszukiwarka.gunb.gov.pl/","parcel_count":2,"parcel_shard":"x071-y204","parcel_id":"300802_2.0007.401/3","location_source":"powiat kępiński (wfs)"}},{"type":"Feature","id":"ST-WK-KE/WNIOSEK/17556/2025::300802_2.0007.402/14","geometry":{"type":"Polygon","coordinates":[[[17.8701393384156,51.2367838610743],[17.8705979037977,51.2366632839316],[17.8707569232588,51.2368418959231],[17.8709295053393,51.2370356245615],[17.8711023745086,51.2372296229317],[17.8712751024353,51.2374234410995],[17.8714646755861,51.2376365144628],[17.8709988202721,51.2377497157792],[17.8706223767687,51.237842338865],[17.8697674693848,51.2368814305775],[17.8701393384156,51.2367838610743]]]},"properties":{"case_id":"ST-WK-KE/WNIOSEK/17556/2025","source_type":"wniosek_decyzja","received_date":"2025-08-26","decision_date":"2025-10-17","status":"decyzja wydana","description":"rozbudowa mikroinstalacji fotowoltaicznej o mocy 50kW do łącznej mocy do 600kW","address":"Nowa Wieś Książęca","city":"Nowa Wieś Książęca","office":"Starosta Powiatu Kępno","case_kind":"Obiekt budowlany inny niż budynek mieszkalny jednorodzinny","parcel_ids":["300802_2.0007.401/3","300802_2.0007.402/14"],"location_quality":"dokładny","gunb_url":"https://wyszukiwarka.gunb.gov.pl/","parcel_count":2,"parcel_shard":"x071-y204","parcel_id":"300802_2.0007.402/14","location_source":"powiat kępiński (wfs)"}},{"type":"Feature","id":"ST-WK-KE/WNIOSEK/9646/2026::300802_2.0007.533/15","geometry":{"type":"Polygon","coordinates":[[[17.8898088504451,51.2230075189555],[17.8902372640277,51.2229056238022],[17.8903921561979,51.2231464112961],[17.8903680242268,51.2231809973219],[17.8901312567935,51.2232374076007],[17.8900757504525,51.2232217141804],[17.8899552899404,51.2232502767015],[17.8898088504451,51.2230075189555]]]},"properties":{"case_id":"ST-WK-KE/WNIOSEK/9646/2026","source_type":"wniosek_decyzja","received_date":"2026-04-10","decision_date":"2026-04-29","status":"decyzja wydana","description":"budowa budynku mieszkalnego jednorodzinnego, budynku gospodarczego","address":"Nowa Wieś Książęca","city":"Nowa Wieś Książęca","office":"Starosta Powiatu Kępno","case_kind":"Budynek mieszkalny jednorodzinny","parcel_ids":["300802_2.0007.533/15"],"location_quality":"dokładny","gunb_url":"https://wyszukiwarka.gunb.gov.pl/","parcel_count":1,"parcel_shard":"x071-y204","parcel_id":"300802_2.0007.533/15","location_source":"powiat kępiński (wfs)"}},{"type":"Feature","id":"ST-WK-KE/ZGŁOSZENIE/1601/2026::300802_2.0007.535/1","geometry":{"type":"Polygon","coordinates":[[[17.8876294272025,51.2260300604136],[17.888423878886,51.2258348548107],[17.8887424600335,51.2257565021419],[17.8890610398842,51.2256782384964],[17.8893796188709,51.2255998840898],[17.889652931132,51.2255327227097],[17.889698196562,51.2255216187067],[17.8900167733879,51.2254432625624],[17.8903353489194,51.2253649954415],[17.8906539235843,51.2252866375595],[17.8909719241049,51.2252084580599],[17.8912899235491,51.2251302776946],[17.8915739733246,51.2250605149148],[17.8916139379829,51.2250506637547],[17.8916728475103,51.2251424086521],[17.891616764449,51.22512725479],[17.8907051649333,51.2253513181324],[17.8903851576638,51.225429944489],[17.8900652924657,51.2255085701033],[17.8897452830178,51.2255871947069],[17.8894254156417,51.2256658185691],[17.8891055469608,51.2257445314476],[17.8887855342448,51.2258231534219],[17.8884659501424,51.2259016850365],[17.887712036741,51.2260869517545],[17.8876881868896,51.2261218071596],[17.8876294272025,51.2260300604136]]]},"properties":{"case_id":"ST-WK-KE/ZGŁOSZENIE/1601/2026","source_type":"zgloszenie","received_date":"2026-04-23","decision_date":null,"status":"Brak sprzeciwu","description":"budowa elektroenergetycznej linii kablowej nn-0,4kV i szafki pomiarowej nn-0,4kV w celu zasilania w energię elek. bud. mieszk. jednorodzinnego","address":"Nowa Wieś Książęca","city":"Nowa Wieś Książęca","office":"Starosta Powiatu Kępno","case_kind":"budowa nowego/nowych obiektów budowlanych","parcel_ids":["300802_2.0007.535/1","300802_2.0007.535/4"],"location_quality":"dokładny","gunb_url":"https://wyszukiwarka.gunb.gov.pl/","parcel_count":2,"parcel_shard":"x071-y204","parcel_id":"300802_2.0007.535/1","location_source":"powiat kępiński (wfs)"}},{"type":"Feature","id":"ST-WK-KE/ZGŁOSZENIE/1601/2026::300802_2.0007.535/4","geometry":{"type":"Polygon","coordinates":[[[17.8892959354747,51.22604980682],[17.8889756357207,51.2261279795766],[17.8887855342448,51.2258231534219],[17.8891055469608,51.2257445314476],[17.8892959354747,51.22604980682]]]},"properties":{"case_id":"ST-WK-KE/ZGŁOSZENIE/1601/2026","source_type":"zgloszenie","received_date":"2026-04-23","decision_date":null,"status":"Brak sprzeciwu","description":"budowa elektroenergetycznej linii kablowej nn-0,4kV i szafki pomiarowej nn-0,4kV w celu zasilania w energię elek. bud. mieszk. jednorodzinnego","address":"Nowa Wieś Książęca","city":"Nowa Wieś Książęca","office":"Starosta Powiatu Kępno","case_kind":"budowa nowego/nowych obiektów budowlanych","parcel_ids":["300802_2.0007.535/1","300802_2.0007.535/4"],"location_quality":"dokładny","gunb_url":"https://wyszukiwarka.gunb.gov.pl/","parcel_count":2,"parcel_shard":"x071-y204","parcel_id":"300802_2.0007.535/4","location_source":"powiat kępiński (wfs)"}},{"type":"Feature","id":"ST-WK-KE/WNIOSEK/26172/2025::300802_2.0007.535/8","geometry":{"type":"Polygon","coordinates":[[[17.890576837114,51.2257371966359],[17.8902565416952,51.2258153729046],[17.8900652924657,51.2255085701033],[17.8903851576638,51.225429944489],[17.890576837114,51.2257371966359]]]},"properties":{"case_id":"ST-WK-KE/WNIOSEK/26172/2025","source_type":"wniosek_decyzja","received_date":"2025-12-23","decision_date":"2026-02-02","status":"decyzja wydana","description":"budowa budynku mieszkalnego jednorodzinnego","address":"Nowa Wieś Książęca","city":"Nowa Wieś Książęca","office":"Starosta Powiatu Kępno","case_kind":"Budynek mieszkalny jednorodzinny","parcel_ids":["300802_2.0007.535/8"],"location_quality":"dokładny","gunb_url":"https://wyszukiwarka.gunb.gov.pl/","parcel_count":1,"parcel_shard":"x071-y204","parcel_id":"300802_2.0007.535/8","location_source":"powiat kępiński (wfs)"}},{"type":"Feature","id":"ST-WK-KE/WNIOSEK/8579/2026::300802_2.0007.652/13","geometry":{"type":"Polygon","coordinates":[[[17.8790299923344,51.2357836262235],[17.8789017369091,51.23554815542],[17.8791519955608,51.2355092209963],[17.8792802519208,51.2357447814201],[17.8790299923344,51.2357836262235]]]},"properties":{"case_id":"ST-WK-KE/WNIOSEK/8579/2026","source_type":"wniosek_decyzja","received_date":"2026-03-26","decision_date":"2026-04-20","status":"decyzja wydana","description":"budowa budynku mieszkalnego jednorodzinnego dwulokalowego","address":"Nowa Wieś Książęca","city":"Nowa Wieś Książęca","office":"Starosta Powiatu Kępno","case_kind":"Budynek mieszkalny jednorodzinny","parcel_ids":["300802_2.0007.652/13"],"location_quality":"dokładny","gunb_url":"https://wyszukiwarka.gunb.gov.pl/","parcel_count":1,"parcel_shard":"x071-y204","parcel_id":"300802_2.0007.652/13","location_source":"powiat kępiński (wfs)"}},{"type":"Feature","id":"ST-WK-KE/WNIOSEK/3219/2026::300802_2.0007.654/11","geometry":{"type":"Polygon","coordinates":[[[17.8918581654453,51.2339704671086],[17.8918386567471,51.2339244241883],[17.8917235191143,51.233625875052],[17.892204076701,51.2335539552406],[17.8924674562766,51.2338965076674],[17.8918581654453,51.2339704671086]]]},"properties":{"case_id":"ST-WK-KE/WNIOSEK/3219/2026","source_type":"wniosek_decyzja","received_date":"2026-02-17","decision_date":"2026-03-16","status":"decyzja wydana","description":"rozbiórka budynku gospodarczego","address":"Nowa Wieś Książęca","city":"Nowa Wieś Książęca","office":"Starosta Powiatu Kępno","case_kind":"Obiekt budowlany inny niż budynek mieszkalny jednorodzinny","parcel_ids":["300802_2.0007.654/11"],"location_quality":"dokładny","gunb_url":"https://wyszukiwarka.gunb.gov.pl/","parcel_count":1,"parcel_shard":"x071-y204","parcel_id":"300802_2.0007.654/11","location_source":"powiat kępiński (wfs)"}},{"type":"Feature","id":"ST-WK-KE/WNIOSEK/6638/2026::300802_2.0007.747","geometry":{"type":"Polygon","coordinates":[[[17.8894359318081,51.2251007642101],[17.8897543630125,51.2250224086376],[17.8900167733879,51.2254432625624],[17.889698196562,51.2255216187067],[17.889652931132,51.2255327227097],[17.8893796188709,51.2255998840898],[17.8891173563638,51.2251791187789],[17.8893916692749,51.2251116892752],[17.8894359318081,51.2251007642101]]]},"properties":{"case_id":"ST-WK-KE/WNIOSEK/6638/2026","source_type":"wniosek_decyzja","received_date":"2026-04-08","decision_date":"2026-04-29","status":"decyzja wydana","description":"Budynek mieszkalny jednorodzinny","address":"Nowa Wieś Książęca","city":"Nowa Wieś Książęca","office":"Starosta Powiatu Kępno","case_kind":"Budynek mieszkalny jednorodzinny","parcel_ids":["300802_2.0007.747"],"location_quality":"dokładny","gunb_url":"https://wyszukiwarka.gunb.gov.pl/","parcel_count":1,"parcel_shard":"x071-y204","parcel_id":"300802_2.0007.747","location_source":"powiat kępiński (wfs)"}},{"type":"Feature","id":"ST-WK-KE/ZGŁOSZENIE/955/2026::300805_2.0003.2/4","geometry":{"type":"Polygon","coordinates":[[[17.8045860485625,51.2023341808528],[17.8045914458329,51.2019716516352],[17.804996968742,51.2019351124242],[17.8049908368202,51.2023368337576],[17.8045860485625,51.2023341808528]]]},"properties":{"case_id":"ST-WK-KE/ZGŁOSZENIE/955/2026","source_type":"zgloszenie","received_date":"2026-01-13","decision_date":null,"status":"Brak sprzeciwu","description":"budowa elektroenergatycznej linii kablowej nn-0,4kV wraz z budową szafki pomiarowej nn-0,4kV w celu zasilania w energie elektryczną domu jednorodzinnego","address":"Zbyczyna","city":"Zbyczyna","office":"Starosta Powiatu Kępno","case_kind":"budowa nowego/nowych obiektów budowlanych","parcel_ids":["300805_2.0003.2/4","300805_2.0003.2/6","300805_2.0003.3/2","300805_2.0003.3/4"],"location_quality":"dokładny","gunb_url":"https://wyszukiwarka.gunb.gov.pl/","parcel_count":4,"parcel_shard":"x071-y204","parcel_id":"300805_2.0003.2/4","location_source":"powiat kępiński (wfs)"}},{"type":"Feature","id":"ST-WK-KE/ZGŁOSZENIE/955/2026::300805_2.0003.2/6","geometry":{"type":"Polygon","coordinates":[[[17.804996968742,51.2019351124242],[17.8045914458329,51.2019716516352],[17.8041278063838,51.2020133958618],[17.8041278628063,51.2020000918006],[17.8041731012272,51.2019947739366],[17.8044261962142,51.2019676000696],[17.8049546135035,51.2019015117675],[17.8052227700943,51.2018991717335],[17.805222886265,51.2019055543258],[17.8052225273038,51.2019228131736],[17.8051559812491,51.2019252193927],[17.8050360466706,51.2019315818196],[17.804996968742,51.2019351124242]]]},"properties":{"case_id":"ST-WK-KE/ZGŁOSZENIE/955/2026","source_type":"zgloszenie","received_date":"2026-01-13","decision_date":null,"status":"Brak sprzeciwu","description":"budowa elektroenergatycznej linii kablowej nn-0,4kV wraz z budową szafki pomiarowej nn-0,4kV w celu zasilania w energie elektryczną domu jednorodzinnego","address":"Zbyczyna","city":"Zbyczyna","office":"Starosta Powiatu Kępno","case_kind":"budowa nowego/nowych obiektów budowlanych","parcel_ids":["300805_2.0003.2/4","300805_2.0003.2/6","300805_2.0003.3/2","300805_2.0003.3/4"],"location_quality":"dokładny","gunb_url":"https://wyszukiwarka.gunb.gov.pl/","parcel_count":4,"parcel_shard":"x071-y204","parcel_id":"300805_2.0003.2/6","location_source":"powiat kępiński (wfs)"}},{"type":"Feature","id":"ST-WK-KE/ZGŁOSZENIE/955/2026::300805_2.0003.3/2","geometry":{"type":"Polygon","coordinates":[[[17.8053645753563,51.2023393437296],[17.8053712189003,51.2019173074245],[17.8054068532306,51.2019160182921],[17.8057345295136,51.201914854761],[17.8057277261611,51.2023416551453],[17.8053645753563,51.2023393437296]]]},"properties":{"case_id":"ST-WK-KE/ZGŁOSZENIE/955/2026","source_type":"zgloszenie","received_date":"2026-01-13","decision_date":null,"status":"Brak sprzeciwu","description":"budowa elektroenergatycznej linii kablowej nn-0,4kV wraz z budową szafki pomiarowej nn-0,4kV w celu zasilania w energie elektryczną domu jednorodzinnego","address":"Zbyczyna","city":"Zbyczyna","office":"Starosta Powiatu Kępno","case_kind":"budowa nowego/nowych obiektów budowlanych","parcel_ids":["300805_2.0003.2/4","300805_2.0003.2/6","300805_2.0003.3/2","300805_2.0003.3/4"],"location_quality":"dokładny","gunb_url":"https://wyszukiwarka.gunb.gov.pl/","parcel_count":4,"parcel_shard":"x071-y204","parcel_id":"300805_2.0003.3/2","location_source":"powiat kępiński (wfs)"}},{"type":"Feature","id":"ST-WK-KE/ZGŁOSZENIE/955/2026::300805_2.0003.3/4","geometry":{"type":"Polygon","coordinates":[[[17.806209484488,51.2019038662952],[17.8062093021743,51.2019132148594],[17.8060946868952,51.2019136542458],[17.8057345295136,51.201914854761],[17.8054068532306,51.2019160182921],[17.8053712189003,51.2019173074245],[17.8052225273038,51.2019228131736],[17.805222886265,51.2019055543258],[17.8052227700943,51.2018991717335],[17.8062096860377,51.2018899332228],[17.806209484488,51.2019038662952]]]},"properties":{"case_id":"ST-WK-KE/ZGŁOSZENIE/955/2026","source_type":"zgloszenie","received_date":"2026-01-13","decision_date":null,"status":"Brak sprzeciwu","description":"budowa elektroenergatycznej linii kablowej nn-0,4kV wraz z budową szafki pomiarowej nn-0,4kV w celu zasilania w energie elektryczną domu jednorodzinnego","address":"Zbyczyna","city":"Zbyczyna","office":"Starosta Powiatu Kępno","case_kind":"budowa nowego/nowych obiektów budowlanych","parcel_ids":["300805_2.0003.2/4","300805_2.0003.2/6","300805_2.0003.3/2","300805_2.0003.3/4"],"location_quality":"dokładny","gunb_url":"https://wyszukiwarka.gunb.gov.pl/","parcel_count":4,"parcel_shard":"x071-y204","parcel_id":"300805_2.0003.3/4","location_source":"powiat kępiński (wfs)"}},{"type":"Feature","id":"ST-WK-KE/WNIOSEK/10727/2026::300805_2.0004.468","geometry":{"type":"Polygon","coordinates":[[[17.808872615826,51.2113470036278],[17.8089351345373,51.211905952639],[17.807186793774,51.212009618352],[17.8071101502811,51.2114451451149],[17.8077652477411,51.2114102915214],[17.8081976796299,51.2113811310284],[17.808872615826,51.2113470036278]]]},"properties":{"case_id":"ST-WK-KE/WNIOSEK/10727/2026","source_type":"wniosek_decyzja","received_date":"2026-05-29","decision_date":"2026-06-22","status":"decyzja wydana","description":"budowa budynku gospodarczego","address":"Trębaczów","city":"Trębaczów","office":"Starosta Powiatu Kępno","case_kind":"Obiekt budowlany inny niż budynek mieszkalny jednorodzinny","parcel_ids":["300805_2.0004.468"],"location_quality":"dokładny","gunb_url":"https://wyszukiwarka.gunb.gov.pl/","parcel_count":1,"parcel_shard":"x071-y204","parcel_id":"300805_2.0004.468","location_source":"powiat kępiński (wfs)"}},{"type":"Feature","id":"ST-WK-KE/WNIOSEK/11996/2026::300805_2.0004.472/12","geometry":{"type":"Polygon","coordinates":[[[17.8065022177959,51.2099694500336],[17.8065317896624,51.2098795162136],[17.8065369419041,51.209367135638],[17.8067510418172,51.2093999406916],[17.8067455671089,51.2099557389711],[17.8065022177959,51.2099694500336]]]},"properties":{"case_id":"ST-WK-KE/WNIOSEK/11996/2026","source_type":"wniosek_decyzja","received_date":"2026-04-10","decision_date":"2026-06-02","status":"decyzja wydana","description":"budowa budynku mieszkalnego jednorodzinnego oraz bud. gospodarczo-garażowego","address":"Perzów","city":"Perzów","office":"Starosta Powiatu Kępno","case_kind":"Budynek mieszkalny jednorodzinny","parcel_ids":["300805_2.0004.472/12","300805_2.0004.472/8"],"location_quality":"dokładny","gunb_url":"https://wyszukiwarka.gunb.gov.pl/","parcel_count":2,"parcel_shard":"x071-y204","parcel_id":"300805_2.0004.472/12","location_source":"powiat kępiński (wfs)"}},{"type":"Feature","id":"ST-WK-KE/WNIOSEK/11996/2026::300805_2.0004.472/8","geometry":{"type":"Polygon","coordinates":[[[17.8065022177959,51.2099694500336],[17.8058916970177,51.2100037668607],[17.8059289540093,51.2098902940208],[17.8059312958707,51.2092990727978],[17.8059697290079,51.2092801691392],[17.8065369419041,51.209367135638],[17.8065317896624,51.2098795162136],[17.8065022177959,51.2099694500336]]]},"properties":{"case_id":"ST-WK-KE/WNIOSEK/11996/2026","source_type":"wniosek_decyzja","received_date":"2026-04-10","decision_date":"2026-06-02","status":"decyzja wydana","description":"budowa budynku mieszkalnego jednorodzinnego oraz bud. gospodarczo-garażowego","address":"Perzów","city":"Perzów","office":"Starosta Powiatu Kępno","case_kind":"Budynek mieszkalny jednorodzinny","parcel_ids":["300805_2.0004.472/12","300805_2.0004.472/8"],"location_quality":"dokładny","gunb_url":"https://wyszukiwarka.gunb.gov.pl/","parcel_count":2,"parcel_shard":"x071-y204","parcel_id":"300805_2.0004.472/8","location_source":"powiat kępiński (wfs)"}},{"type":"Feature","id":"ST-WK-KE/WNIOSEK/13575/2026::300805_2.0004.88","geometry":{"type":"Polygon","coordinates":[[[17.7985105173526,51.2181653301753],[17.7982167243333,51.2169050675567],[17.7998986413469,51.216686729354],[17.8001924789256,51.2179469878468],[17.7985105173526,51.2181653301753]]]},"properties":{"case_id":"ST-WK-KE/WNIOSEK/13575/2026","source_type":"wniosek_decyzja","received_date":"2026-07-08","decision_date":"2026-08-20","status":"decyzja wydana","description":"Budowa Budynku remizy OSP w Trebaczowie","address":"Trębaczów","city":"Trębaczów","office":"Starosta Powiatu Kępno","case_kind":"Obiekt budowlany inny niż budynek mieszkalny jednorodzinny","parcel_ids":["300805_2.0004.88"],"location_quality":"dokładny","gunb_url":"https://wyszukiwarka.gunb.gov.pl/","parcel_count":1,"parcel_shard":"x071-y204","parcel_id":"300805_2.0004.88","location_source":"powiat kępiński (wfs)"}},{"type":"Feature","id":"ST-WK-KE/WNIOSEK/21738/2025::300806_5.0003.935","geometry":{"type":"Polygon","coordinates":[[[17.8980556732488,51.1971210301288],[17.8980252323362,51.1965873092119],[17.8979479181853,51.1960296358422],[17.8978797409331,51.1956757576847],[17.8977208807941,51.1946016676486],[17.8976823071703,51.1939959350197],[17.9004994494381,51.1936798913227],[17.9008317270921,51.1943189277808],[17.9009077433056,51.1944641129485],[17.9011228023652,51.1949603743743],[17.9015317227515,51.1959621109246],[17.9019241671736,51.1969449932242],[17.9019075929464,51.1969649988123],[17.8980556732488,51.1971210301288]]]},"properties":{"case_id":"ST-WK-KE/WNIOSEK/21738/2025","source_type":"wniosek_decyzja","received_date":"2025-10-23","decision_date":"2025-12-17","status":"decyzja wydana","description":"Budowa budynku magazynowego","address":"Drożki","city":"Drożki","office":"Starosta Powiatu Kępno","case_kind":"Obiekt budowlany inny niż budynek mieszkalny jednorodzinny","parcel_ids":["300806_5.0003.935"],"location_quality":"dokładny","gunb_url":"https://wyszukiwarka.gunb.gov.pl/","parcel_count":1,"parcel_shard":"x071-y204","parcel_id":"300806_5.0003.935","location_source":"powiat kępiński (wfs)"}},{"type":"Feature","id":"PL-WP/ZGŁOSZENIE/2451/2026::300806_5.0010.326","geometry":{"type":"Polygon","coordinates":[[[17.8773216792101,51.1564303565339],[17.8783914142034,51.15709608099],[17.8794155205965,51.157715588227],[17.8795726111954,51.1577753494806],[17.8800888617524,51.1580855630983],[17.8805371786371,51.1583550731802],[17.8808922995519,51.1585672244895],[17.8816572160785,51.1590254690342],[17.8818890208789,51.1591642292441],[17.8824465202537,51.1594973926904],[17.8826755325406,51.1596342490276],[17.8828641694643,51.1597626977953],[17.8832245036458,51.1599601388799],[17.8834640305474,51.1601016903505],[17.8864613815307,51.1618727531639],[17.8868865180848,51.1621221699648],[17.8874635239689,51.1624157792072],[17.8879270801337,51.1626263052771],[17.8882748216736,51.1627841312691],[17.8895513516748,51.1633312664752],[17.8893584482837,51.163467093002],[17.8872321192545,51.1625347986252],[17.8863082226879,51.1620071749673],[17.8848705181186,51.16116787163],[17.883762538288,51.1604957209341],[17.8829434936043,51.1599986920302],[17.8827023337092,51.1598546870501],[17.8818614313931,51.1593525440219],[17.8812661737511,51.1590170817919],[17.8775403826451,51.1567783879626],[17.8773216792101,51.1564303565339]]]},"properties":{"case_id":"PL-WP/ZGŁOSZENIE/2451/2026","source_type":"zgloszenie","received_date":"2026-07-24","decision_date":null,"status":"Brak sprzeciwu","description":"budowa sieci kanalizacji sanitarnej","address":"Zgorzelec","city":"Zgorzelec","office":"Wojewoda Wielkopolski","case_kind":"budowa nowego/nowych obiektów budowlanych","parcel_ids":["300806_5.0010.326"],"location_quality":"dokładny","gunb_url":"https://wyszukiwarka.gunb.gov.pl/","parcel_count":1,"parcel_shard":"x071-y204","parcel_id":"300806_5.0010.326","location_source":"powiat kępiński (wfs)"}},{"type":"Feature","id":"ST-WK-KE/WNIOSEK/4891/2026::300807_2.0006.623/5","geometry":{"type":"Polygon","coordinates":[[[17.9989306490029,51.162324228299],[17.9984397985224,51.1625447949073],[17.9979163339028,51.1627800279972],[17.997343594697,51.1630373965816],[17.996949014278,51.1632147251236],[17.9964573525664,51.1627909470395],[17.9962075387151,51.1625622588744],[17.998190371475,51.161670651247],[17.9989306490029,51.162324228299]]]},"properties":{"case_id":"ST-WK-KE/WNIOSEK/4891/2026","source_type":"wniosek_decyzja","received_date":"2026-03-09","decision_date":"2026-05-22","status":"decyzja wydana","description":"budowa budynku produkcyjno - magazynowego z zapleczem socjalno administracyjnym","address":"Trzcinica","city":"Trzcinica","office":"Starosta Powiatu Kępno","case_kind":"Obiekt budowlany inny niż budynek mieszkalny jednorodzinny","parcel_ids":["300807_2.0006.623/5"],"location_quality":"dokładny","gunb_url":"https://wyszukiwarka.gunb.gov.pl/","parcel_count":1,"parcel_shard":"x071-y204","parcel_id":"300807_2.0006.623/5","location_source":"powiat kępiński (wfs)"}}]}