{"type":"FeatureCollection","features":[{"type":"Feature","id":"ST-WK-SL/WNIOSEK/17766/2025::302303_2.0003.112/11","geometry":{"type":"Polygon","coordinates":[[[18.0891633167245,52.5089151677936],[18.0885694043671,52.5082450729287],[18.089105475851,52.508282327225],[18.0896274663934,52.5082033842434],[18.0898506560669,52.5088019474933],[18.0891633167245,52.5089151677936]]]},"properties":{"case_id":"ST-WK-SL/WNIOSEK/17766/2025","source_type":"wniosek_decyzja","received_date":"2025-08-29","decision_date":"2025-10-01","status":"decyzja wydana","description":"Rozbudowa budynku mieszkalnego o pomieszczenie kotłowni","address":"Linówiec","city":"Linówiec","office":"Starosta Powiatu Słupca","case_kind":"Budynek mieszkalny jednorodzinny","parcel_ids":["302303_2.0003.112/11"],"location_quality":"dokładny","gunb_url":"https://wyszukiwarka.gunb.gov.pl/","parcel_count":1,"parcel_shard":"x072-y210","parcel_id":"302303_2.0003.112/11","location_source":"powiat słupecki (wfs)"}},{"type":"Feature","id":"ST-WK-SL/WNIOSEK/13564/2026::302303_2.0004.43/3","geometry":{"type":"Polygon","coordinates":[[[18.1183937264458,52.5041391274351],[18.1183521282423,52.5040085938616],[18.1182911246943,52.5038176129376],[18.1188726723008,52.5038101619573],[18.118882671794,52.5040774338432],[18.1183937264458,52.5041391274351]]]},"properties":{"case_id":"ST-WK-SL/WNIOSEK/13564/2026","source_type":"wniosek_decyzja","received_date":"2026-07-15","decision_date":"2026-07-28","status":"decyzja wydana","description":"Budowa budynku garażowo - gospodarczego","address":"Orchowo","city":"Orchowo","office":"Starosta Powiatu Słupca","case_kind":"Obiekt budowlany inny niż budynek mieszkalny jednorodzinny","parcel_ids":["302303_2.0004.43/3"],"location_quality":"dokładny","gunb_url":"https://wyszukiwarka.gunb.gov.pl/","parcel_count":1,"parcel_shard":"x072-y210","parcel_id":"302303_2.0004.43/3","location_source":"powiat słupecki (wfs)"}},{"type":"Feature","id":"ST-WK-SL/WNIOSEK/13860/2026::302303_2.0005.183","geometry":{"type":"Polygon","coordinates":[[[18.0194735993124,52.5228223212657],[18.0209582349593,52.522883540514],[18.0209324308774,52.5231527133235],[18.0206126926532,52.5231395581741],[18.0194625176419,52.5230918937472],[18.0194735993124,52.5228223212657]]]},"properties":{"case_id":"ST-WK-SL/WNIOSEK/13860/2026","source_type":"wniosek_decyzja","received_date":"2026-07-20","decision_date":"2026-07-30","status":"decyzja wydana","description":"Rozbudowa budynku mieszkalnego jednorodzinnego","address":"Myślątkowo","city":"Myślątkowo","office":"Starosta Powiatu Słupca","case_kind":"Budynek mieszkalny jednorodzinny","parcel_ids":["302303_2.0005.183"],"location_quality":"dokładny","gunb_url":"https://wyszukiwarka.gunb.gov.pl/","parcel_count":1,"parcel_shard":"x072-y210","parcel_id":"302303_2.0005.183","location_source":"powiat słupecki (wfs)"}},{"type":"Feature","id":"ST-WK-SL/WNIOSEK/25111/2025::302303_2.0006.156","geometry":{"type":"Polygon","coordinates":[[[18.0103197387593,52.5101822582861],[18.0106636035655,52.5092539322983],[18.0112515972634,52.50921532245],[18.0112493822572,52.5091934835835],[18.0112888577363,52.5091948279158],[18.0112959277945,52.5091943778775],[18.0113953847884,52.5093207294216],[18.0115725760262,52.5104213836146],[18.0115095323847,52.5104232770896],[18.0111731030025,52.5104328358382],[18.0109891477507,52.5105199397332],[18.0109337002086,52.5102666835238],[18.0103197387593,52.5101822582861]]]},"properties":{"case_id":"ST-WK-SL/WNIOSEK/25111/2025","source_type":"wniosek_decyzja","received_date":"2025-12-10","decision_date":"2026-05-11","status":"decyzja wydana","description":"Budowa hali magazynowej","address":"Orchowo","city":"Orchowo","office":"Starosta Powiatu Słupca","case_kind":"Obiekt budowlany inny niż budynek mieszkalny jednorodzinny","parcel_ids":["302303_2.0006.156"],"location_quality":"dokładny","gunb_url":"https://wyszukiwarka.gunb.gov.pl/","parcel_count":1,"parcel_shard":"x072-y210","parcel_id":"302303_2.0006.156","location_source":"powiat słupecki (wfs)"}},{"type":"Feature","id":"ST-WK-SL/WNIOSEK/13579/2026::302303_2.0006.557/11","geometry":{"type":"Polygon","coordinates":[[[18.036500954045,52.5032753598794],[18.0361082842623,52.5034558182807],[18.0358509027128,52.5032471938263],[18.0362435672694,52.5030667317804],[18.036500954045,52.5032753598794]]]},"properties":{"case_id":"ST-WK-SL/WNIOSEK/13579/2026","source_type":"wniosek_decyzja","received_date":"2026-07-15","decision_date":"2026-08-21","status":"decyzja wydana","description":"Budynek garażowy","address":"Orchowo","city":"Orchowo","office":"Starosta Powiatu Słupca","case_kind":"Obiekt budowlany inny niż budynek mieszkalny jednorodzinny","parcel_ids":["302303_2.0006.557/11"],"location_quality":"dokładny","gunb_url":"https://wyszukiwarka.gunb.gov.pl/","parcel_count":1,"parcel_shard":"x072-y210","parcel_id":"302303_2.0006.557/11","location_source":"powiat słupecki (wfs)"}},{"type":"Feature","id":"ST-WK-SL/WNIOSEK/616/2026::302303_2.0006.557/4","geometry":{"type":"Polygon","coordinates":[[[18.0354562177798,52.5033386073632],[18.0352078916485,52.503137511036],[18.0354294346014,52.5030323322917],[18.0356204051218,52.5029431624894],[18.035872406097,52.503147317014],[18.0354562177798,52.5033386073632]]]},"properties":{"case_id":"ST-WK-SL/WNIOSEK/616/2026","source_type":"wniosek_decyzja","received_date":"2026-01-13","decision_date":"2026-04-07","status":"decyzja wydana","description":"Budowa budynku garażowego","address":"Orchowo","city":"Orchowo","office":"Starosta Powiatu Słupca","case_kind":"Obiekt budowlany inny niż budynek mieszkalny jednorodzinny","parcel_ids":["302303_2.0006.557/4"],"location_quality":"dokładny","gunb_url":"https://wyszukiwarka.gunb.gov.pl/","parcel_count":1,"parcel_shard":"x072-y210","parcel_id":"302303_2.0006.557/4","location_source":"powiat słupecki (wfs)"}},{"type":"Feature","id":"ST-WK-SL/WNIOSEK/18380/2025::302303_2.0006.664/4","geometry":{"type":"Polygon","coordinates":[[[18.0131490489186,52.5017879486164],[18.0128599415499,52.5022401307213],[18.012811928986,52.5022336650837],[18.012481732409,52.502188763945],[18.0127954279982,52.5017039562561],[18.0129188481004,52.5017300059764],[18.0131375609338,52.5017849840879],[18.0131490489186,52.5017879486164]]]},"properties":{"case_id":"ST-WK-SL/WNIOSEK/18380/2025","source_type":"wniosek_decyzja","received_date":"2025-09-09","decision_date":"2025-10-16","status":"decyzja wydana","description":"Budowa budynku gospodarczego","address":"Orchowo","city":"Orchowo","office":"Starosta Powiatu Słupca","case_kind":"Obiekt budowlany inny niż budynek mieszkalny jednorodzinny","parcel_ids":["302303_2.0006.664/4"],"location_quality":"dokładny","gunb_url":"https://wyszukiwarka.gunb.gov.pl/","parcel_count":1,"parcel_shard":"x072-y210","parcel_id":"302303_2.0006.664/4","location_source":"powiat słupecki (wfs)"}},{"type":"Feature","id":"ST-WK-SL/WNIOSEK/9143/2026::302303_2.0006.98/5","geometry":{"type":"Polygon","coordinates":[[[18.0170352071544,52.5143174238137],[18.0159539373956,52.5143266516453],[18.0159512120615,52.5141230904173],[18.0168020832094,52.5141189284123],[18.0169259721409,52.5141182816509],[18.0170352071544,52.5143174238137]]]},"properties":{"case_id":"ST-WK-SL/WNIOSEK/9143/2026","source_type":"wniosek_decyzja","received_date":"2026-05-13","decision_date":"2026-08-06","status":"decyzja wydana","description":"Budowa budynku mieszkalnego jednorodzinnego oraz budynku gospodarczo - garażowego","address":"Orchowo","city":"Orchowo","office":"Starosta Powiatu Słupca","case_kind":"Budynek mieszkalny jednorodzinny","parcel_ids":["302303_2.0006.98/5"],"location_quality":"dokładny","gunb_url":"https://wyszukiwarka.gunb.gov.pl/","parcel_count":1,"parcel_shard":"x072-y210","parcel_id":"302303_2.0006.98/5","location_source":"powiat słupecki (wfs)"}}]}