{"type":"FeatureCollection","features":[{"type":"Feature","id":"ST-WK-KE/WNIOSEK/21700/2025::300801_2.0006.939/3","geometry":{"type":"Polygon","coordinates":[[[18.0149824241113,51.2314327216009],[18.0150819012287,51.2308953321681],[18.0153148777682,51.2309753061392],[18.0152682603877,51.2311524002244],[18.0152525376861,51.2312338447716],[18.0152231143027,51.2314503094503],[18.0149824241113,51.2314327216009]]]},"properties":{"case_id":"ST-WK-KE/WNIOSEK/21700/2025","source_type":"wniosek_decyzja","received_date":"2025-10-14","decision_date":"2025-12-17","status":"decyzja wydana","description":"budowa budynku mieszkalnego jednorodzinnego","address":"Joanka","city":"Joanka","office":"Starosta Powiatu Kępno","case_kind":"Budynek mieszkalny jednorodzinny","parcel_ids":["300801_2.0006.939/3"],"location_quality":"dokładny","gunb_url":"https://wyszukiwarka.gunb.gov.pl/","parcel_count":1,"parcel_shard":"x072-y204","parcel_id":"300801_2.0006.939/3","location_source":"powiat kępiński (wfs)"}},{"type":"Feature","id":"ST-WK-KE/ZGŁOSZENIE/544/2026::300801_2.0008.1198/1","geometry":{"type":"Polygon","coordinates":[[[18.0417434362768,51.2351676465129],[18.04179415706,51.234885995755],[18.0421760678015,51.2349111185112],[18.0421659569344,51.2349719792599],[18.0421681049523,51.2349721582707],[18.0421597022415,51.2350219616467],[18.0421604182756,51.2350220512811],[18.0421342304439,51.2351963619293],[18.0420972847224,51.2351936784529],[18.0417434362768,51.2351676465129]]]},"properties":{"case_id":"ST-WK-KE/ZGŁOSZENIE/544/2026","source_type":"zgloszenie","received_date":"2025-10-24","decision_date":null,"status":"Brak sprzeciwu","description":"budowa energetycznej sieci kablowej niskiego napięcia","address":"Słupia pod Kępnem","city":"Słupia pod Kępnem","office":"Starosta Powiatu Kępno","case_kind":"budowa nowego/nowych obiektów budowlanych","parcel_ids":["300801_2.0008.1198/1","300801_2.0008.1200/3"],"location_quality":"dokładny","gunb_url":"https://wyszukiwarka.gunb.gov.pl/","parcel_count":2,"parcel_shard":"x072-y204","parcel_id":"300801_2.0008.1198/1","location_source":"powiat kępiński (wfs)"}},{"type":"Feature","id":"ST-WK-KE/ZGŁOSZENIE/544/2026::300801_2.0008.1200/3","geometry":{"type":"Polygon","coordinates":[[[18.0411021223276,51.2376209445794],[18.0411508643565,51.2373610488489],[18.0412058783126,51.2370695986832],[18.0412651198077,51.2367361484055],[18.0412752689324,51.2366826777859],[18.0413041003069,51.2365298438347],[18.0413329601688,51.2363771016604],[18.0413618198256,51.2362243594841],[18.0413906792916,51.2360716172876],[18.0414195385811,51.2359188750891],[18.0414483976654,51.2357661328705],[18.0414772565732,51.2356133906498],[18.0415061152759,51.235460648409],[18.0415349737878,51.2353079061662],[18.0415638321232,51.2351551639033],[18.0415926902534,51.2350024216382],[18.0416215482071,51.2348496793532],[18.0416504059558,51.234696937066],[18.0416792635136,51.2345441947587],[18.0417081208949,51.2343914524494],[18.0417369780711,51.23423871012],[18.0417658350708,51.2340859677885],[18.0417947255961,51.2339330468987],[18.0420186062028,51.232605166789],[18.0420982508216,51.231977167504],[18.0421262845173,51.2317561172988],[18.0421817404387,51.2313486177383],[18.0421937406808,51.2312246131075],[18.042221809604,51.2308629886515],[18.0422624017111,51.2302114246577],[18.0422680642349,51.2296721580751],[18.0422702923879,51.2294475161354],[18.0422726636098,51.229222784243],[18.0422751372123,51.228953555557],[18.0422807553632,51.2285224294638],[18.0422819574036,51.2284280419804],[18.0422724315122,51.2280317995832],[18.042267819784,51.227842397886],[18.0422514504188,51.2271643451009],[18.0422394853942,51.2266654826106],[18.0424260691062,51.2266340627769],[18.0424297750973,51.2267874514376],[18.0424364663487,51.2270580252915],[18.0424604140799,51.2280339788503],[18.0424688089735,51.2283739791771],[18.0424932395891,51.2285436570193],[18.0425403593524,51.2288723764982],[18.0425391047065,51.2289091429545],[18.0425226106305,51.2294204205742],[18.0425100160918,51.229659215836],[18.0425012755869,51.2300791859944],[18.0425013693385,51.2302197880146],[18.0424758973352,51.2303896938962],[18.0424556410418,51.2306264778174],[18.0424623911414,51.2308213779159],[18.0424203650102,51.2310343323871],[18.0424165447399,51.2310838644773],[18.0424053672628,51.2312292245161],[18.0424020944779,51.2312513392284],[18.042377335291,51.2314189075981],[18.0423508683299,51.2315979828003],[18.0423245442617,51.2317769680469],[18.0422980768087,51.2319559533338],[18.0422716091508,51.2321349386093],[18.0422407219877,51.2323350501748],[18.042209834475,51.232535071833],[18.0422015789703,51.2325887405515],[18.0421974571717,51.2326220921045],[18.0421649932749,51.232821035601],[18.0420924818359,51.2332254874156],[18.042022537306,51.2336198702926],[18.0420201153431,51.2336332651219],[18.0419973229194,51.2337621789276],[18.0419880645603,51.2338157580871],[18.0419571555883,51.2339944751501],[18.0419259598382,51.2341730125174],[18.0418803627071,51.2344186147075],[18.0418795076563,51.2344231096302],[18.0418255015542,51.2347124923622],[18.04179415706,51.234885995755],[18.0417434362768,51.2351676465129],[18.0416851603996,51.2354876839465],[18.0416558081003,51.2356485117529],[18.0415956788989,51.235978977283],[18.0415549266662,51.2362021943632],[18.0415514218616,51.2363117398113],[18.0415425531987,51.2363611248481],[18.0415085300069,51.2364464854459],[18.0415050455684,51.2364654167333],[18.0414557408859,51.2367333132657],[18.0414212559072,51.2369208408087],[18.0412898677401,51.2376345421314],[18.0411021223276,51.2376209445794]]]},"properties":{"case_id":"ST-WK-KE/ZGŁOSZENIE/544/2026","source_type":"zgloszenie","received_date":"2025-10-24","decision_date":null,"status":"Brak sprzeciwu","description":"budowa energetycznej sieci kablowej niskiego napięcia","address":"Słupia pod Kępnem","city":"Słupia pod Kępnem","office":"Starosta Powiatu Kępno","case_kind":"budowa nowego/nowych obiektów budowlanych","parcel_ids":["300801_2.0008.1198/1","300801_2.0008.1200/3"],"location_quality":"dokładny","gunb_url":"https://wyszukiwarka.gunb.gov.pl/","parcel_count":2,"parcel_shard":"x072-y204","parcel_id":"300801_2.0008.1200/3","location_source":"powiat kępiński (wfs)"}},{"type":"Feature","id":"ST-WK-KE/WNIOSEK/4889/2026::300801_2.0008.1198/2","geometry":{"type":"Polygon","coordinates":[[[18.0421342304439,51.2351963619293],[18.0421604182756,51.2350220512811],[18.0421597022415,51.2350219616467],[18.0421681049523,51.2349721582707],[18.0421659569344,51.2349719792599],[18.0421760678015,51.2349111185112],[18.04179415706,51.234885995755],[18.0418255015542,51.2347124923622],[18.0441347378377,51.2348826196405],[18.043705574469,51.2353118367435],[18.0431372089884,51.2352700678701],[18.0427903762351,51.2352445758635],[18.0424436870555,51.2352190827771],[18.0421342304439,51.2351963619293]]]},"properties":{"case_id":"ST-WK-KE/WNIOSEK/4889/2026","source_type":"wniosek_decyzja","received_date":"2026-03-09","decision_date":"2026-04-14","status":"decyzja wydana","description":"rozbudowa budynku magazynowego","address":"Słupia pod Kępnem","city":"Słupia pod Kępnem","office":"Starosta Powiatu Kępno","case_kind":"Obiekt budowlany inny niż budynek mieszkalny jednorodzinny","parcel_ids":["300801_2.0008.1198/2"],"location_quality":"dokładny","gunb_url":"https://wyszukiwarka.gunb.gov.pl/","parcel_count":1,"parcel_shard":"x072-y204","parcel_id":"300801_2.0008.1198/2","location_source":"powiat kępiński (wfs)"}},{"type":"Feature","id":"ST-WK-KE/WNIOSEK/10740/2026::300801_2.0008.1199/21","geometry":{"type":"Polygon","coordinates":[[[18.0424436870555,51.2352190827771],[18.0427903762351,51.2352445758635],[18.0427218429005,51.2356134290879],[18.0423747228138,51.2355894641251],[18.0424436870555,51.2352190827771]]]},"properties":{"case_id":"ST-WK-KE/WNIOSEK/10740/2026","source_type":"wniosek_decyzja","received_date":"2026-06-01","decision_date":"2026-06-24","status":"decyzja wydana","description":"budowa budynku mieszkalnego jednorodzinnego","address":"Słupia pod Kępnem","city":"Słupia pod Kępnem","office":"Starosta Powiatu Kępno","case_kind":"Budynek mieszkalny jednorodzinny","parcel_ids":["300801_2.0008.1199/21"],"location_quality":"dokładny","gunb_url":"https://wyszukiwarka.gunb.gov.pl/","parcel_count":1,"parcel_shard":"x072-y204","parcel_id":"300801_2.0008.1199/21","location_source":"powiat kępiński (wfs)"}},{"type":"Feature","id":"ST-WK-KE/WNIOSEK/14617/2026::300801_2.0008.1257/3","geometry":{"type":"Polygon","coordinates":[[[18.0343643017965,51.2410209540532],[18.0344682189486,51.2409505378819],[18.0348271806941,51.2406776985898],[18.0349836167885,51.24055872451],[18.0352656138796,51.2403992609493],[18.0353977447702,51.2403350380063],[18.0368750860562,51.239820937634],[18.0378257657499,51.2406202258093],[18.0378995154658,51.240617415295],[18.0382399201152,51.2409624907748],[18.0384914076076,51.2413208985668],[18.0377457362003,51.2418739785661],[18.0371127940814,51.2421185978904],[18.036412216631,51.2412343683337],[18.0355649773018,51.2414063229691],[18.0352581103714,51.2416363601118],[18.0350259997803,51.2416816455824],[18.0343643017965,51.2410209540532]]]},"properties":{"case_id":"ST-WK-KE/WNIOSEK/14617/2026","source_type":"wniosek_decyzja","received_date":"2026-07-20","decision_date":"2026-08-07","status":"decyzja wydana","description":"Rozbiórka części zabudowań gospodarczych","address":"Słupia pod Kępnem","city":"Słupia pod Kępnem","office":"Starosta Powiatu Kępno","case_kind":"Obiekt budowlany inny niż budynek mieszkalny jednorodzinny","parcel_ids":["300801_2.0008.1257/3"],"location_quality":"dokładny","gunb_url":"https://wyszukiwarka.gunb.gov.pl/","parcel_count":1,"parcel_shard":"x072-y204","parcel_id":"300801_2.0008.1257/3","location_source":"powiat kępiński (wfs)"}},{"type":"Feature","id":"ST-WK-KE/WNIOSEK/1893/2026::300801_2.0008.1263/1","geometry":{"type":"Polygon","coordinates":[[[18.0558982649282,51.236095903673],[18.0560834992082,51.2360478125717],[18.0565922580425,51.2368582165419],[18.0562508431942,51.2369467452428],[18.0559087110516,51.2370352732889],[18.0558652419156,51.2369687737413],[18.0561677206894,51.2368904226857],[18.0563649826083,51.2368392690357],[18.0564130100556,51.2367685905486],[18.0562066939586,51.2364399536363],[18.0560092759508,51.2361254251781],[18.0558982649282,51.236095903673]]]},"properties":{"case_id":"ST-WK-KE/WNIOSEK/1893/2026","source_type":"wniosek_decyzja","received_date":"2025-10-03","decision_date":"2025-12-05","status":"decyzja wydana","description":"rozbudowa sieci wodociagowej oraz kanalizacji sanitarnej wraz z odcinkami do granic działek przebiegającymi w pasie drogowym","address":"Słupia pod Kępnem","city":"Słupia pod Kępnem","office":"Starosta Powiatu Kępno","case_kind":"Obiekt budowlany inny niż budynek mieszkalny jednorodzinny","parcel_ids":["300801_2.0008.1263/1","300801_2.0008.856"],"location_quality":"dokładny","gunb_url":"https://wyszukiwarka.gunb.gov.pl/","parcel_count":2,"parcel_shard":"x072-y204","parcel_id":"300801_2.0008.1263/1","location_source":"powiat kępiński (wfs)"}},{"type":"Feature","id":"ST-WK-KE/WNIOSEK/1893/2026::300801_2.0008.856","geometry":{"type":"Polygon","coordinates":[[[18.0555517836095,51.2351842009198],[18.0560834992082,51.2360478125717],[18.0558982649282,51.236095903673],[18.0557253411317,51.2361408423896],[18.0556856889187,51.2361511988763],[18.0553836450489,51.2362306271989],[18.0550421020081,51.236319038659],[18.0547005576575,51.2364074491306],[18.0543590120114,51.2364958585957],[18.0540201360577,51.2365856198874],[18.0536771454354,51.2366761194429],[18.053338447885,51.2367653575434],[18.0530060415929,51.236847580214],[18.0526641911651,51.2369368177881],[18.0523143445288,51.2370309148172],[18.0519730453693,51.2371199676419],[18.0516321924274,51.2372084196914],[18.0512910581184,51.2372974174152],[18.0509500533447,51.237385608652],[18.0506166395758,51.2374711419911],[18.0502756388937,51.2375601924265],[18.0499364977942,51.2376486118276],[18.0492514835437,51.2378275180327],[18.0489106205981,51.2379163846427],[18.0486102708472,51.2379948059364],[18.0484117072417,51.23804657629],[18.0481076336251,51.2381259866472],[18.0477637598999,51.2382156601802],[18.0474118689313,51.238308572071],[18.0472961939224,51.2383389125645],[18.0470677067315,51.2383988729187],[18.0469086511609,51.2384388489376],[18.046732560393,51.2384847644324],[18.0463886814984,51.2385746137061],[18.0460436557396,51.2386645523114],[18.0458652730916,51.2387115461083],[18.0456800173641,51.2387595311302],[18.0453869579938,51.2388359636651],[18.0453261125954,51.2388518082809],[18.0451470122155,51.2388985315826],[18.0449732086528,51.2389439041909],[18.0446168673015,51.2390368992681],[18.0442598085834,51.2391299834224],[18.043949707585,51.2392109134091],[18.0439262556163,51.2392459801942],[18.0438224643134,51.2391281703408],[18.0438827654908,51.239141451805],[18.0441729657544,51.2390655634732],[18.0445036813667,51.2389792315212],[18.0448348253477,51.2388928984692],[18.0451626744395,51.2388065657504],[18.0454948193349,51.2387212192573],[18.04582553027,51.2386351532435],[18.0461694110739,51.2385456651937],[18.046512861393,51.2384566257645],[18.0468550218527,51.2383678555192],[18.0470205154809,51.2383222137733],[18.0472024749974,51.2382747673087],[18.0475423444487,51.2381887826356],[18.0478892217765,51.2380954229403],[18.0481931520866,51.2380157435323],[18.0483858483026,51.2379674817738],[18.048689633522,51.23788762135],[18.0490330728299,51.2377974059196],[18.049389824424,51.2377035881722],[18.0497335478724,51.2376138200249],[18.0500779856804,51.2375237808842],[18.050421849843,51.2374341904369],[18.0507624225872,51.2373477466355],[18.0511079988891,51.2372549173043],[18.0514518589448,51.2371652339359],[18.0517961468492,51.2370751897972],[18.0521400041243,51.2369854145131],[18.0524837167619,51.2368955483897],[18.0528280008432,51.2368056809976],[18.0531717109035,51.2367159027443],[18.0535155629249,51.2366262133075],[18.053568529127,51.2366123456648],[18.0538585545431,51.2365366131473],[18.0542024036801,51.2364467419064],[18.0545461083884,51.2363569596134],[18.0548899550593,51.2362672661353],[18.0552282219629,51.2361826981401],[18.0555717807028,51.236093901715],[18.0558805462579,51.2360085368034],[18.0559048452364,51.2359722985973],[18.0554256716621,51.2352168916188],[18.0555517836095,51.2351842009198]]]},"properties":{"case_id":"ST-WK-KE/WNIOSEK/1893/2026","source_type":"wniosek_decyzja","received_date":"2025-10-03","decision_date":"2025-12-05","status":"decyzja wydana","description":"rozbudowa sieci wodociagowej oraz kanalizacji sanitarnej wraz z odcinkami do granic działek przebiegającymi w pasie drogowym","address":"Słupia pod Kępnem","city":"Słupia pod Kępnem","office":"Starosta Powiatu Kępno","case_kind":"Obiekt budowlany inny niż budynek mieszkalny jednorodzinny","parcel_ids":["300801_2.0008.1263/1","300801_2.0008.856"],"location_quality":"dokładny","gunb_url":"https://wyszukiwarka.gunb.gov.pl/","parcel_count":2,"parcel_shard":"x072-y204","parcel_id":"300801_2.0008.856","location_source":"powiat kępiński (wfs)"}},{"type":"Feature","id":"ST-WK-KE/ZGŁOSZENIE/952/2026::300801_2.0008.446/1","geometry":{"type":"Polygon","coordinates":[[[18.0849090517863,51.2490150245149],[18.0838903619836,51.249166867624],[18.0835398187994,51.2492190759527],[18.0831892749824,51.2492713731237],[18.0830980588901,51.2492849217274],[18.0825457835564,51.2493860815252],[18.0824918021781,51.2493962773863],[18.082213441494,51.2494458239817],[18.0817785722576,51.2495226267723],[18.0810044819847,51.2496604940602],[18.0809496026784,51.2496703428473],[18.0808318278072,51.2497264063408],[18.080415020991,51.2497980120043],[18.0798578741586,51.2499052751193],[18.0799204617341,51.250066588743],[18.0797446760065,51.2500792312653],[18.0796413579255,51.2498440108379],[18.0798157102546,51.249792309491],[18.0816380975569,51.2494639353759],[18.0825370386841,51.2493018587745],[18.0830623966383,51.2492071903513],[18.0844317744608,51.2490030545011],[18.0848795439108,51.2489363004106],[18.0849090517863,51.2490150245149]]]},"properties":{"case_id":"ST-WK-KE/ZGŁOSZENIE/952/2026","source_type":"zgloszenie","received_date":"2025-12-22","decision_date":null,"status":"Brak sprzeciwu","description":"budowa elektroenergetycznej linii kablowej nn-0,4kV wraz z budową szafki pomiarowej","address":"Młynarka","city":"Młynarka","office":"Starosta Powiatu Kępno","case_kind":"budowa nowego/nowych obiektów budowlanych","parcel_ids":["300801_2.0008.446/1","300801_2.0008.447/1","300801_2.0008.448"],"location_quality":"dokładny","gunb_url":"https://wyszukiwarka.gunb.gov.pl/","parcel_count":3,"parcel_shard":"x072-y204","parcel_id":"300801_2.0008.446/1","location_source":"powiat kępiński (wfs)"}},{"type":"Feature","id":"ST-WK-KE/ZGŁOSZENIE/952/2026::300801_2.0008.447/1","geometry":{"type":"Polygon","coordinates":[[[18.0831892749824,51.2492713731237],[18.0835398187994,51.2492190759527],[18.0836096523753,51.249578235008],[18.0832591059076,51.2496305323861],[18.0831892749824,51.2492713731237]]]},"properties":{"case_id":"ST-WK-KE/ZGŁOSZENIE/952/2026","source_type":"zgloszenie","received_date":"2025-12-22","decision_date":null,"status":"Brak sprzeciwu","description":"budowa elektroenergetycznej linii kablowej nn-0,4kV wraz z budową szafki pomiarowej","address":"Młynarka","city":"Młynarka","office":"Starosta Powiatu Kępno","case_kind":"budowa nowego/nowych obiektów budowlanych","parcel_ids":["300801_2.0008.446/1","300801_2.0008.447/1","300801_2.0008.448"],"location_quality":"dokładny","gunb_url":"https://wyszukiwarka.gunb.gov.pl/","parcel_count":3,"parcel_shard":"x072-y204","parcel_id":"300801_2.0008.447/1","location_source":"powiat kępiński (wfs)"}},{"type":"Feature","id":"ST-WK-KE/ZGŁOSZENIE/952/2026::300801_2.0008.448","geometry":{"type":"Polygon","coordinates":[[[18.0830980588901,51.2492849217274],[18.0831936236716,51.2497762940588],[18.0832349205341,51.2505271038178],[18.083001662097,51.2505358073873],[18.0826734034882,51.2497042095614],[18.0825457835564,51.2493860815252],[18.0830980588901,51.2492849217274]]]},"properties":{"case_id":"ST-WK-KE/ZGŁOSZENIE/952/2026","source_type":"zgloszenie","received_date":"2025-12-22","decision_date":null,"status":"Brak sprzeciwu","description":"budowa elektroenergetycznej linii kablowej nn-0,4kV wraz z budową szafki pomiarowej","address":"Młynarka","city":"Młynarka","office":"Starosta Powiatu Kępno","case_kind":"budowa nowego/nowych obiektów budowlanych","parcel_ids":["300801_2.0008.446/1","300801_2.0008.447/1","300801_2.0008.448"],"location_quality":"dokładny","gunb_url":"https://wyszukiwarka.gunb.gov.pl/","parcel_count":3,"parcel_shard":"x072-y204","parcel_id":"300801_2.0008.448","location_source":"powiat kępiński (wfs)"}},{"type":"Feature","id":"ST-WK-KE/ZGŁOSZENIE/1403/2026::300801_2.0008.505/12","geometry":{"type":"Polygon","coordinates":[[[18.0744934410577,51.2491487738406],[18.0748391854962,51.2492227143142],[18.074807635069,51.2496401934636],[18.0744581030822,51.2496175837068],[18.0744934410577,51.2491487738406]]]},"properties":{"case_id":"ST-WK-KE/ZGŁOSZENIE/1403/2026","source_type":"zgloszenie","received_date":"2026-04-13","decision_date":null,"status":"Brak sprzeciwu","description":"budowa i przebudowa elektroenergetycznej linii kablowej nn - 0,4kV, rozdzielnicy szafowej nn - 0,4kV oraz szafki pomiarowej nn-0,4kV w celu zasilania w energię elektryczną budynku jednorodzinnego","address":"Słupia pod Kępnem","city":"Słupia pod Kępnem","office":"Starosta Powiatu Kępno","case_kind":"budowa nowego/nowych obiektów budowlanych","parcel_ids":["300801_2.0008.505/12","300801_2.0008.506"],"location_quality":"dokładny","gunb_url":"https://wyszukiwarka.gunb.gov.pl/","parcel_count":2,"parcel_shard":"x072-y204","parcel_id":"300801_2.0008.505/12","location_source":"powiat kępiński (wfs)"}},{"type":"Feature","id":"ST-WK-KE/ZGŁOSZENIE/1403/2026::300801_2.0008.506","geometry":{"type":"Polygon","coordinates":[[[18.0797446760065,51.2500792312653],[18.0796734760506,51.2502064494341],[18.0794801817939,51.2501677474395],[18.0787891350676,51.2500301016509],[18.0786062775632,51.2499925085466],[18.0784115481755,51.2499544961216],[18.0782166851411,51.2499151926111],[18.0776031395736,51.2497928083215],[18.0775535636812,51.2497832227195],[18.0774266126865,51.2497572380417],[18.0770044943827,51.2496707705825],[18.0767216501544,51.2496127960977],[18.0763545556212,51.2495376166253],[18.075756775714,51.2494151224769],[18.0753330876456,51.2493283803267],[18.0748391854962,51.2492227143142],[18.0744934410577,51.2491487738406],[18.0724963691319,51.2487214220029],[18.0709380637655,51.2483942704119],[18.0705846650998,51.2482710621363],[18.0692710313996,51.2477565851213],[18.0691686727927,51.2477567713159],[18.066300970731,51.2465089671761],[18.066187197665,51.2464608942192],[18.0651691464737,51.2460552731426],[18.0633376362999,51.2455191194065],[18.0628812048452,51.2453844985434],[18.0620673292663,51.2451444461662],[18.0612516216171,51.2449038450533],[18.0609245114245,51.2448073578413],[18.0608470868789,51.2447860216611],[18.0608103978444,51.2446854276427],[18.0612282788289,51.2448075998192],[18.0620298363931,51.2450419387079],[18.0628427912003,51.2452809433416],[18.0633032190188,51.2454163031768],[18.0653799474703,51.2460039007667],[18.0674003280219,51.2468286024395],[18.0692374308146,51.2476620744255],[18.0693175225076,51.2476967121792],[18.06948916052,51.2477709409709],[18.0713676002195,51.248425416834],[18.0714840373693,51.2484493922044],[18.0741313941611,51.2489948656497],[18.0754164527822,51.2492422998931],[18.0759688045503,51.2493529595123],[18.0762232741212,51.2494039427118],[18.0767717612078,51.2495138819196],[18.0797446760065,51.2500792312653]]]},"properties":{"case_id":"ST-WK-KE/ZGŁOSZENIE/1403/2026","source_type":"zgloszenie","received_date":"2026-04-13","decision_date":null,"status":"Brak sprzeciwu","description":"budowa i przebudowa elektroenergetycznej linii kablowej nn - 0,4kV, rozdzielnicy szafowej nn - 0,4kV oraz szafki pomiarowej nn-0,4kV w celu zasilania w energię elektryczną budynku jednorodzinnego","address":"Słupia pod Kępnem","city":"Słupia pod Kępnem","office":"Starosta Powiatu Kępno","case_kind":"budowa nowego/nowych obiektów budowlanych","parcel_ids":["300801_2.0008.505/12","300801_2.0008.506"],"location_quality":"dokładny","gunb_url":"https://wyszukiwarka.gunb.gov.pl/","parcel_count":2,"parcel_shard":"x072-y204","parcel_id":"300801_2.0008.506","location_source":"powiat kępiński (wfs)"}},{"type":"Feature","id":"ST-WK-KE/WNIOSEK/3215/2026::300801_2.0008.505/7","geometry":{"type":"Polygon","coordinates":[[[18.075756775714,51.2494151224769],[18.0756803719889,51.2504260985438],[18.0753307157894,51.2504190428078],[18.0753387309768,51.250327617383],[18.0752577985183,51.2503257817061],[18.0753308458248,51.249358945089],[18.0753330876456,51.2493283803267],[18.075756775714,51.2494151224769]]]},"properties":{"case_id":"ST-WK-KE/WNIOSEK/3215/2026","source_type":"wniosek_decyzja","received_date":"2026-02-17","decision_date":"2026-03-10","status":"decyzja wydana","description":"budowa budynku gospodarczego","address":"Młynarka","city":"Młynarka","office":"Starosta Powiatu Kępno","case_kind":"Obiekt budowlany inny niż budynek mieszkalny jednorodzinny","parcel_ids":["300801_2.0008.505/7"],"location_quality":"dokładny","gunb_url":"https://wyszukiwarka.gunb.gov.pl/","parcel_count":1,"parcel_shard":"x072-y204","parcel_id":"300801_2.0008.505/7","location_source":"powiat kępiński (wfs)"}},{"type":"Feature","id":"ST-WK-KE/WNIOSEK/3218/2026::300801_2.0008.505/7","geometry":{"type":"Polygon","coordinates":[[[18.075756775714,51.2494151224769],[18.0756803719889,51.2504260985438],[18.0753307157894,51.2504190428078],[18.0753387309768,51.250327617383],[18.0752577985183,51.2503257817061],[18.0753308458248,51.249358945089],[18.0753330876456,51.2493283803267],[18.075756775714,51.2494151224769]]]},"properties":{"case_id":"ST-WK-KE/WNIOSEK/3218/2026","source_type":"wniosek_decyzja","received_date":"2026-02-17","decision_date":"2026-03-10","status":"decyzja wydana","description":"budowa budynku mieszkalnego jednorodzinnego","address":"Młynarka","city":"Młynarka","office":"Starosta Powiatu Kępno","case_kind":"Budynek mieszkalny jednorodzinny","parcel_ids":["300801_2.0008.505/7"],"location_quality":"dokładny","gunb_url":"https://wyszukiwarka.gunb.gov.pl/","parcel_count":1,"parcel_shard":"x072-y204","parcel_id":"300801_2.0008.505/7","location_source":"powiat kępiński (wfs)"}},{"type":"Feature","id":"ST-WK-KE/WNIOSEK/3886/2026::300804_2.0003.380","geometry":{"type":"Polygon","coordinates":[[[18.096194207435,51.2176206464307],[18.0961868329185,51.2170309025885],[18.0965649190173,51.2170302428349],[18.0965702732782,51.2176054453413],[18.096194207435,51.2176206464307]]]},"properties":{"case_id":"ST-WK-KE/WNIOSEK/3886/2026","source_type":"wniosek_decyzja","received_date":"2026-02-23","decision_date":"2026-04-16","status":"decyzja wydana","description":"budowa budynku legalizacji wodomierzy z zagospodarowaniem terenu oraz niezbędną infrastrukturą techniczną","address":"Łęka Opatowska","city":"Łęka Opatowska","office":"Starosta Powiatu Kępno","case_kind":"Obiekt budowlany inny niż budynek mieszkalny jednorodzinny","parcel_ids":["300804_2.0003.380","300804_2.0003.381/4"],"location_quality":"dokładny","gunb_url":"https://wyszukiwarka.gunb.gov.pl/","parcel_count":2,"parcel_shard":"x072-y204","parcel_id":"300804_2.0003.380","location_source":"powiat kępiński (wfs)"}},{"type":"Feature","id":"ST-WK-KE/WNIOSEK/3886/2026::300804_2.0003.381/4","geometry":{"type":"Polygon","coordinates":[[[18.0957981305544,51.2170030981284],[18.0961590078656,51.2169968952155],[18.0961514773197,51.2168877419981],[18.096145532001,51.2166956689939],[18.0957935591502,51.2166980767454],[18.0957869210026,51.2163170135935],[18.0957857407136,51.2162927513051],[18.0961520216147,51.2162901688824],[18.0961569426953,51.2165555340666],[18.0965601502455,51.2165571751257],[18.0965649190173,51.2170302428349],[18.0961868329185,51.2170309025885],[18.095797711858,51.2170358318193],[18.0957981305544,51.2170030981284]]]},"properties":{"case_id":"ST-WK-KE/WNIOSEK/3886/2026","source_type":"wniosek_decyzja","received_date":"2026-02-23","decision_date":"2026-04-16","status":"decyzja wydana","description":"budowa budynku legalizacji wodomierzy z zagospodarowaniem terenu oraz niezbędną infrastrukturą techniczną","address":"Łęka Opatowska","city":"Łęka Opatowska","office":"Starosta Powiatu Kępno","case_kind":"Obiekt budowlany inny niż budynek mieszkalny jednorodzinny","parcel_ids":["300804_2.0003.380","300804_2.0003.381/4"],"location_quality":"dokładny","gunb_url":"https://wyszukiwarka.gunb.gov.pl/","parcel_count":2,"parcel_shard":"x072-y204","parcel_id":"300804_2.0003.381/4","location_source":"powiat kępiński (wfs)"}},{"type":"Feature","id":"ST-WK-KE/WNIOSEK/21065/2025::300804_2.0003.402/7","geometry":{"type":"Polygon","coordinates":[[[18.1003951057705,51.2128706406052],[18.100418051403,51.2128632811715],[18.100565323628,51.2128160713641],[18.1008533459393,51.2127237091796],[18.1011035139225,51.2130672625889],[18.1006468471392,51.2132001323115],[18.1004835419083,51.2129865510448],[18.1003951057705,51.2128706406052]]]},"properties":{"case_id":"ST-WK-KE/WNIOSEK/21065/2025","source_type":"wniosek_decyzja","received_date":"2025-10-10","decision_date":"2025-12-08","status":"decyzja wydana","description":"Rozbudowa z przebudową budynku strażaka - rolnika w Łęce Opatowskiej oraz wykonanie utwardzeń terenów","address":"Łęka Opatowska","city":"Łęka Opatowska","office":"Starosta Powiatu Kępno","case_kind":"Obiekt budowlany inny niż budynek mieszkalny jednorodzinny","parcel_ids":["300804_2.0003.402/7"],"location_quality":"dokładny","gunb_url":"https://wyszukiwarka.gunb.gov.pl/","parcel_count":1,"parcel_shard":"x072-y204","parcel_id":"300804_2.0003.402/7","location_source":"powiat kępiński (wfs)"}},{"type":"Feature","id":"ST-WK-KE/WNIOSEK/19839/2025::300804_2.0003.423/1","geometry":{"type":"Polygon","coordinates":[[[18.1093695669344,51.212061974552],[18.1094072601084,51.2117822830891],[18.1094339816597,51.2115835952004],[18.1095035973937,51.2110660176785],[18.1097275798885,51.2110081866462],[18.1098723391036,51.2109591969537],[18.1097241253343,51.2120797334195],[18.1093695669344,51.212061974552]]]},"properties":{"case_id":"ST-WK-KE/WNIOSEK/19839/2025","source_type":"wniosek_decyzja","received_date":"2025-09-23","decision_date":"2025-11-24","status":"decyzja wydana","description":"Budowa budynku gospodarczo-garażowego wraz z niezbędną infrastrukturą towarzyszacą","address":"Kościelna, Łęka Opatowska","city":"Łęka Opatowska","office":"Starosta Powiatu Kępno","case_kind":"Obiekt budowlany inny niż budynek mieszkalny jednorodzinny","parcel_ids":["300804_2.0003.423/1"],"location_quality":"dokładny","gunb_url":"https://wyszukiwarka.gunb.gov.pl/","parcel_count":1,"parcel_shard":"x072-y204","parcel_id":"300804_2.0003.423/1","location_source":"powiat kępiński (wfs)"}},{"type":"Feature","id":"ST-WK-KE/WNIOSEK/26174/2025::300804_2.0003.493","geometry":{"type":"Polygon","coordinates":[[[18.100128482383,51.2205005574836],[18.1001042014196,51.2192450673284],[18.1000900522981,51.2185580296696],[18.1000878308357,51.2184501603524],[18.1005749200351,51.2184460853869],[18.1011789476521,51.2184409356456],[18.1015176065459,51.2184381353832],[18.102293967295,51.2184314976013],[18.1026832952827,51.2184282526033],[18.102703329333,51.2194592283542],[18.1027163392816,51.2201354004231],[18.1027202450245,51.2203438626181],[18.10267922655,51.220373857327],[18.1020631455645,51.2204020004544],[18.1002020248489,51.2204868376226],[18.100128482383,51.2205005574836]]]},"properties":{"case_id":"ST-WK-KE/WNIOSEK/26174/2025","source_type":"wniosek_decyzja","received_date":"2025-12-23","decision_date":"2026-02-20","status":"decyzja wydana","description":"Budowa dwóch budynków gospodarczych na płody rolne","address":"Słoneczna, Łęka Opatowska","city":"Łęka Opatowska","office":"Starosta Powiatu Kępno","case_kind":"Obiekt budowlany inny niż budynek mieszkalny jednorodzinny","parcel_ids":["300804_2.0003.493"],"location_quality":"dokładny","gunb_url":"https://wyszukiwarka.gunb.gov.pl/","parcel_count":1,"parcel_shard":"x072-y204","parcel_id":"300804_2.0003.493","location_source":"powiat kępiński (wfs)"}},{"type":"Feature","id":"ST-WK-KE/WNIOSEK/18581/2025::300804_2.0003.536/2","geometry":{"type":"Polygon","coordinates":[[[18.0963018061413,51.2241510688473],[18.0963172914754,51.2237512141778],[18.0957104473956,51.2237473971596],[18.0957147941685,51.2235654511368],[18.0962516296505,51.2235676177684],[18.0968397151243,51.2235700092221],[18.0978876182964,51.223574261365],[18.0978876771264,51.2236278665841],[18.0978847937654,51.2238166306392],[18.0978795327111,51.2241550401138],[18.096819126438,51.2241523487407],[18.0964806102937,51.2241517306224],[18.0963018061413,51.2241510688473]]]},"properties":{"case_id":"ST-WK-KE/WNIOSEK/18581/2025","source_type":"wniosek_decyzja","received_date":"2025-09-01","decision_date":"2025-12-02","status":"decyzja wydana","description":"rozbudowa istniejącej hali magaynowo-produkcyjnej o łącznik","address":"Łęka Opatowska","city":"Łęka Opatowska","office":"Starosta Powiatu Kępno","case_kind":"Obiekt budowlany inny niż budynek mieszkalny jednorodzinny","parcel_ids":["300804_2.0003.536/2","300804_2.0003.606"],"location_quality":"dokładny","gunb_url":"https://wyszukiwarka.gunb.gov.pl/","parcel_count":2,"parcel_shard":"x072-y204","parcel_id":"300804_2.0003.536/2","location_source":"powiat kępiński (wfs)"}},{"type":"Feature","id":"ST-WK-KE/WNIOSEK/18581/2025::300804_2.0003.606","geometry":{"type":"Polygon","coordinates":[[[18.0978795327111,51.2241550401138],[18.0978847937654,51.2238166306392],[18.0978876771264,51.2236278665841],[18.0978876182964,51.223574261365],[18.0978955724049,51.2230048754227],[18.0979001766703,51.2226784717674],[18.0982716922463,51.222680607866],[18.0985387888914,51.2226833293969],[18.0985350795116,51.2229574148692],[18.0985242491824,51.2237603510313],[18.0985110708917,51.224655962591],[18.0978713436095,51.2246807755411],[18.0964787203489,51.2247335708137],[18.0964811043716,51.2243880576365],[18.0964806102937,51.2241517306224],[18.096819126438,51.2241523487407],[18.0978795327111,51.2241550401138]]]},"properties":{"case_id":"ST-WK-KE/WNIOSEK/18581/2025","source_type":"wniosek_decyzja","received_date":"2025-09-01","decision_date":"2025-12-02","status":"decyzja wydana","description":"rozbudowa istniejącej hali magaynowo-produkcyjnej o łącznik","address":"Łęka Opatowska","city":"Łęka Opatowska","office":"Starosta Powiatu Kępno","case_kind":"Obiekt budowlany inny niż budynek mieszkalny jednorodzinny","parcel_ids":["300804_2.0003.536/2","300804_2.0003.606"],"location_quality":"dokładny","gunb_url":"https://wyszukiwarka.gunb.gov.pl/","parcel_count":2,"parcel_shard":"x072-y204","parcel_id":"300804_2.0003.606","location_source":"powiat kępiński (wfs)"}},{"type":"Feature","id":"ST-WK-KE/WNIOSEK/18579/2025::300804_2.0003.537/1","geometry":{"type":"Polygon","coordinates":[[[18.0957147941685,51.2235654511368],[18.0957245627363,51.2231677586026],[18.0962371800397,51.2231600569259],[18.0962516296505,51.2235676177684],[18.0957147941685,51.2235654511368]]]},"properties":{"case_id":"ST-WK-KE/WNIOSEK/18579/2025","source_type":"wniosek_decyzja","received_date":"2025-09-01","decision_date":"2025-12-02","status":"decyzja wydana","description":"Budowa podziemnego zbiornika wody przeciwpożarowej","address":"Kępińska, Łęka Opatowska","city":"Łęka Opatowska","office":"Starosta Powiatu Kępno","case_kind":"Obiekt budowlany inny niż budynek mieszkalny jednorodzinny","parcel_ids":["300804_2.0003.537/1"],"location_quality":"dokładny","gunb_url":"https://wyszukiwarka.gunb.gov.pl/","parcel_count":1,"parcel_shard":"x072-y204","parcel_id":"300804_2.0003.537/1","location_source":"powiat kępiński (wfs)"}},{"type":"Feature","id":"ST-WK-KE/WNIOSEK/2825/2026::300804_2.0005.1030","geometry":{"type":"Polygon","coordinates":[[[18.1529122978575,51.2147610814879],[18.1535327169612,51.2131039968429],[18.1535718918493,51.2129993621733],[18.1538895672108,51.2121555491268],[18.1539643049933,51.2120878800676],[18.1554788087761,51.2123803378298],[18.1550981521952,51.2133958929168],[18.1544997789593,51.2149954834067],[18.1529122978575,51.2147610814879]]]},"properties":{"case_id":"ST-WK-KE/WNIOSEK/2825/2026","source_type":"wniosek_decyzja","received_date":"2026-02-09","decision_date":"2026-03-12","status":"decyzja wydana","description":"budowa dwóch silosów zbożowych","address":"Opatów","city":"Opatów","office":"Starosta Powiatu Kępno","case_kind":"Obiekt budowlany inny niż budynek mieszkalny jednorodzinny","parcel_ids":["300804_2.0005.1030"],"location_quality":"dokładny","gunb_url":"https://wyszukiwarka.gunb.gov.pl/","parcel_count":1,"parcel_shard":"x072-y204","parcel_id":"300804_2.0005.1030","location_source":"powiat kępiński (wfs)"}},{"type":"Feature","id":"ST-WK-KE/WNIOSEK/23959/2025::300804_2.0005.1186/6","geometry":{"type":"Polygon","coordinates":[[[18.1541885451587,51.1987004394515],[18.1551393545109,51.1988004063228],[18.1549573737513,51.2005107706984],[18.1549308852899,51.2007613373473],[18.1548202194371,51.2018100846397],[18.1543561224679,51.2017909212903],[18.1540886568963,51.2043536704556],[18.1542990449968,51.204364989419],[18.154277551187,51.2045703330566],[18.1537296893073,51.2045003083684],[18.1536600910738,51.2048282390354],[18.1536596281368,51.2050761641373],[18.1535332196525,51.2050601493385],[18.1541885451587,51.1987004394515]]]},"properties":{"case_id":"ST-WK-KE/WNIOSEK/23959/2025","source_type":"wniosek_decyzja","received_date":"2025-11-25","decision_date":"2026-01-07","status":"decyzja wydana","description":"rozbudowa budynku produkcyjno - magazynowego  z częścią biurowo-socjalną wraz z infrastukturą","address":"Opatów","city":"Opatów","office":"Starosta Powiatu Kępno","case_kind":"Obiekt budowlany inny niż budynek mieszkalny jednorodzinny","parcel_ids":["300804_2.0005.1186/6","300804_2.0005.1187/15","300804_2.0005.1187/17","300804_2.0005.1188/4","300804_2.0005.1317"],"location_quality":"dokładny","gunb_url":"https://wyszukiwarka.gunb.gov.pl/","parcel_count":5,"parcel_shard":"x072-y204","parcel_id":"300804_2.0005.1186/6","location_source":"powiat kępiński (wfs)"}},{"type":"Feature","id":"ST-WK-KE/WNIOSEK/23959/2025::300804_2.0005.1187/15","geometry":{"type":"Polygon","coordinates":[[[18.1546313835833,51.2036169117397],[18.1546370214818,51.2035632491012],[18.1547106918256,51.2028583806671],[18.1559903855749,51.2029104377682],[18.155909809521,51.2036687017216],[18.1557320026108,51.2053408558539],[18.1556148784796,51.2053261739472],[18.1555403116305,51.2053164801534],[18.1557307748284,51.2036612992203],[18.1546313835833,51.2036169117397]]]},"properties":{"case_id":"ST-WK-KE/WNIOSEK/23959/2025","source_type":"wniosek_decyzja","received_date":"2025-11-25","decision_date":"2026-01-07","status":"decyzja wydana","description":"rozbudowa budynku produkcyjno - magazynowego  z częścią biurowo-socjalną wraz z infrastukturą","address":"Opatów","city":"Opatów","office":"Starosta Powiatu Kępno","case_kind":"Obiekt budowlany inny niż budynek mieszkalny jednorodzinny","parcel_ids":["300804_2.0005.1186/6","300804_2.0005.1187/15","300804_2.0005.1187/17","300804_2.0005.1188/4","300804_2.0005.1317"],"location_quality":"dokładny","gunb_url":"https://wyszukiwarka.gunb.gov.pl/","parcel_count":5,"parcel_shard":"x072-y204","parcel_id":"300804_2.0005.1187/15","location_source":"powiat kępiński (wfs)"}},{"type":"Feature","id":"ST-WK-KE/WNIOSEK/23959/2025::300804_2.0005.1187/17","geometry":{"type":"Polygon","coordinates":[[[18.1547106918256,51.2028583806671],[18.1547963719424,51.2020379048036],[18.1548202194371,51.2018100846397],[18.1549308852899,51.2007613373473],[18.1567495999722,51.200836852441],[18.156597053715,51.2022663539513],[18.1564339513046,51.2037927735396],[18.1563514324723,51.2045672209974],[18.1563402014459,51.2046734893659],[18.1562861305558,51.2051866700227],[18.1562626944587,51.205407568057],[18.1557320026108,51.2053408558539],[18.155909809521,51.2036687017216],[18.1559903855749,51.2029104377682],[18.1547106918256,51.2028583806671]]]},"properties":{"case_id":"ST-WK-KE/WNIOSEK/23959/2025","source_type":"wniosek_decyzja","received_date":"2025-11-25","decision_date":"2026-01-07","status":"decyzja wydana","description":"rozbudowa budynku produkcyjno - magazynowego  z częścią biurowo-socjalną wraz z infrastukturą","address":"Opatów","city":"Opatów","office":"Starosta Powiatu Kępno","case_kind":"Obiekt budowlany inny niż budynek mieszkalny jednorodzinny","parcel_ids":["300804_2.0005.1186/6","300804_2.0005.1187/15","300804_2.0005.1187/17","300804_2.0005.1188/4","300804_2.0005.1317"],"location_quality":"dokładny","gunb_url":"https://wyszukiwarka.gunb.gov.pl/","parcel_count":5,"parcel_shard":"x072-y204","parcel_id":"300804_2.0005.1187/17","location_source":"powiat kępiński (wfs)"}},{"type":"Feature","id":"ST-WK-KE/WNIOSEK/23959/2025::300804_2.0005.1188/4","geometry":{"type":"Polygon","coordinates":[[[18.1563402014459,51.2046734893659],[18.1563514324723,51.2045672209974],[18.1564339513046,51.2037927735396],[18.156597053715,51.2022663539513],[18.1567495999722,51.200836852441],[18.1567600762619,51.2007381975645],[18.1569460617763,51.1989860531359],[18.1578954233146,51.199079613048],[18.1573100220071,51.2046059386465],[18.1572983678703,51.2047133762832],[18.1563402014459,51.2046734893659]]]},"properties":{"case_id":"ST-WK-KE/WNIOSEK/23959/2025","source_type":"wniosek_decyzja","received_date":"2025-11-25","decision_date":"2026-01-07","status":"decyzja wydana","description":"rozbudowa budynku produkcyjno - magazynowego  z częścią biurowo-socjalną wraz z infrastukturą","address":"Opatów","city":"Opatów","office":"Starosta Powiatu Kępno","case_kind":"Obiekt budowlany inny niż budynek mieszkalny jednorodzinny","parcel_ids":["300804_2.0005.1186/6","300804_2.0005.1187/15","300804_2.0005.1187/17","300804_2.0005.1188/4","300804_2.0005.1317"],"location_quality":"dokładny","gunb_url":"https://wyszukiwarka.gunb.gov.pl/","parcel_count":5,"parcel_shard":"x072-y204","parcel_id":"300804_2.0005.1188/4","location_source":"powiat kępiński (wfs)"}},{"type":"Feature","id":"ST-WK-KE/WNIOSEK/23959/2025::300804_2.0005.1317","geometry":{"type":"Polygon","coordinates":[[[18.1553780351176,51.2048833908666],[18.1553862624924,51.2048189076519],[18.1547486211436,51.2047704577214],[18.1546915810787,51.2052080756783],[18.1544678777341,51.2051789650746],[18.1545152065871,51.2047315241694],[18.1542613245847,51.2047247004889],[18.154277551187,51.2045703330566],[18.1542990449968,51.204364989419],[18.1540886568963,51.2043536704556],[18.1543561224679,51.2017909212903],[18.1548202194371,51.2018100846397],[18.1547963719424,51.2020379048036],[18.1547106918256,51.2028583806671],[18.1546370214818,51.2035632491012],[18.1546313835833,51.2036169117397],[18.1557307748284,51.2036612992203],[18.1555403116305,51.2053164801534],[18.1553971314577,51.2052982820522],[18.1553353281005,51.2052903461934],[18.1553780351176,51.2048833908666]]]},"properties":{"case_id":"ST-WK-KE/WNIOSEK/23959/2025","source_type":"wniosek_decyzja","received_date":"2025-11-25","decision_date":"2026-01-07","status":"decyzja wydana","description":"rozbudowa budynku produkcyjno - magazynowego  z częścią biurowo-socjalną wraz z infrastukturą","address":"Opatów","city":"Opatów","office":"Starosta Powiatu Kępno","case_kind":"Obiekt budowlany inny niż budynek mieszkalny jednorodzinny","parcel_ids":["300804_2.0005.1186/6","300804_2.0005.1187/15","300804_2.0005.1187/17","300804_2.0005.1188/4","300804_2.0005.1317"],"location_quality":"dokładny","gunb_url":"https://wyszukiwarka.gunb.gov.pl/","parcel_count":5,"parcel_shard":"x072-y204","parcel_id":"300804_2.0005.1317","location_source":"powiat kępiński (wfs)"}},{"type":"Feature","id":"ST-WK-KE/WNIOSEK/6678/2026::300804_2.0005.743/3","geometry":{"type":"Polygon","coordinates":[[[18.1553612281112,51.2325135567835],[18.155120324432,51.2323223155198],[18.1551046251013,51.2322522202258],[18.1551651516616,51.231985069574],[18.1554772418891,51.2320143199387],[18.1553612281112,51.2325135567835]]]},"properties":{"case_id":"ST-WK-KE/WNIOSEK/6678/2026","source_type":"wniosek_decyzja","received_date":"2026-01-28","decision_date":"2026-03-03","status":"decyzja wydana","description":"budowa budynku mieszkalnego jednorodzinnego","address":"Opatów","city":"Opatów","office":"Starosta Powiatu Kępno","case_kind":"Budynek mieszkalny jednorodzinny","parcel_ids":["300804_2.0005.743/3"],"location_quality":"dokładny","gunb_url":"https://wyszukiwarka.gunb.gov.pl/","parcel_count":1,"parcel_shard":"x072-y204","parcel_id":"300804_2.0005.743/3","location_source":"powiat kępiński (wfs)"}},{"type":"Feature","id":"ST-WK-KE/WNIOSEK/22711/2025::300804_2.0006.136/1","geometry":{"type":"Polygon","coordinates":[[[18.0757166980575,51.2302408588202],[18.0756990072436,51.2301919687906],[18.0756808903331,51.2301451465589],[18.0757680606872,51.2301308871618],[18.0757375952684,51.2300624987518],[18.0756047541365,51.2299032053809],[18.0757966073456,51.2298156159754],[18.0757811281495,51.2298056479399],[18.0758800915434,51.2297368161237],[18.0760036026891,51.2299683887488],[18.0760962424276,51.2301678567902],[18.0761026016974,51.2301815492301],[18.0759107569982,51.230211034046],[18.0757166980575,51.2302408588202]]]},"properties":{"case_id":"ST-WK-KE/WNIOSEK/22711/2025","source_type":"wniosek_decyzja","received_date":"2025-11-03","decision_date":"2026-01-01","status":"decyzja wydana","description":"Rozbudowa i nadbudowa budynku mieszkalnego jednorodzinnego z garażem","address":"Piaski","city":"Piaski","office":"Starosta Powiatu Kępno","case_kind":"Budynek mieszkalny jednorodzinny","parcel_ids":["300804_2.0006.136/1"],"location_quality":"dokładny","gunb_url":"https://wyszukiwarka.gunb.gov.pl/","parcel_count":1,"parcel_shard":"x072-y204","parcel_id":"300804_2.0006.136/1","location_source":"powiat kępiński (wfs)"}},{"type":"Feature","id":"ST-WK-KE/WNIOSEK/11542/2026::300804_2.0006.181/5","geometry":{"type":"Polygon","coordinates":[[[18.0852448819329,51.231087566027],[18.085142278887,51.2308850232265],[18.0873515425827,51.2304486756158],[18.0883651653691,51.2303398640796],[18.0885061121792,51.2307165748715],[18.0886123121863,51.2310492429817],[18.085439458338,51.2314726130929],[18.0852448819329,51.231087566027]]]},"properties":{"case_id":"ST-WK-KE/WNIOSEK/11542/2026","source_type":"wniosek_decyzja","received_date":"2026-02-04","decision_date":"2026-05-18","status":"decyzja wydana","description":"budowa budynku przepompowni ze zbiornikami wody","address":"Piaski","city":"Piaski","office":"Starosta Powiatu Kępno","case_kind":"Obiekt budowlany inny niż budynek mieszkalny jednorodzinny","parcel_ids":["300804_2.0006.181/5","300804_2.0006.217"],"location_quality":"dokładny","gunb_url":"https://wyszukiwarka.gunb.gov.pl/","parcel_count":2,"parcel_shard":"x072-y204","parcel_id":"300804_2.0006.181/5","location_source":"powiat kępiński (wfs)"}},{"type":"Feature","id":"ST-WK-KE/WNIOSEK/11542/2026::300804_2.0006.217","geometry":{"type":"Polygon","coordinates":[[[18.0784753820472,51.2317420426901],[18.0781780112488,51.2312436984702],[18.079491568559,51.2309319658299],[18.0798931600521,51.2308364963476],[18.084546978386,51.2297305169956],[18.0848436683146,51.2302936581041],[18.0850471849762,51.2302506317213],[18.0870830460556,51.2298200782142],[18.0871992492431,51.2300943433723],[18.0873515425827,51.2304486756158],[18.085142278887,51.2308850232265],[18.0852448819329,51.231087566027],[18.0822578617505,51.2317904145749],[18.0819817046149,51.231328291739],[18.0786889013916,51.232099850827],[18.0784753820472,51.2317420426901]]]},"properties":{"case_id":"ST-WK-KE/WNIOSEK/11542/2026","source_type":"wniosek_decyzja","received_date":"2026-02-04","decision_date":"2026-05-18","status":"decyzja wydana","description":"budowa budynku przepompowni ze zbiornikami wody","address":"Piaski","city":"Piaski","office":"Starosta Powiatu Kępno","case_kind":"Obiekt budowlany inny niż budynek mieszkalny jednorodzinny","parcel_ids":["300804_2.0006.181/5","300804_2.0006.217"],"location_quality":"dokładny","gunb_url":"https://wyszukiwarka.gunb.gov.pl/","parcel_count":2,"parcel_shard":"x072-y204","parcel_id":"300804_2.0006.217","location_source":"powiat kępiński (wfs)"}},{"type":"Feature","id":"ST-WK-KE/WNIOSEK/21727/2025::300804_2.0006.184/2","geometry":{"type":"Polygon","coordinates":[[[18.082171925081,51.2298209974688],[18.0829020549638,51.2296502150117],[18.0836325819268,51.2294793338442],[18.0843154357003,51.2293222128302],[18.084546978386,51.2297305169956],[18.0798931600521,51.2308364963476],[18.0796460216526,51.2304136311052],[18.0820611095505,51.2298469131636],[18.082171925081,51.2298209974688]]]},"properties":{"case_id":"ST-WK-KE/WNIOSEK/21727/2025","source_type":"wniosek_decyzja","received_date":"2025-10-22","decision_date":"2025-12-31","status":"decyzja wydana","description":"Budowa płyty fundamentowej stacji transformatorowej SN/nn, budowa i przebudowa linii  kablowych SN-15kV i nn-0,4kV oraz sterowniczych","address":"Piaski","city":"Piaski","office":"Starosta Powiatu Kępno","case_kind":"Obiekt budowlany inny niż budynek mieszkalny jednorodzinny","parcel_ids":["300804_2.0006.182","300804_2.0006.184/2","300804_2.0006.184/3","300804_2.0006.184/5","300804_2.0006.217"],"location_quality":"dokładny","gunb_url":"https://wyszukiwarka.gunb.gov.pl/","parcel_count":4,"parcel_shard":"x072-y204","parcel_id":"300804_2.0006.184/2","location_source":"powiat kępiński (wfs)"}},{"type":"Feature","id":"ST-WK-KE/WNIOSEK/21727/2025::300804_2.0006.184/3","geometry":{"type":"Polygon","coordinates":[[[18.0792368452924,51.230509284667],[18.0796460216526,51.2304136311052],[18.0798931600521,51.2308364963476],[18.079491568559,51.2309319658299],[18.0792368452924,51.230509284667]]]},"properties":{"case_id":"ST-WK-KE/WNIOSEK/21727/2025","source_type":"wniosek_decyzja","received_date":"2025-10-22","decision_date":"2025-12-31","status":"decyzja wydana","description":"Budowa płyty fundamentowej stacji transformatorowej SN/nn, budowa i przebudowa linii  kablowych SN-15kV i nn-0,4kV oraz sterowniczych","address":"Piaski","city":"Piaski","office":"Starosta Powiatu Kępno","case_kind":"Obiekt budowlany inny niż budynek mieszkalny jednorodzinny","parcel_ids":["300804_2.0006.182","300804_2.0006.184/2","300804_2.0006.184/3","300804_2.0006.184/5","300804_2.0006.217"],"location_quality":"dokładny","gunb_url":"https://wyszukiwarka.gunb.gov.pl/","parcel_count":4,"parcel_shard":"x072-y204","parcel_id":"300804_2.0006.184/3","location_source":"powiat kępiński (wfs)"}},{"type":"Feature","id":"ST-WK-KE/WNIOSEK/21727/2025::300804_2.0006.184/5","geometry":{"type":"Polygon","coordinates":[[[18.0781780112488,51.2312436984702],[18.0779230041913,51.23081643015],[18.07871488902,51.2306313511716],[18.0792368452924,51.230509284667],[18.079491568559,51.2309319658299],[18.0781780112488,51.2312436984702]]]},"properties":{"case_id":"ST-WK-KE/WNIOSEK/21727/2025","source_type":"wniosek_decyzja","received_date":"2025-10-22","decision_date":"2025-12-31","status":"decyzja wydana","description":"Budowa płyty fundamentowej stacji transformatorowej SN/nn, budowa i przebudowa linii  kablowych SN-15kV i nn-0,4kV oraz sterowniczych","address":"Piaski","city":"Piaski","office":"Starosta Powiatu Kępno","case_kind":"Obiekt budowlany inny niż budynek mieszkalny jednorodzinny","parcel_ids":["300804_2.0006.182","300804_2.0006.184/2","300804_2.0006.184/3","300804_2.0006.184/5","300804_2.0006.217"],"location_quality":"dokładny","gunb_url":"https://wyszukiwarka.gunb.gov.pl/","parcel_count":4,"parcel_shard":"x072-y204","parcel_id":"300804_2.0006.184/5","location_source":"powiat kępiński (wfs)"}},{"type":"Feature","id":"ST-WK-KE/WNIOSEK/21727/2025::300804_2.0006.217","geometry":{"type":"Polygon","coordinates":[[[18.0784753820472,51.2317420426901],[18.0781780112488,51.2312436984702],[18.079491568559,51.2309319658299],[18.0798931600521,51.2308364963476],[18.084546978386,51.2297305169956],[18.0848436683146,51.2302936581041],[18.0850471849762,51.2302506317213],[18.0870830460556,51.2298200782142],[18.0871992492431,51.2300943433723],[18.0873515425827,51.2304486756158],[18.085142278887,51.2308850232265],[18.0852448819329,51.231087566027],[18.0822578617505,51.2317904145749],[18.0819817046149,51.231328291739],[18.0786889013916,51.232099850827],[18.0784753820472,51.2317420426901]]]},"properties":{"case_id":"ST-WK-KE/WNIOSEK/21727/2025","source_type":"wniosek_decyzja","received_date":"2025-10-22","decision_date":"2025-12-31","status":"decyzja wydana","description":"Budowa płyty fundamentowej stacji transformatorowej SN/nn, budowa i przebudowa linii  kablowych SN-15kV i nn-0,4kV oraz sterowniczych","address":"Piaski","city":"Piaski","office":"Starosta Powiatu Kępno","case_kind":"Obiekt budowlany inny niż budynek mieszkalny jednorodzinny","parcel_ids":["300804_2.0006.182","300804_2.0006.184/2","300804_2.0006.184/3","300804_2.0006.184/5","300804_2.0006.217"],"location_quality":"dokładny","gunb_url":"https://wyszukiwarka.gunb.gov.pl/","parcel_count":4,"parcel_shard":"x072-y204","parcel_id":"300804_2.0006.217","location_source":"powiat kępiński (wfs)"}},{"type":"Feature","id":"ST-WK-KE/WNIOSEK/23482/2025::300804_2.0008.236/2","geometry":{"type":"Polygon","coordinates":[[[18.1474563630309,51.1835673533082],[18.1474526321241,51.1838109692142],[18.1469517269462,51.183806569734],[18.1469572699794,51.1836084120868],[18.1464802948621,51.1836035082767],[18.1464722465385,51.183558828444],[18.1469555953157,51.1835623200693],[18.1474563630309,51.1835673533082]]]},"properties":{"case_id":"ST-WK-KE/WNIOSEK/23482/2025","source_type":"wniosek_decyzja","received_date":"2025-10-30","decision_date":"2025-12-18","status":"decyzja wydana","description":"budowa budynku handlowo-usługowego wraz z niezbędną infrastrukturą techniczną","address":"Siemianice","city":"Siemianice","office":"Starosta Powiatu Kępno","case_kind":"Obiekt budowlany inny niż budynek mieszkalny jednorodzinny","parcel_ids":["300804_2.0008.236/2","300804_2.0008.236/4"],"location_quality":"dokładny","gunb_url":"https://wyszukiwarka.gunb.gov.pl/","parcel_count":2,"parcel_shard":"x072-y204","parcel_id":"300804_2.0008.236/2","location_source":"powiat kępiński (wfs)"}},{"type":"Feature","id":"ST-WK-KE/WNIOSEK/23482/2025::300804_2.0008.236/4","geometry":{"type":"Polygon","coordinates":[[[18.1474526321241,51.1838109692142],[18.1474563630309,51.1835673533082],[18.1481470822544,51.1835743014828],[18.1481419959965,51.1838170195042],[18.1474526321241,51.1838109692142]]]},"properties":{"case_id":"ST-WK-KE/WNIOSEK/23482/2025","source_type":"wniosek_decyzja","received_date":"2025-10-30","decision_date":"2025-12-18","status":"decyzja wydana","description":"budowa budynku handlowo-usługowego wraz z niezbędną infrastrukturą techniczną","address":"Siemianice","city":"Siemianice","office":"Starosta Powiatu Kępno","case_kind":"Obiekt budowlany inny niż budynek mieszkalny jednorodzinny","parcel_ids":["300804_2.0008.236/2","300804_2.0008.236/4"],"location_quality":"dokładny","gunb_url":"https://wyszukiwarka.gunb.gov.pl/","parcel_count":2,"parcel_shard":"x072-y204","parcel_id":"300804_2.0008.236/4","location_source":"powiat kępiński (wfs)"}},{"type":"Feature","id":"ST-WK-KE/WNIOSEK/6632/2026::300804_2.0008.264","geometry":{"type":"Polygon","coordinates":[[[18.1475508207954,51.1892330085848],[18.1474920907266,51.1889359062803],[18.1490383153789,51.1889428464278],[18.1580970042593,51.1890128220677],[18.1585203466806,51.189307086399],[18.1574980793704,51.1892979895799],[18.1486235682781,51.1892380435388],[18.1485493237537,51.1892373287821],[18.1484466115206,51.1892362905258],[18.148405126152,51.1892358936845],[18.1475508207954,51.1892330085848]]]},"properties":{"case_id":"ST-WK-KE/WNIOSEK/6632/2026","source_type":"wniosek_decyzja","received_date":"2026-04-08","decision_date":"2026-05-06","status":"decyzja wydana","description":"rozbiórka budynku gospodarczego","address":"Siemianice","city":"Siemianice","office":"Starosta Powiatu Kępno","case_kind":"Obiekt budowlany inny niż budynek mieszkalny jednorodzinny","parcel_ids":["300804_2.0008.264"],"location_quality":"dokładny","gunb_url":"https://wyszukiwarka.gunb.gov.pl/","parcel_count":1,"parcel_shard":"x072-y204","parcel_id":"300804_2.0008.264","location_source":"powiat kępiński (wfs)"}},{"type":"Feature","id":"ST-WK-KE/WNIOSEK/14138/2026::300804_2.0010.342/2","geometry":{"type":"Polygon","coordinates":[[[18.1360453120899,51.2063889181917],[18.135820365692,51.206392145947],[18.1359274456931,51.2053847725098],[18.1361361595848,51.2053135145556],[18.1360453120899,51.2063889181917]]]},"properties":{"case_id":"ST-WK-KE/WNIOSEK/14138/2026","source_type":"wniosek_decyzja","received_date":"2025-10-24","decision_date":"2026-04-29","status":"decyzja wydana","description":"budowa hali magazynowo-usługowej oraz łącznika z istn. budynkiem","address":"Szalonka","city":"Szalonka","office":"Starosta Powiatu Kępno","case_kind":"Obiekt budowlany inny niż budynek mieszkalny jednorodzinny","parcel_ids":["300804_2.0010.342/2","300804_2.0010.344"],"location_quality":"dokładny","gunb_url":"https://wyszukiwarka.gunb.gov.pl/","parcel_count":2,"parcel_shard":"x072-y204","parcel_id":"300804_2.0010.342/2","location_source":"powiat kępiński (wfs)"}},{"type":"Feature","id":"ST-WK-KE/WNIOSEK/14138/2026::300804_2.0010.344","geometry":{"type":"Polygon","coordinates":[[[18.136339659623,51.2063846203477],[18.1360453120899,51.2063889181917],[18.1361361595848,51.2053135145556],[18.1364648303007,51.2052077773406],[18.136339659623,51.2063846203477]]]},"properties":{"case_id":"ST-WK-KE/WNIOSEK/14138/2026","source_type":"wniosek_decyzja","received_date":"2025-10-24","decision_date":"2026-04-29","status":"decyzja wydana","description":"budowa hali magazynowo-usługowej oraz łącznika z istn. budynkiem","address":"Szalonka","city":"Szalonka","office":"Starosta Powiatu Kępno","case_kind":"Obiekt budowlany inny niż budynek mieszkalny jednorodzinny","parcel_ids":["300804_2.0010.342/2","300804_2.0010.344"],"location_quality":"dokładny","gunb_url":"https://wyszukiwarka.gunb.gov.pl/","parcel_count":2,"parcel_shard":"x072-y204","parcel_id":"300804_2.0010.344","location_source":"powiat kępiński (wfs)"}},{"type":"Feature","id":"ST-WK-KE/WNIOSEK/2830/2026::300804_2.0011.401/2","geometry":{"type":"Polygon","coordinates":[[[18.1066571599219,51.2245097700319],[18.1066767262898,51.2251988653998],[18.1078267960632,51.2251284804665],[18.1077534620744,51.2261820078313],[18.1084874307445,51.2262030003225],[18.1083728715506,51.2277804205634],[18.1082505760379,51.2294634044],[18.1082240526509,51.2298578080993],[18.1077117509124,51.2298141133488],[18.1073352072413,51.229705939868],[18.1068644773887,51.2296341377088],[18.1067440202708,51.2295678668422],[18.1066443155294,51.2294132871603],[18.1065479719969,51.2293670131274],[18.1063044970882,51.2293347417204],[18.106031104747,51.2293086015534],[18.1056484834264,51.2293828584752],[18.1053386659309,51.2293602136948],[18.1054638080776,51.2277872407318],[18.1055946250753,51.2261493823712],[18.1057205583334,51.2245436809179],[18.1066571599219,51.2245097700319]]]},"properties":{"case_id":"ST-WK-KE/WNIOSEK/2830/2026","source_type":"wniosek_decyzja","received_date":"2026-02-10","decision_date":"2026-03-25","status":"decyzja wydana","description":"Budowa budynku inwentarskiego  - chlewni oraz biornika na gnojowicę","address":"Trzebień","city":"Trzebień","office":"Starosta Powiatu Kępno","case_kind":"Obiekt budowlany inny niż budynek mieszkalny jednorodzinny","parcel_ids":["300804_2.0011.401/2"],"location_quality":"dokładny","gunb_url":"https://wyszukiwarka.gunb.gov.pl/","parcel_count":1,"parcel_shard":"x072-y204","parcel_id":"300804_2.0011.401/2","location_source":"powiat kępiński (wfs)"}},{"type":"Feature","id":"ST-WK-KE/WNIOSEK/11559/2026::300804_2.0011.485/1","geometry":{"type":"Polygon","coordinates":[[[18.1198116541248,51.2348759159839],[18.1199317080581,51.2348992549439],[18.1199537161304,51.2349377063244],[18.1206782965601,51.2350616422403],[18.1208015559168,51.2347776350047],[18.1221283708423,51.2350010789611],[18.1219850520362,51.2353315828429],[18.1197650285419,51.2349520126409],[18.1198116541248,51.2348759159839]]]},"properties":{"case_id":"ST-WK-KE/WNIOSEK/11559/2026","source_type":"wniosek_decyzja","received_date":"2026-04-16","decision_date":"2026-05-14","status":"decyzja wydana","description":"rozbudowa i przebudowa budynku gospodarczego o konst. stalowej","address":"Trzebień","city":"Trzebień","office":"Starosta Powiatu Kępno","case_kind":"Obiekt budowlany inny niż budynek mieszkalny jednorodzinny","parcel_ids":["300804_2.0011.485/1","300804_2.0011.485/2"],"location_quality":"dokładny","gunb_url":"https://wyszukiwarka.gunb.gov.pl/","parcel_count":2,"parcel_shard":"x072-y204","parcel_id":"300804_2.0011.485/1","location_source":"powiat kępiński (wfs)"}},{"type":"Feature","id":"ST-WK-KE/WNIOSEK/11559/2026::300804_2.0011.485/2","geometry":{"type":"Polygon","coordinates":[[[18.1266548508938,51.2357629605653],[18.1264955981643,51.2360159100778],[18.1264462679488,51.2360942596166],[18.1219850520362,51.2353315828429],[18.1221283708423,51.2350010789611],[18.1208015559168,51.2347776350047],[18.1206782965601,51.2350616422403],[18.1199537161304,51.2349377063244],[18.1199317080581,51.2348992549439],[18.1198116541248,51.2348759159839],[18.1199588017328,51.2346357526508],[18.1200775733974,51.234441733023],[18.1267562180377,51.2356017637313],[18.1266970516563,51.2356958551958],[18.1266548508938,51.2357629605653]]]},"properties":{"case_id":"ST-WK-KE/WNIOSEK/11559/2026","source_type":"wniosek_decyzja","received_date":"2026-04-16","decision_date":"2026-05-14","status":"decyzja wydana","description":"rozbudowa i przebudowa budynku gospodarczego o konst. stalowej","address":"Trzebień","city":"Trzebień","office":"Starosta Powiatu Kępno","case_kind":"Obiekt budowlany inny niż budynek mieszkalny jednorodzinny","parcel_ids":["300804_2.0011.485/1","300804_2.0011.485/2"],"location_quality":"dokładny","gunb_url":"https://wyszukiwarka.gunb.gov.pl/","parcel_count":2,"parcel_shard":"x072-y204","parcel_id":"300804_2.0011.485/2","location_source":"powiat kępiński (wfs)"}},{"type":"Feature","id":"ST-WK-KE/WNIOSEK/6684/2026::300804_2.0011.76","geometry":{"type":"Polygon","coordinates":[[[18.1187304231941,51.2364108086178],[18.1140920011929,51.2356117851388],[18.114251377502,51.2355102811001],[18.1162389033575,51.2358521016627],[18.1188019074078,51.2362929445863],[18.1187304231941,51.2364108086178]]]},"properties":{"case_id":"ST-WK-KE/WNIOSEK/6684/2026","source_type":"wniosek_decyzja","received_date":"2025-12-29","decision_date":"2026-02-23","status":"decyzja wydana","description":"budowa budynku mieszkalnego jednorodzinnego","address":"Trzebień","city":"Trzebień","office":"Starosta Powiatu Kępno","case_kind":"Budynek mieszkalny jednorodzinny","parcel_ids":["300804_2.0011.76"],"location_quality":"dokładny","gunb_url":"https://wyszukiwarka.gunb.gov.pl/","parcel_count":1,"parcel_shard":"x072-y204","parcel_id":"300804_2.0011.76","location_source":"powiat kępiński (wfs)"}},{"type":"Feature","id":"ST-WK-KE/WNIOSEK/14681/2026::300804_2.0012.266","geometry":{"type":"Polygon","coordinates":[[[18.0775507176671,51.2162167869991],[18.0774937306654,51.2162216762521],[18.0773276515921,51.2157671091667],[18.0776982703344,51.2157137371516],[18.0777646487105,51.2158633643035],[18.0778989877275,51.2161664828129],[18.0775507176671,51.2162167869991]]]},"properties":{"case_id":"ST-WK-KE/WNIOSEK/14681/2026","source_type":"wniosek_decyzja","received_date":"2026-03-02","decision_date":"2026-07-22","status":"decyzja wydana","description":"budowa budynku gospodarczego","address":"Zmyślona Słupska","city":"Zmyślona Słupska","office":"Starosta Powiatu Kępno","case_kind":"Obiekt budowlany inny niż budynek mieszkalny jednorodzinny","parcel_ids":["300804_2.0012.266"],"location_quality":"dokładny","gunb_url":"https://wyszukiwarka.gunb.gov.pl/","parcel_count":1,"parcel_shard":"x072-y204","parcel_id":"300804_2.0012.266","location_source":"powiat kępiński (wfs)"}},{"type":"Feature","id":"ST-WK-KE/WNIOSEK/23253/2025::300804_2.0012.79/11","geometry":{"type":"Polygon","coordinates":[[[18.0702311812389,51.2197800737996],[18.0701665057942,51.2195142103603],[18.0706402389481,51.2194697881315],[18.0707034859053,51.2197358319598],[18.0702311812389,51.2197800737996]]]},"properties":{"case_id":"ST-WK-KE/WNIOSEK/23253/2025","source_type":"wniosek_decyzja","received_date":"2025-11-07","decision_date":"2025-12-30","status":"decyzja wydana","description":"budowa budynku mieszkalnego jednorodzinnego z garażem dwustanowiskowym","address":"Zmyślona Słupska","city":"Zmyślona Słupska","office":"Starosta Powiatu Kępno","case_kind":"Budynek mieszkalny jednorodzinny","parcel_ids":["300804_2.0012.79/11"],"location_quality":"dokładny","gunb_url":"https://wyszukiwarka.gunb.gov.pl/","parcel_count":1,"parcel_shard":"x072-y204","parcel_id":"300804_2.0012.79/11","location_source":"powiat kępiński (wfs)"}},{"type":"Feature","id":"ST-WK-KE/WNIOSEK/6694/2026::300807_2.0001.179/3","geometry":{"type":"Polygon","coordinates":[[[18.0483831252872,51.1647529941775],[18.0479256099306,51.1647505755919],[18.0479301098981,51.1644021468664],[18.0483898728654,51.164233047858],[18.0483831252872,51.1647529941775]]]},"properties":{"case_id":"ST-WK-KE/WNIOSEK/6694/2026","source_type":"wniosek_decyzja","received_date":"2026-01-28","decision_date":"2026-02-26","status":"decyzja wydana","description":"budowa budynku mieszkalnego jednorodzinnego","address":"Kuźnica Trzcińska","city":"Kuźnica Trzcińska","office":"Starosta Powiatu Kępno","case_kind":"Budynek mieszkalny jednorodzinny","parcel_ids":["300807_2.0001.179/3"],"location_quality":"dokładny","gunb_url":"https://wyszukiwarka.gunb.gov.pl/","parcel_count":1,"parcel_shard":"x072-y204","parcel_id":"300807_2.0001.179/3","location_source":"powiat kępiński (wfs)"}},{"type":"Feature","id":"ST-WK-KE/WNIOSEK/13534/2026::300807_2.0002.1287","geometry":{"type":"Polygon","coordinates":[[[18.0293622689026,51.1838487673124],[18.0296122349877,51.1837286107278],[18.0300390242269,51.184088955701],[18.029789054642,51.1842090233066],[18.0293622689026,51.1838487673124]]]},"properties":{"case_id":"ST-WK-KE/WNIOSEK/13534/2026","source_type":"wniosek_decyzja","received_date":"2026-07-03","decision_date":"2026-08-06","status":"decyzja wydana","description":"Budowa budynku gospodarczo garazowego","address":"Laski","city":"Laski","office":"Starosta Powiatu Kępno","case_kind":"Obiekt budowlany inny niż budynek mieszkalny jednorodzinny","parcel_ids":["300807_2.0002.1287"],"location_quality":"dokładny","gunb_url":"https://wyszukiwarka.gunb.gov.pl/","parcel_count":1,"parcel_shard":"x072-y204","parcel_id":"300807_2.0002.1287","location_source":"powiat kępiński (wfs)"}},{"type":"Feature","id":"ST-WK-KE/WNIOSEK/22169/2025::300807_2.0002.1308","geometry":{"type":"Polygon","coordinates":[[[18.0288438376718,51.185059137717],[18.0285393296808,51.1848093515383],[18.028789305946,51.1846892866409],[18.029093788205,51.1849389786559],[18.0288438376718,51.185059137717]]]},"properties":{"case_id":"ST-WK-KE/WNIOSEK/22169/2025","source_type":"wniosek_decyzja","received_date":"2025-10-27","decision_date":"2025-12-10","status":"decyzja wydana","description":"budowa budynku mieszkalnego jednorodzinnego dwulokalowego","address":"Laski","city":"Laski","office":"Starosta Powiatu Kępno","case_kind":"Budynek mieszkalny jednorodzinny","parcel_ids":["300807_2.0002.1308"],"location_quality":"dokładny","gunb_url":"https://wyszukiwarka.gunb.gov.pl/","parcel_count":1,"parcel_shard":"x072-y204","parcel_id":"300807_2.0002.1308","location_source":"powiat kępiński (wfs)"}},{"type":"Feature","id":"ST-WK-KE/WNIOSEK/22166/2025::300807_2.0002.1322","geometry":{"type":"Polygon","coordinates":[[[18.0291806556825,51.1850104220358],[18.0294847654013,51.1852603384928],[18.0292348141473,51.1853804983826],[18.028930704989,51.1851305812811],[18.0291806556825,51.1850104220358]]]},"properties":{"case_id":"ST-WK-KE/WNIOSEK/22166/2025","source_type":"wniosek_decyzja","received_date":"2025-10-27","decision_date":"2025-12-10","status":"decyzja wydana","description":"budowa budynku mieszkalnego jednorodzinnego dwulokalowego","address":"Laski","city":"Laski","office":"Starosta Powiatu Kępno","case_kind":"Budynek mieszkalny jednorodzinny","parcel_ids":["300807_2.0002.1322"],"location_quality":"dokładny","gunb_url":"https://wyszukiwarka.gunb.gov.pl/","parcel_count":1,"parcel_shard":"x072-y204","parcel_id":"300807_2.0002.1322","location_source":"powiat kępiński (wfs)"}},{"type":"Feature","id":"ST-WK-KE/WNIOSEK/1322/2026::300807_2.0002.1408","geometry":{"type":"Polygon","coordinates":[[[18.033841140088,51.183199528689],[18.0335883488104,51.1833170918446],[18.0332471576055,51.1830289919326],[18.0334989466479,51.1829109803296],[18.0337514496782,51.1827931477625],[18.0340937867848,51.1830816054543],[18.033841140088,51.183199528689]]]},"properties":{"case_id":"ST-WK-KE/WNIOSEK/1322/2026","source_type":"wniosek_decyzja","received_date":"2026-01-23","decision_date":"2026-02-04","status":"decyzja wydana","description":"budowa budynku mieszkalnego jednorodzinnego z garażem dwustanowiskowym","address":"Laski","city":"Laski","office":"Starosta Powiatu Kępno","case_kind":"Budynek mieszkalny jednorodzinny","parcel_ids":["300807_2.0002.1408"],"location_quality":"dokładny","gunb_url":"https://wyszukiwarka.gunb.gov.pl/","parcel_count":1,"parcel_shard":"x072-y204","parcel_id":"300807_2.0002.1408","location_source":"powiat kępiński (wfs)"}},{"type":"Feature","id":"ST-WK-KE/WNIOSEK/25496/2025::300807_2.0002.323/8","geometry":{"type":"Polygon","coordinates":[[[18.0257076689105,51.1929653292651],[18.0256013454196,51.192702220152],[18.0260567494349,51.1926322862404],[18.0261173390394,51.1927755329316],[18.0261677405803,51.1928885973162],[18.0257076689105,51.1929653292651]]]},"properties":{"case_id":"ST-WK-KE/WNIOSEK/25496/2025","source_type":"wniosek_decyzja","received_date":"2025-12-11","decision_date":"2026-01-28","status":"decyzja wydana","description":"przebudowa budynku domu ludowego w laskach polegająca na wbudowaniu dźwigu osobowego","address":"Trzcinica","city":"Trzcinica","office":"Starosta Powiatu Kępno","case_kind":"Obiekt budowlany inny niż budynek mieszkalny jednorodzinny","parcel_ids":["300807_2.0002.323/8","300807_2.0002.324/8"],"location_quality":"dokładny","gunb_url":"https://wyszukiwarka.gunb.gov.pl/","parcel_count":1,"parcel_shard":"x072-y204","parcel_id":"300807_2.0002.323/8","location_source":"powiat kępiński (wfs)"}},{"type":"Feature","id":"ST-WK-KE/WNIOSEK/2206/2026::300807_2.0002.73/3","geometry":{"type":"Polygon","coordinates":[[[18.0326526006862,51.2129534886087],[18.0335208730419,51.2127856514152],[18.0337085142614,51.2127540142693],[18.0338880648129,51.2130530353163],[18.0333199652125,51.2131858800099],[18.0334016449004,51.213323752068],[18.0339853640028,51.2132149037871],[18.0340081485315,51.2132529217641],[18.0352186303496,51.2152778965448],[18.0351461100841,51.2152800027042],[18.0336586802208,51.2152756141727],[18.0325406905435,51.2134292589282],[18.0328851251958,51.2133567322254],[18.0326526006862,51.2129534886087]]]},"properties":{"case_id":"ST-WK-KE/WNIOSEK/2206/2026","source_type":"wniosek_decyzja","received_date":"2025-12-23","decision_date":"2026-02-02","status":"decyzja wydana","description":"budowa budynku gospodarczego","address":"Trzcinica","city":"Trzcinica","office":"Starosta Powiatu Kępno","case_kind":"Obiekt budowlany inny niż budynek mieszkalny jednorodzinny","parcel_ids":["300807_2.0002.73/3"],"location_quality":"dokładny","gunb_url":"https://wyszukiwarka.gunb.gov.pl/","parcel_count":1,"parcel_shard":"x072-y204","parcel_id":"300807_2.0002.73/3","location_source":"powiat kępiński (wfs)"}},{"type":"Feature","id":"ST-WK-KE/WNIOSEK/23030/2025::300807_2.0006.432/2","geometry":{"type":"Polygon","coordinates":[[[18.0173222811686,51.1696831990066],[18.0169898669526,51.1693835433777],[18.0172517899441,51.1693049382707],[18.0175832041386,51.1696039640564],[18.0174581040129,51.1696414683111],[18.0173222811686,51.1696831990066]]]},"properties":{"case_id":"ST-WK-KE/WNIOSEK/23030/2025","source_type":"wniosek_decyzja","received_date":"2025-09-18","decision_date":"2025-11-12","status":"decyzja wydana","description":"Budowa budynku mieszkalnego jednorodzinnego-zmiany","address":"Trzcinica","city":"Trzcinica","office":"Starosta Powiatu Kępno","case_kind":"Budynek mieszkalny jednorodzinny","parcel_ids":["300807_2.0006.432/2"],"location_quality":"dokładny","gunb_url":"https://wyszukiwarka.gunb.gov.pl/","parcel_count":1,"parcel_shard":"x072-y204","parcel_id":"300807_2.0006.432/2","location_source":"powiat kępiński (wfs)"}},{"type":"Feature","id":"ST-WK-KE/WNIOSEK/3274/2026::300807_2.0006.505/1","geometry":{"type":"Polygon","coordinates":[[[18.0076701433219,51.1667449572784],[18.0078583498654,51.1668926000231],[18.0073899525514,51.1670442544287],[18.0072729439295,51.1670827207975],[18.0071394060995,51.166921691312],[18.0076701433219,51.1667449572784]]]},"properties":{"case_id":"ST-WK-KE/WNIOSEK/3274/2026","source_type":"wniosek_decyzja","received_date":"2026-02-20","decision_date":"2026-03-16","status":"decyzja wydana","description":"rozbiórka trzech budynków gospodarczych","address":"Trzcinica","city":"Trzcinica","office":"Starosta Powiatu Kępno","case_kind":"Obiekt budowlany inny niż budynek mieszkalny jednorodzinny","parcel_ids":["300807_2.0006.505/1"],"location_quality":"dokładny","gunb_url":"https://wyszukiwarka.gunb.gov.pl/","parcel_count":1,"parcel_shard":"x072-y204","parcel_id":"300807_2.0006.505/1","location_source":"powiat kępiński (wfs)"}},{"type":"Feature","id":"ST-WK-KE/WNIOSEK/8573/2026::300807_2.0007.324","geometry":{"type":"Polygon","coordinates":[[[18.0367614533065,51.1428212121168],[18.0362309149287,51.1429079453363],[18.0361301722761,51.1425489408561],[18.0365917581163,51.1421942563882],[18.0367614533065,51.1428212121168]]]},"properties":{"case_id":"ST-WK-KE/WNIOSEK/8573/2026","source_type":"wniosek_decyzja","received_date":"2026-03-11","decision_date":"2026-04-22","status":"decyzja wydana","description":"Budowa budynku mieszkalnego jednorodzinnego","address":"Wodziczna","city":"Wodziczna","office":"Starosta Powiatu Kępno","case_kind":"Budynek mieszkalny jednorodzinny","parcel_ids":["300807_2.0007.324"],"location_quality":"dokładny","gunb_url":"https://wyszukiwarka.gunb.gov.pl/","parcel_count":1,"parcel_shard":"x072-y204","parcel_id":"300807_2.0007.324","location_source":"powiat kępiński (wfs)"}},{"type":"Feature","id":"ST-WK-KE/WNIOSEK/9563/2026::300807_2.0007.324","geometry":{"type":"Polygon","coordinates":[[[18.0367614533065,51.1428212121168],[18.0362309149287,51.1429079453363],[18.0361301722761,51.1425489408561],[18.0365917581163,51.1421942563882],[18.0367614533065,51.1428212121168]]]},"properties":{"case_id":"ST-WK-KE/WNIOSEK/9563/2026","source_type":"wniosek_decyzja","received_date":"2026-04-28","decision_date":"2026-05-21","status":"decyzja wydana","description":"budowa budynku gospodarczo-garażowego","address":"Wodziczna","city":"Wodziczna","office":"Starosta Powiatu Kępno","case_kind":"Obiekt budowlany inny niż budynek mieszkalny jednorodzinny","parcel_ids":["300807_2.0007.324"],"location_quality":"dokładny","gunb_url":"https://wyszukiwarka.gunb.gov.pl/","parcel_count":1,"parcel_shard":"x072-y204","parcel_id":"300807_2.0007.324","location_source":"powiat kępiński (wfs)"}}]}