{"type":"FeatureCollection","features":[{"type":"Feature","id":"ST-WK-KN/WNIOSEK/25095/2025::301009_2.0012.220/1","geometry":{"type":"Polygon","coordinates":[[[18.3686061025231,52.5199378018801],[18.3681039703773,52.5199701011934],[18.367995745043,52.5197837713834],[18.368853778373,52.5197279855363],[18.3699970343943,52.5196536870634],[18.3700687449747,52.5196489692163],[18.3701015567259,52.5198367013337],[18.3686061025231,52.5199378018801]]]},"properties":{"case_id":"ST-WK-KN/WNIOSEK/25095/2025","source_type":"wniosek_decyzja","received_date":"2025-12-10","decision_date":"2026-04-29","status":"decyzja wydana","description":"Budynek mieszkalny jednorodzinny","address":"Łuszczewo","city":"Łuszczewo","office":"Starosta Powiatu Konin","case_kind":"Budynek mieszkalny jednorodzinny","parcel_ids":["301009_2.0012.220/1"],"location_quality":"dokładny","gunb_url":"https://wyszukiwarka.gunb.gov.pl/","parcel_count":1,"parcel_shard":"x073-y210","parcel_id":"301009_2.0012.220/1","location_source":"powiat koniński (wfs)"}},{"type":"Feature","id":"ST-WK-KN/WNIOSEK/887/2026::301009_2.0015.110","geometry":{"type":"Polygon","coordinates":[[[18.3319877368971,52.5023776648561],[18.3303638767571,52.5019811948727],[18.3310330702018,52.5009211571669],[18.3313149099686,52.5008189913896],[18.3317863483964,52.5007452326984],[18.3327851386251,52.5009430252784],[18.3328438411303,52.5009549032003],[18.3319877368971,52.5023776648561]]]},"properties":{"case_id":"ST-WK-KN/WNIOSEK/887/2026","source_type":"wniosek_decyzja","received_date":"2026-01-16","decision_date":"2026-03-18","status":"decyzja wydana","description":"budowa budynku mieszkalnego jednorodzinnego","address":"Mniszki","city":"Mniszki","office":"Starosta Powiatu Konin","case_kind":"Budynek mieszkalny jednorodzinny","parcel_ids":["301009_2.0015.110"],"location_quality":"dokładny","gunb_url":"https://wyszukiwarka.gunb.gov.pl/","parcel_count":1,"parcel_shard":"x073-y210","parcel_id":"301009_2.0015.110","location_source":"powiat koniński (wfs)"}}]}