{"type":"FeatureCollection","features":[{"type":"Feature","id":"ST-WK-OT/WNIOSEK/20810/2025::301801_2.0001.1031/1","geometry":{"type":"Polygon","coordinates":[[[18.3039344358169,51.4959877025851],[18.3044117816137,51.4958955873577],[18.3044281678659,51.495393786754],[18.3039545023693,51.4953889027394],[18.3039344358169,51.4959877025851]]]},"properties":{"case_id":"ST-WK-OT/WNIOSEK/20810/2025","source_type":"wniosek_decyzja","received_date":"2025-10-10","decision_date":"2026-03-18","status":"decyzja wydana","description":"Budynek gospodarczy w zabudowie zagrodowej","address":"201B, Czajków","city":"Czajków","office":"Starosta Powiatu Ostrzeszów","case_kind":"Obiekt budowlany inny niż budynek mieszkalny jednorodzinny","parcel_ids":["301801_2.0001.1031/1"],"location_quality":"dokładny","gunb_url":"https://wyszukiwarka.gunb.gov.pl/","parcel_count":1,"parcel_shard":"x073-y205","parcel_id":"301801_2.0001.1031/1","location_source":"powiat ostrzeszowski (wfs)"}},{"type":"Feature","id":"ST-WK-OT/WNIOSEK/22253/2025::301801_2.0001.1037/4","geometry":{"type":"Polygon","coordinates":[[[18.3105823671495,51.4898620854292],[18.3104935191383,51.4898609723365],[18.3103940506544,51.4930667550981],[18.3103574056159,51.4942440335099],[18.3104456879811,51.4942454178761],[18.3105823671495,51.4898620854292]]]},"properties":{"case_id":"ST-WK-OT/WNIOSEK/22253/2025","source_type":"wniosek_decyzja","received_date":"2025-10-28","decision_date":"2026-03-04","status":"decyzja wydana","description":"Budowa podziemnej instalacji zbiornikowej gazu płynnego do zasilania generatora prądu w zakładzie produkcyjnym","address":"194, Czajków","city":"Czajków","office":"Starosta Powiatu Ostrzeszów","case_kind":"Obiekt budowlany inny niż budynek mieszkalny jednorodzinny","parcel_ids":["301801_2.0001.1037/4","301801_2.0001.1038"],"location_quality":"dokładny","gunb_url":"https://wyszukiwarka.gunb.gov.pl/","parcel_count":2,"parcel_shard":"x073-y205","parcel_id":"301801_2.0001.1037/4","location_source":"powiat ostrzeszowski (wfs)"}},{"type":"Feature","id":"ST-WK-OT/WNIOSEK/22253/2025::301801_2.0001.1038","geometry":{"type":"Polygon","coordinates":[[[18.3114467288946,51.4945220342781],[18.3114680750757,51.4939935229737],[18.3114857451967,51.493251096439],[18.3115126987882,51.4921185813251],[18.3115554800994,51.4903209381011],[18.3115775723567,51.4897076103002],[18.3115924836279,51.4887659765296],[18.3115949784804,51.4886042932732],[18.3110247410013,51.4886672111655],[18.3106175791516,51.4887294845363],[18.3105823671495,51.4898620854292],[18.3104456879811,51.4942454178761],[18.310430653087,51.4947243841995],[18.3106522822385,51.4946811487101],[18.3114467288946,51.4945220342781]]]},"properties":{"case_id":"ST-WK-OT/WNIOSEK/22253/2025","source_type":"wniosek_decyzja","received_date":"2025-10-28","decision_date":"2026-03-04","status":"decyzja wydana","description":"Budowa podziemnej instalacji zbiornikowej gazu płynnego do zasilania generatora prądu w zakładzie produkcyjnym","address":"194, Czajków","city":"Czajków","office":"Starosta Powiatu Ostrzeszów","case_kind":"Obiekt budowlany inny niż budynek mieszkalny jednorodzinny","parcel_ids":["301801_2.0001.1037/4","301801_2.0001.1038"],"location_quality":"dokładny","gunb_url":"https://wyszukiwarka.gunb.gov.pl/","parcel_count":2,"parcel_shard":"x073-y205","parcel_id":"301801_2.0001.1038","location_source":"powiat ostrzeszowski (wfs)"}},{"type":"Feature","id":"ST-WK-OT/WNIOSEK/7152/2026::301801_2.0001.1040/3","geometry":{"type":"Polygon","coordinates":[[[18.3117965916836,51.4944550509927],[18.3121191195786,51.4943914503162],[18.3121245767732,51.4939886448843],[18.3118021636755,51.4939893226305],[18.3117965916836,51.4944550509927]]]},"properties":{"case_id":"ST-WK-OT/WNIOSEK/7152/2026","source_type":"wniosek_decyzja","received_date":"2026-04-09","decision_date":"2026-05-15","status":"decyzja wydana","description":"Instalacja gazu LPG dla istniejącego budynku mieszkalnego jednorodzinnego","address":"193A, Czajków","city":"Czajków","office":"Starosta Powiatu Ostrzeszów","case_kind":"Budynek mieszkalny jednorodzinny","parcel_ids":["301801_2.0001.1040/3"],"location_quality":"dokładny","gunb_url":"https://wyszukiwarka.gunb.gov.pl/","parcel_count":1,"parcel_shard":"x073-y205","parcel_id":"301801_2.0001.1040/3","location_source":"powiat ostrzeszowski (wfs)"}},{"type":"Feature","id":"ST-WK-OT/WNIOSEK/6014/2026::301801_2.0001.1084/2","geometry":{"type":"Polygon","coordinates":[[[18.3237321762893,51.4868096816387],[18.3238892001609,51.4868108466252],[18.3239855428064,51.4862004973323],[18.3237692913913,51.4861750544178],[18.3237321762893,51.4868096816387]]]},"properties":{"case_id":"ST-WK-OT/WNIOSEK/6014/2026","source_type":"wniosek_decyzja","received_date":"2026-03-27","decision_date":"2026-04-08","status":"decyzja wydana","description":"Budowa zaplecza szatniowo-sanitarnego wraz z niezbędną infrastrukturą techniczną przy stadionie sportowym w Czajkowie. Rozbiórka istniejącego budynku szatni. Budowa wiaty śmietnikowej","address":"Czajków","city":"Czajków","office":"Starosta Powiatu Ostrzeszów","case_kind":"Obiekt budowlany inny niż budynek mieszkalny jednorodzinny","parcel_ids":["301801_2.0001.1084/2","301801_2.0001.1084/3"],"location_quality":"dokładny","gunb_url":"https://wyszukiwarka.gunb.gov.pl/","parcel_count":2,"parcel_shard":"x073-y205","parcel_id":"301801_2.0001.1084/2","location_source":"powiat ostrzeszowski (wfs)"}},{"type":"Feature","id":"ST-WK-OT/WNIOSEK/6014/2026::301801_2.0001.1084/3","geometry":{"type":"Polygon","coordinates":[[[18.3238892001609,51.4868108466252],[18.3240657557355,51.4868147414797],[18.324173396144,51.4860773352561],[18.3239855428064,51.4862004973323],[18.3238892001609,51.4868108466252]]]},"properties":{"case_id":"ST-WK-OT/WNIOSEK/6014/2026","source_type":"wniosek_decyzja","received_date":"2026-03-27","decision_date":"2026-04-08","status":"decyzja wydana","description":"Budowa zaplecza szatniowo-sanitarnego wraz z niezbędną infrastrukturą techniczną przy stadionie sportowym w Czajkowie. Rozbiórka istniejącego budynku szatni. Budowa wiaty śmietnikowej","address":"Czajków","city":"Czajków","office":"Starosta Powiatu Ostrzeszów","case_kind":"Obiekt budowlany inny niż budynek mieszkalny jednorodzinny","parcel_ids":["301801_2.0001.1084/2","301801_2.0001.1084/3"],"location_quality":"dokładny","gunb_url":"https://wyszukiwarka.gunb.gov.pl/","parcel_count":2,"parcel_shard":"x073-y205","parcel_id":"301801_2.0001.1084/3","location_source":"powiat ostrzeszowski (wfs)"}},{"type":"Feature","id":"ST-WK-OT/WNIOSEK/8733/2026::301801_2.0001.1245/2","geometry":{"type":"Polygon","coordinates":[[[18.2913513570002,51.4919207557741],[18.290795069485,51.4916356828792],[18.2902804776843,51.4917790124228],[18.2908369077442,51.4920640857696],[18.2913513570002,51.4919207557741]]]},"properties":{"case_id":"ST-WK-OT/WNIOSEK/8733/2026","source_type":"wniosek_decyzja","received_date":"2026-05-06","decision_date":"2026-07-07","status":"decyzja wydana","description":"Budynek mieszkalny jednorodzinny","address":"Czajków","city":"Czajków","office":"Starosta Powiatu Ostrzeszów","case_kind":"Budynek mieszkalny jednorodzinny","parcel_ids":["301801_2.0001.1245/2"],"location_quality":"dokładny","gunb_url":"https://wyszukiwarka.gunb.gov.pl/","parcel_count":1,"parcel_shard":"x073-y205","parcel_id":"301801_2.0001.1245/2","location_source":"powiat ostrzeszowski (wfs)"}},{"type":"Feature","id":"ST-WK-OT/WNIOSEK/19047/2025::301801_2.0001.1275","geometry":{"type":"Polygon","coordinates":[[[18.3158186953202,51.484078234373],[18.3165880335779,51.4837488211737],[18.3135810597214,51.4821969963279],[18.3087680203801,51.4797127359875],[18.3081074309633,51.4801008244974],[18.3131549765908,51.4827044514572],[18.3158186953202,51.484078234373]]]},"properties":{"case_id":"ST-WK-OT/WNIOSEK/19047/2025","source_type":"wniosek_decyzja","received_date":"2025-09-16","decision_date":"2025-11-13","status":"decyzja wydana","description":"Zmiana pozwolenia na budowę budynku mieszkalnego jednorodzinnego z infrastrukturą towarzyszącą","address":"Czajków","city":"Czajków","office":"Starosta Powiatu Ostrzeszów","case_kind":"Budynek mieszkalny jednorodzinny","parcel_ids":["301801_2.0001.1275"],"location_quality":"dokładny","gunb_url":"https://wyszukiwarka.gunb.gov.pl/","parcel_count":1,"parcel_shard":"x073-y205","parcel_id":"301801_2.0001.1275","location_source":"powiat ostrzeszowski (wfs)"}},{"type":"Feature","id":"ST-WK-OT/WNIOSEK/25793/2025::301801_2.0001.1547","geometry":{"type":"Polygon","coordinates":[[[18.32547529191,51.4874221914414],[18.3255238778617,51.4871651581062],[18.3255715211314,51.4871708060345],[18.3255747700103,51.4871498799026],[18.3256172510389,51.4869002307812],[18.3255678389092,51.4868997380301],[18.3254852408727,51.4868976670997],[18.3254751301427,51.4870519240235],[18.3254176110036,51.4870503981693],[18.3253247730018,51.4870479321787],[18.3252556808414,51.4874068587276],[18.32547529191,51.4874221914414]]]},"properties":{"case_id":"ST-WK-OT/WNIOSEK/25793/2025","source_type":"wniosek_decyzja","received_date":"2025-12-22","decision_date":"2026-02-13","status":"decyzja wydana","description":"Budynek gospodarczy z wiatą oraz z niezbędną infrastrukturą techniczną. Rozbiórka budynku gospodarczego","address":"Czajków","city":"Czajków","office":"Starosta Powiatu Ostrzeszów","case_kind":"Obiekt budowlany inny niż budynek mieszkalny jednorodzinny","parcel_ids":["301801_2.0001.1547","301801_2.0001.1548","301801_2.0001.1549"],"location_quality":"dokładny","gunb_url":"https://wyszukiwarka.gunb.gov.pl/","parcel_count":3,"parcel_shard":"x073-y205","parcel_id":"301801_2.0001.1547","location_source":"powiat ostrzeszowski (wfs)"}},{"type":"Feature","id":"ST-WK-OT/WNIOSEK/25793/2025::301801_2.0001.1548","geometry":{"type":"Polygon","coordinates":[[[18.3253247730018,51.4870479321787],[18.3254176110036,51.4870503981693],[18.3254751301427,51.4870519240235],[18.3254852408727,51.4868976670997],[18.3254275812379,51.4868962331472],[18.324414071079,51.4868710625789],[18.3243538692458,51.4869187575112],[18.3243480934346,51.4870217915712],[18.3244056125044,51.4870233179499],[18.3253247730018,51.4870479321787]]]},"properties":{"case_id":"ST-WK-OT/WNIOSEK/25793/2025","source_type":"wniosek_decyzja","received_date":"2025-12-22","decision_date":"2026-02-13","status":"decyzja wydana","description":"Budynek gospodarczy z wiatą oraz z niezbędną infrastrukturą techniczną. Rozbiórka budynku gospodarczego","address":"Czajków","city":"Czajków","office":"Starosta Powiatu Ostrzeszów","case_kind":"Obiekt budowlany inny niż budynek mieszkalny jednorodzinny","parcel_ids":["301801_2.0001.1547","301801_2.0001.1548","301801_2.0001.1549"],"location_quality":"dokładny","gunb_url":"https://wyszukiwarka.gunb.gov.pl/","parcel_count":3,"parcel_shard":"x073-y205","parcel_id":"301801_2.0001.1548","location_source":"powiat ostrzeszowski (wfs)"}},{"type":"Feature","id":"ST-WK-OT/WNIOSEK/25793/2025::301801_2.0001.1549","geometry":{"type":"Polygon","coordinates":[[[18.323595993563,51.487550398409],[18.3251468749661,51.4876236507255],[18.3254344810363,51.4876372233106],[18.32547529191,51.4874221914414],[18.3252556808414,51.4874068587276],[18.3253247730018,51.4870479321787],[18.3244056125044,51.4870233179499],[18.3243480934346,51.4870217915712],[18.3243538692458,51.4869187575112],[18.324414071079,51.4868710625789],[18.3243393998987,51.486869148756],[18.3236220143329,51.4868512746635],[18.323595993563,51.487550398409]]]},"properties":{"case_id":"ST-WK-OT/WNIOSEK/25793/2025","source_type":"wniosek_decyzja","received_date":"2025-12-22","decision_date":"2026-02-13","status":"decyzja wydana","description":"Budynek gospodarczy z wiatą oraz z niezbędną infrastrukturą techniczną. Rozbiórka budynku gospodarczego","address":"Czajków","city":"Czajków","office":"Starosta Powiatu Ostrzeszów","case_kind":"Obiekt budowlany inny niż budynek mieszkalny jednorodzinny","parcel_ids":["301801_2.0001.1547","301801_2.0001.1548","301801_2.0001.1549"],"location_quality":"dokładny","gunb_url":"https://wyszukiwarka.gunb.gov.pl/","parcel_count":3,"parcel_shard":"x073-y205","parcel_id":"301801_2.0001.1549","location_source":"powiat ostrzeszowski (wfs)"}},{"type":"Feature","id":"ST-WK-OT/WNIOSEK/21203/2025::301801_2.0001.233/4","geometry":{"type":"Polygon","coordinates":[[[18.3270180200414,51.4940514386254],[18.3276356131545,51.4943087742082],[18.331215914495,51.4909086568638],[18.3308418028308,51.4908967268843],[18.3303129548086,51.490969630933],[18.3270180200414,51.4940514386254]]]},"properties":{"case_id":"ST-WK-OT/WNIOSEK/21203/2025","source_type":"wniosek_decyzja","received_date":"2025-10-15","decision_date":"2025-11-20","status":"decyzja wydana","description":"Budynek mieszkalny jednorodzinny w zabudowie zagrodowej","address":"Czajków","city":"Czajków","office":"Starosta Powiatu Ostrzeszów","case_kind":"Budynek mieszkalny jednorodzinny","parcel_ids":["301801_2.0001.233/4"],"location_quality":"dokładny","gunb_url":"https://wyszukiwarka.gunb.gov.pl/","parcel_count":1,"parcel_shard":"x073-y205","parcel_id":"301801_2.0001.233/4","location_source":"powiat ostrzeszowski (wfs)"}},{"type":"Feature","id":"ST-WK-OT/WNIOSEK/21206/2025::301801_2.0001.233/4","geometry":{"type":"Polygon","coordinates":[[[18.3270180200414,51.4940514386254],[18.3276356131545,51.4943087742082],[18.331215914495,51.4909086568638],[18.3308418028308,51.4908967268843],[18.3303129548086,51.490969630933],[18.3270180200414,51.4940514386254]]]},"properties":{"case_id":"ST-WK-OT/WNIOSEK/21206/2025","source_type":"wniosek_decyzja","received_date":"2025-10-15","decision_date":"2025-11-20","status":"decyzja wydana","description":"Budynek gospodarczo - garażowy w zabudowie zagrodowej","address":"Czajków","city":"Czajków","office":"Starosta Powiatu Ostrzeszów","case_kind":"Obiekt budowlany inny niż budynek mieszkalny jednorodzinny","parcel_ids":["301801_2.0001.233/4"],"location_quality":"dokładny","gunb_url":"https://wyszukiwarka.gunb.gov.pl/","parcel_count":1,"parcel_shard":"x073-y205","parcel_id":"301801_2.0001.233/4","location_source":"powiat ostrzeszowski (wfs)"}},{"type":"Feature","id":"ST-WK-OT/WNIOSEK/11477/2026::301801_2.0001.311","geometry":{"type":"Polygon","coordinates":[[[18.3415358756212,51.4974624406826],[18.3410875727374,51.4978841652312],[18.3403133547496,51.4986124601135],[18.3395542556667,51.4993265053668],[18.3399585998931,51.4993047961069],[18.3417517085759,51.4976160175923],[18.3417991311524,51.497571364299],[18.3415358756212,51.4974624406826]]]},"properties":{"case_id":"ST-WK-OT/WNIOSEK/11477/2026","source_type":"wniosek_decyzja","received_date":"2026-05-29","decision_date":"2026-07-31","status":"decyzja wydana","description":"Budynek mieszkalny jednorodzinny","address":"Czajków","city":"Czajków","office":"Starosta Powiatu Ostrzeszów","case_kind":"Budynek mieszkalny jednorodzinny","parcel_ids":["301801_2.0001.311"],"location_quality":"dokładny","gunb_url":"https://wyszukiwarka.gunb.gov.pl/","parcel_count":1,"parcel_shard":"x073-y205","parcel_id":"301801_2.0001.311","location_source":"powiat ostrzeszowski (wfs)"}},{"type":"Feature","id":"ST-WK-OT/WNIOSEK/23804/2025::301801_2.0001.776/10","geometry":{"type":"Polygon","coordinates":[[[18.3289364999215,51.4846156781907],[18.3284177183217,51.4848365639923],[18.3284084742165,51.4850818929101],[18.3289169461784,51.4850887278724],[18.3289364999215,51.4846156781907]]]},"properties":{"case_id":"ST-WK-OT/WNIOSEK/23804/2025","source_type":"wniosek_decyzja","received_date":"2025-11-20","decision_date":"2026-02-10","status":"decyzja wydana","description":"Budynek mieszkalny jednorodzinny oraz budynek gospodarczo – garażowy","address":"Czajków","city":"Czajków","office":"Starosta Powiatu Ostrzeszów","case_kind":"Budynek mieszkalny jednorodzinny","parcel_ids":["301801_2.0001.776/10"],"location_quality":"dokładny","gunb_url":"https://wyszukiwarka.gunb.gov.pl/","parcel_count":1,"parcel_shard":"x073-y205","parcel_id":"301801_2.0001.776/10","location_source":"powiat ostrzeszowski (wfs)"}},{"type":"Feature","id":"ST-WK-OT/WNIOSEK/2684/2026::301801_2.0001.783/4","geometry":{"type":"Polygon","coordinates":[[[18.3307404368318,51.48987124461],[18.3311184258813,51.4898741332173],[18.3311243459756,51.4896180235221],[18.3307476555511,51.4896152211626],[18.3307433054174,51.4897702015944],[18.3307404368318,51.48987124461]]]},"properties":{"case_id":"ST-WK-OT/WNIOSEK/2684/2026","source_type":"wniosek_decyzja","received_date":"2026-02-12","decision_date":"2026-04-14","status":"decyzja wydana","description":"Budynek mieszkalny jednorodzinny","address":"Muchy","city":"Muchy","office":"Starosta Powiatu Ostrzeszów","case_kind":"Budynek mieszkalny jednorodzinny","parcel_ids":["301801_2.0001.783/4","301801_2.0001.784/4"],"location_quality":"dokładny","gunb_url":"https://wyszukiwarka.gunb.gov.pl/","parcel_count":2,"parcel_shard":"x073-y205","parcel_id":"301801_2.0001.783/4","location_source":"powiat ostrzeszowski (wfs)"}},{"type":"Feature","id":"ST-WK-OT/WNIOSEK/2684/2026::301801_2.0001.784/4","geometry":{"type":"Polygon","coordinates":[[[18.3312606940568,51.4898752596003],[18.3312684844962,51.4896190547258],[18.3311243459756,51.4896180235221],[18.3311184258813,51.4898741332173],[18.3312606940568,51.4898752596003]]]},"properties":{"case_id":"ST-WK-OT/WNIOSEK/2684/2026","source_type":"wniosek_decyzja","received_date":"2026-02-12","decision_date":"2026-04-14","status":"decyzja wydana","description":"Budynek mieszkalny jednorodzinny","address":"Muchy","city":"Muchy","office":"Starosta Powiatu Ostrzeszów","case_kind":"Budynek mieszkalny jednorodzinny","parcel_ids":["301801_2.0001.783/4","301801_2.0001.784/4"],"location_quality":"dokładny","gunb_url":"https://wyszukiwarka.gunb.gov.pl/","parcel_count":2,"parcel_shard":"x073-y205","parcel_id":"301801_2.0001.784/4","location_source":"powiat ostrzeszowski (wfs)"}},{"type":"Feature","id":"ST-WK-OT/WNIOSEK/17835/2025::301801_2.0001.874/5","geometry":{"type":"Polygon","coordinates":[[[18.3422129684676,51.4803593493281],[18.3421903482796,51.4808728176827],[18.3426878770136,51.4810228078087],[18.3427165837859,51.4803680002205],[18.3422129684676,51.4803593493281]]]},"properties":{"case_id":"ST-WK-OT/WNIOSEK/17835/2025","source_type":"wniosek_decyzja","received_date":"2025-08-25","decision_date":"2025-11-19","status":"decyzja wydana","description":"Budynek gospodarczo - garażowy","address":"Czajków","city":"Czajków","office":"Starosta Powiatu Ostrzeszów","case_kind":"Obiekt budowlany inny niż budynek mieszkalny jednorodzinny","parcel_ids":["301801_2.0001.874/5","301801_2.0001.874/6"],"location_quality":"dokładny","gunb_url":"https://wyszukiwarka.gunb.gov.pl/","parcel_count":2,"parcel_shard":"x073-y205","parcel_id":"301801_2.0001.874/5","location_source":"powiat ostrzeszowski (wfs)"}},{"type":"Feature","id":"ST-WK-OT/WNIOSEK/17835/2025::301801_2.0001.874/6","geometry":{"type":"Polygon","coordinates":[[[18.3428469319855,51.4793688366789],[18.3427599834549,51.4793823044984],[18.3427165837859,51.4803680002205],[18.3426878770136,51.4810228078087],[18.342719101026,51.4810322080531],[18.3427727945372,51.4810586949832],[18.3428469319855,51.4793688366789]]]},"properties":{"case_id":"ST-WK-OT/WNIOSEK/17835/2025","source_type":"wniosek_decyzja","received_date":"2025-08-25","decision_date":"2025-11-19","status":"decyzja wydana","description":"Budynek gospodarczo - garażowy","address":"Czajków","city":"Czajków","office":"Starosta Powiatu Ostrzeszów","case_kind":"Obiekt budowlany inny niż budynek mieszkalny jednorodzinny","parcel_ids":["301801_2.0001.874/5","301801_2.0001.874/6"],"location_quality":"dokładny","gunb_url":"https://wyszukiwarka.gunb.gov.pl/","parcel_count":2,"parcel_shard":"x073-y205","parcel_id":"301801_2.0001.874/6","location_source":"powiat ostrzeszowski (wfs)"}},{"type":"Feature","id":"ST-WK-OT/WNIOSEK/17833/2025::301801_2.0001.874/5","geometry":{"type":"Polygon","coordinates":[[[18.3422129684676,51.4803593493281],[18.3421903482796,51.4808728176827],[18.3426878770136,51.4810228078087],[18.3427165837859,51.4803680002205],[18.3422129684676,51.4803593493281]]]},"properties":{"case_id":"ST-WK-OT/WNIOSEK/17833/2025","source_type":"wniosek_decyzja","received_date":"2025-08-25","decision_date":"2025-11-19","status":"decyzja wydana","description":"Budynek mieszkalny jednorodzinny","address":"Czajków","city":"Czajków","office":"Starosta Powiatu Ostrzeszów","case_kind":"Budynek mieszkalny jednorodzinny","parcel_ids":["301801_2.0001.874/5","301801_2.0001.874/6"],"location_quality":"dokładny","gunb_url":"https://wyszukiwarka.gunb.gov.pl/","parcel_count":2,"parcel_shard":"x073-y205","parcel_id":"301801_2.0001.874/5","location_source":"powiat ostrzeszowski (wfs)"}},{"type":"Feature","id":"ST-WK-OT/WNIOSEK/17833/2025::301801_2.0001.874/6","geometry":{"type":"Polygon","coordinates":[[[18.3428469319855,51.4793688366789],[18.3427599834549,51.4793823044984],[18.3427165837859,51.4803680002205],[18.3426878770136,51.4810228078087],[18.342719101026,51.4810322080531],[18.3427727945372,51.4810586949832],[18.3428469319855,51.4793688366789]]]},"properties":{"case_id":"ST-WK-OT/WNIOSEK/17833/2025","source_type":"wniosek_decyzja","received_date":"2025-08-25","decision_date":"2025-11-19","status":"decyzja wydana","description":"Budynek mieszkalny jednorodzinny","address":"Czajków","city":"Czajków","office":"Starosta Powiatu Ostrzeszów","case_kind":"Budynek mieszkalny jednorodzinny","parcel_ids":["301801_2.0001.874/5","301801_2.0001.874/6"],"location_quality":"dokładny","gunb_url":"https://wyszukiwarka.gunb.gov.pl/","parcel_count":2,"parcel_shard":"x073-y205","parcel_id":"301801_2.0001.874/6","location_source":"powiat ostrzeszowski (wfs)"}},{"type":"Feature","id":"ST-WK-OT/WNIOSEK/23202/2025::301801_2.0001.958/3","geometry":{"type":"Polygon","coordinates":[[[18.3428509298668,51.4792876553051],[18.3432214776535,51.4792400378136],[18.3432412754391,51.4784167483403],[18.3432525815176,51.477947674817],[18.342990892027,51.4780154753299],[18.3428178252107,51.4780401837451],[18.3427979120941,51.4788787258356],[18.3428509298668,51.4792876553051]]]},"properties":{"case_id":"ST-WK-OT/WNIOSEK/23202/2025","source_type":"wniosek_decyzja","received_date":"2025-11-14","decision_date":"2025-12-29","status":"decyzja wydana","description":"Budynek mieszkalny jednorodzinny i budynek gospodarczy wraz z infrastrukturą","address":"Czajków","city":"Czajków","office":"Starosta Powiatu Ostrzeszów","case_kind":"Budynek mieszkalny jednorodzinny","parcel_ids":["301801_2.0001.958/3"],"location_quality":"dokładny","gunb_url":"https://wyszukiwarka.gunb.gov.pl/","parcel_count":1,"parcel_shard":"x073-y205","parcel_id":"301801_2.0001.958/3","location_source":"powiat ostrzeszowski (wfs)"}},{"type":"Feature","id":"ST-WK-OT/WNIOSEK/10511/2026::301801_2.0003.174/1","geometry":{"type":"Polygon","coordinates":[[[18.3056005437216,51.4494161210984],[18.3052619614731,51.4494647522844],[18.3049135858863,51.4494816320945],[18.3040971733115,51.4496522408542],[18.3042546864336,51.4499465252697],[18.3057587149342,51.4496309935968],[18.3056005437216,51.4494161210984]]]},"properties":{"case_id":"ST-WK-OT/WNIOSEK/10511/2026","source_type":"wniosek_decyzja","received_date":"2026-05-28","decision_date":"2026-07-31","status":"decyzja wydana","description":"Budynek mieszkalny jednorodzinny w zabudowie zagrodowej","address":"Michałów","city":"Michałów","office":"Starosta Powiatu Ostrzeszów","case_kind":"Budynek mieszkalny jednorodzinny","parcel_ids":["301801_2.0003.174/1"],"location_quality":"dokładny","gunb_url":"https://wyszukiwarka.gunb.gov.pl/","parcel_count":1,"parcel_shard":"x073-y205","parcel_id":"301801_2.0003.174/1","location_source":"powiat ostrzeszowski (wfs)"}},{"type":"Feature","id":"ST-WK-OT/WNIOSEK/2811/2026::301801_2.0004.324","geometry":{"type":"Polygon","coordinates":[[[18.3309560298852,51.4689132226314],[18.3309686063461,51.4691116310826],[18.3310364535585,51.469599577063],[18.3318776332906,51.4693330502432],[18.332115701442,51.4691734176208],[18.3324068840755,51.4692274376935],[18.3326004575825,51.4691652287973],[18.3324034174891,51.4685345768276],[18.3322737896912,51.468557472009],[18.3309560298852,51.4689132226314]]]},"properties":{"case_id":"ST-WK-OT/WNIOSEK/2811/2026","source_type":"wniosek_decyzja","received_date":"2026-02-13","decision_date":"2026-04-15","status":"decyzja wydana","description":"Rozbudowa budynku mieszkalnego jednorodzinnego","address":"10, Mielcuchy","city":"Mielcuchy","office":"Starosta Powiatu Ostrzeszów","case_kind":"Budynek mieszkalny jednorodzinny","parcel_ids":["301801_2.0004.324"],"location_quality":"dokładny","gunb_url":"https://wyszukiwarka.gunb.gov.pl/","parcel_count":1,"parcel_shard":"x073-y205","parcel_id":"301801_2.0004.324","location_source":"powiat ostrzeszowski (wfs)"}},{"type":"Feature","id":"ST-WK-OT/WNIOSEK/19051/2025::301801_2.0004.38/1","geometry":{"type":"Polygon","coordinates":[[[18.3330457611332,51.4734182068403],[18.3325644643564,51.4735404733773],[18.3332841798107,51.474196866927],[18.333706615615,51.4740160674621],[18.3330457611332,51.4734182068403]]]},"properties":{"case_id":"ST-WK-OT/WNIOSEK/19051/2025","source_type":"wniosek_decyzja","received_date":"2025-09-16","decision_date":"2025-11-25","status":"decyzja wydana","description":"Budynek mieszkalny jednorodzinny oraz budynek gospodarczo – garażowy","address":"Mielcuchy","city":"Mielcuchy","office":"Starosta Powiatu Ostrzeszów","case_kind":"Budynek mieszkalny jednorodzinny","parcel_ids":["301801_2.0004.38/1"],"location_quality":"dokładny","gunb_url":"https://wyszukiwarka.gunb.gov.pl/","parcel_count":1,"parcel_shard":"x073-y205","parcel_id":"301801_2.0004.38/1","location_source":"powiat ostrzeszowski (wfs)"}},{"type":"Feature","id":"ST-WK-OT/WNIOSEK/9963/2026::301801_2.0004.891/1","geometry":{"type":"Polygon","coordinates":[[[18.3397692906497,51.4499875537342],[18.3410342151886,51.4496515604326],[18.3412488543789,51.4495934067421],[18.3410881103367,51.4493548586442],[18.3409145229164,51.4494004879567],[18.3395216491612,51.4497668736064],[18.3397692906497,51.4499875537342]]]},"properties":{"case_id":"ST-WK-OT/WNIOSEK/9963/2026","source_type":"wniosek_decyzja","received_date":"2026-05-21","decision_date":"2026-08-26","status":"decyzja wydana","description":"Budynek mieszkalny jednorodzinny","address":"Mielcuchy","city":"Mielcuchy","office":"Starosta Powiatu Ostrzeszów","case_kind":"Budynek mieszkalny jednorodzinny","parcel_ids":["301801_2.0004.891/1"],"location_quality":"dokładny","gunb_url":"https://wyszukiwarka.gunb.gov.pl/","parcel_count":1,"parcel_shard":"x073-y205","parcel_id":"301801_2.0004.891/1","location_source":"powiat ostrzeszowski (wfs)"}},{"type":"Feature","id":"ST-WK-OT/WNIOSEK/22948/2025::301805_2.0002.1063","geometry":{"type":"Polygon","coordinates":[[[18.2772025575189,51.4765230335312],[18.2777071249585,51.4763481573843],[18.2779698152414,51.4754738267624],[18.27756462813,51.4754609497275],[18.2772025575189,51.4765230335312]]]},"properties":{"case_id":"ST-WK-OT/WNIOSEK/22948/2025","source_type":"wniosek_decyzja","received_date":"2025-11-06","decision_date":"2025-12-22","status":"decyzja wydana","description":"Przebudowa i rozbudowa budynku mieszkalnego jednorodzinnego","address":"14, Jeziorki","city":"Jeziorki","office":"Starosta Powiatu Ostrzeszów","case_kind":"Budynek mieszkalny jednorodzinny","parcel_ids":["301805_2.0002.1063"],"location_quality":"dokładny","gunb_url":"https://wyszukiwarka.gunb.gov.pl/","parcel_count":1,"parcel_shard":"x073-y205","parcel_id":"301805_2.0002.1063","location_source":"powiat ostrzeszowski (wfs)"}},{"type":"Feature","id":"ST-WK-OT/WNIOSEK/1339/2026::301805_2.0002.824/3","geometry":{"type":"Polygon","coordinates":[[[18.2596515020676,51.4705399564334],[18.2564939936481,51.471029552917],[18.2568085957309,51.4718946676714],[18.2582212778759,51.4716832613335],[18.2620506508153,51.4711100994221],[18.2621989963108,51.4706487144017],[18.262254606621,51.4704183188244],[18.2623151231165,51.4702916173774],[18.2612065510518,51.4704323386101],[18.2611017094808,51.4701423111413],[18.259601035702,51.4703796180139],[18.2596515020676,51.4705399564334]]]},"properties":{"case_id":"ST-WK-OT/WNIOSEK/1339/2026","source_type":"wniosek_decyzja","received_date":"2026-01-22","decision_date":"2026-03-18","status":"decyzja wydana","description":"Rozbudowa wiaty gospodarczej w zabudowie zagrodowej","address":"Jelenie","city":"Jelenie","office":"Starosta Powiatu Ostrzeszów","case_kind":"Obiekt budowlany inny niż budynek mieszkalny jednorodzinny","parcel_ids":["301805_2.0002.824/3"],"location_quality":"dokładny","gunb_url":"https://wyszukiwarka.gunb.gov.pl/","parcel_count":1,"parcel_shard":"x073-y205","parcel_id":"301805_2.0002.824/3","location_source":"powiat ostrzeszowski (wfs)"}},{"type":"Feature","id":"ST-WK-OT/ZGŁOSZENIE/3167/2025::301805_2.0005.664","geometry":{"type":"Polygon","coordinates":[[[18.2701883904316,51.4980197523175],[18.2700131387615,51.498072384166],[18.2696060336726,51.4981950565224],[18.2719649516795,51.499415543661],[18.2720120016034,51.4993995760972],[18.2722851551558,51.4990711369804],[18.2701883904316,51.4980197523175]]]},"properties":{"case_id":"ST-WK-OT/ZGŁOSZENIE/3167/2025","source_type":"zgloszenie","received_date":"2025-10-06","decision_date":null,"status":"Brak sprzeciwu","description":"Budowa linii kablowej SN i nN, stacji transformatorowej SN/nN","address":"Kuźnica Grabowska","city":"Kuźnica Grabowska","office":"Starosta Powiatu Ostrzeszów","case_kind":"budowa nowego/nowych obiektów budowlanych","parcel_ids":["301805_2.0005.664","301805_2.0005.667","301805_2.0005.708","301805_2.0005.731"],"location_quality":"dokładny","gunb_url":"https://wyszukiwarka.gunb.gov.pl/","parcel_count":4,"parcel_shard":"x073-y205","parcel_id":"301805_2.0005.664","location_source":"powiat ostrzeszowski (wfs)"}},{"type":"Feature","id":"ST-WK-OT/ZGŁOSZENIE/3167/2025::301805_2.0005.667","geometry":{"type":"Polygon","coordinates":[[[18.2712549720449,51.4977050434846],[18.2707791586935,51.4978446106234],[18.2728215049807,51.4988760046149],[18.2729227346791,51.4988951364572],[18.2730370523386,51.4989577498204],[18.2730507771794,51.4989905396516],[18.274128263297,51.4995455306016],[18.2746325639681,51.4995606629446],[18.2750125579062,51.4996374118844],[18.2756086219378,51.4999472538884],[18.2757845357105,51.5000832944133],[18.2758630626534,51.5003073084501],[18.2759453684597,51.5003330008528],[18.2760615016523,51.5003160858851],[18.2761831805302,51.5002049209636],[18.2712549720449,51.4977050434846]]]},"properties":{"case_id":"ST-WK-OT/ZGŁOSZENIE/3167/2025","source_type":"zgloszenie","received_date":"2025-10-06","decision_date":null,"status":"Brak sprzeciwu","description":"Budowa linii kablowej SN i nN, stacji transformatorowej SN/nN","address":"Kuźnica Grabowska","city":"Kuźnica Grabowska","office":"Starosta Powiatu Ostrzeszów","case_kind":"budowa nowego/nowych obiektów budowlanych","parcel_ids":["301805_2.0005.664","301805_2.0005.667","301805_2.0005.708","301805_2.0005.731"],"location_quality":"dokładny","gunb_url":"https://wyszukiwarka.gunb.gov.pl/","parcel_count":4,"parcel_shard":"x073-y205","parcel_id":"301805_2.0005.667","location_source":"powiat ostrzeszowski (wfs)"}},{"type":"Feature","id":"ST-WK-OT/ZGŁOSZENIE/3167/2025::301805_2.0005.708","geometry":{"type":"Polygon","coordinates":[[[18.2883177216277,51.4927877020966],[18.2860404885711,51.4934433722089],[18.2858366357682,51.4935000519146],[18.2850976565127,51.4937055999789],[18.2847188094863,51.4938109800985],[18.2840541127363,51.4939959104652],[18.2839208467053,51.4940318216128],[18.2829429408296,51.4943049445713],[18.2820524985657,51.4945527290591],[18.2814093336483,51.4947317139136],[18.2802258150911,51.4950674047374],[18.279125320268,51.4953605289878],[18.2784540707718,51.4955482527608],[18.2772043984128,51.495876017306],[18.2762228405292,51.4961716136081],[18.275723816251,51.4963111795527],[18.2752312252792,51.4964488169912],[18.2751690085548,51.4964662010934],[18.274716787607,51.4965925556822],[18.2743784531526,51.4966873352714],[18.2739400882426,51.4968015867946],[18.2735242042011,51.4969161587563],[18.2733374654993,51.496984528477],[18.2728264189665,51.4971253947798],[18.2721346904798,51.4973459837973],[18.2716336674193,51.4974927254641],[18.2716197657184,51.4974969473597],[18.2711290957733,51.4976465990255],[18.2706658193372,51.4977878930758],[18.2700733007355,51.4979651668355],[18.2695086105818,51.4981385174398],[18.2689080961749,51.4983210479403],[18.2683065563172,51.498503892312],[18.2684164486795,51.4985747432157],[18.2693311793926,51.4982778767929],[18.2696060336726,51.4981950565224],[18.2700131387615,51.498072384166],[18.2701883904316,51.4980197523175],[18.2707791586935,51.4978446106234],[18.2712549720449,51.4977050434846],[18.2717606291051,51.4975539338703],[18.2722533920749,51.4974049436498],[18.2725431888733,51.497313588353],[18.2729436921835,51.497192372275],[18.2736094821067,51.4970046620155],[18.2736681389246,51.496988075578],[18.2741446706566,51.4968517485021],[18.2745188359329,51.4967473925223],[18.2746948816593,51.496698292195],[18.2748391828658,51.4966578795468],[18.2752579050343,51.4965406118307],[18.2753666891381,51.4965135266064],[18.2758693909587,51.4963773401346],[18.2763451678267,51.4962429970433],[18.2766902510638,51.4961464828153],[18.2773845104649,51.4959635532945],[18.2786027495919,51.4956171930908],[18.2792634877696,51.4954283965593],[18.2803510551855,51.4951307465531],[18.2810869290204,51.4949219720539],[18.281534861351,51.4947948740024],[18.282178026107,51.4946157985737],[18.2830685871572,51.4943678973965],[18.2839631615592,51.4941185415053],[18.2840446687324,51.4940957821187],[18.2851614132057,51.4937977594192],[18.2857964552317,51.4936136147454],[18.2861725636104,51.4935042227214],[18.286671747652,51.493364180893],[18.2876735234741,51.4930829648297],[18.2879616690691,51.4930035526294],[18.2881180733675,51.4929622824774],[18.2885081655947,51.4928454069295],[18.2885709479051,51.4928180943877],[18.2883177216277,51.4927877020966]]]},"properties":{"case_id":"ST-WK-OT/ZGŁOSZENIE/3167/2025","source_type":"zgloszenie","received_date":"2025-10-06","decision_date":null,"status":"Brak sprzeciwu","description":"Budowa linii kablowej SN i nN, stacji transformatorowej SN/nN","address":"Kuźnica Grabowska","city":"Kuźnica Grabowska","office":"Starosta Powiatu Ostrzeszów","case_kind":"budowa nowego/nowych obiektów budowlanych","parcel_ids":["301805_2.0005.664","301805_2.0005.667","301805_2.0005.708","301805_2.0005.731"],"location_quality":"dokładny","gunb_url":"https://wyszukiwarka.gunb.gov.pl/","parcel_count":4,"parcel_shard":"x073-y205","parcel_id":"301805_2.0005.708","location_source":"powiat ostrzeszowski (wfs)"}},{"type":"Feature","id":"ST-WK-OT/ZGŁOSZENIE/3167/2025::301805_2.0005.731","geometry":{"type":"Polygon","coordinates":[[[18.2711290957733,51.4976465990255],[18.2716197657184,51.4974969473597],[18.2716336674193,51.4974927254641],[18.2710957519575,51.4972268964692],[18.2701122766094,51.4967320331806],[18.2654739834048,51.4943035851191],[18.2651799843474,51.4943974797722],[18.265005490387,51.4944504987474],[18.2698020717606,51.4969687819657],[18.2707774143336,51.4974658268658],[18.2711290957733,51.4976465990255]]]},"properties":{"case_id":"ST-WK-OT/ZGŁOSZENIE/3167/2025","source_type":"zgloszenie","received_date":"2025-10-06","decision_date":null,"status":"Brak sprzeciwu","description":"Budowa linii kablowej SN i nN, stacji transformatorowej SN/nN","address":"Kuźnica Grabowska","city":"Kuźnica Grabowska","office":"Starosta Powiatu Ostrzeszów","case_kind":"budowa nowego/nowych obiektów budowlanych","parcel_ids":["301805_2.0005.664","301805_2.0005.667","301805_2.0005.708","301805_2.0005.731"],"location_quality":"dokładny","gunb_url":"https://wyszukiwarka.gunb.gov.pl/","parcel_count":4,"parcel_shard":"x073-y205","parcel_id":"301805_2.0005.731","location_source":"powiat ostrzeszowski (wfs)"}},{"type":"Feature","id":"ST-WK-OT/WNIOSEK/7186/2026::301805_2.0005.735/1","geometry":{"type":"Polygon","coordinates":[[[18.2679657676111,51.4978495461125],[18.2675874713778,51.4981440933786],[18.2683065563172,51.498503892312],[18.2689080961749,51.4983210479403],[18.2679657676111,51.4978495461125]]]},"properties":{"case_id":"ST-WK-OT/WNIOSEK/7186/2026","source_type":"wniosek_decyzja","received_date":"2026-04-15","decision_date":"2026-07-03","status":"decyzja wydana","description":"Budynek mieszkalny jednorodzinny oraz budynek gospodarczy","address":"Kuźnica Grabowska","city":"Kuźnica Grabowska","office":"Starosta Powiatu Ostrzeszów","case_kind":"Budynek mieszkalny jednorodzinny","parcel_ids":["301805_2.0005.735/1"],"location_quality":"dokładny","gunb_url":"https://wyszukiwarka.gunb.gov.pl/","parcel_count":1,"parcel_shard":"x073-y205","parcel_id":"301805_2.0005.735/1","location_source":"powiat ostrzeszowski (wfs)"}}]}