{"type":"FeatureCollection","features":[{"type":"Feature","id":"ST-WK-KO/WNIOSEK/21643/2025::300903_2.0026.104","geometry":{"type":"Polygon","coordinates":[[[18.99837085991,52.2252621424819],[18.9988092005012,52.2244661475244],[18.9992076835106,52.2237425153526],[18.9998056111729,52.2226566600365],[18.9993185877075,52.2225307071534],[18.9979990718219,52.2249255033325],[18.9978289035332,52.2252387944207],[18.99837085991,52.2252621424819]]]},"properties":{"case_id":"ST-WK-KO/WNIOSEK/21643/2025","source_type":"wniosek_decyzja","received_date":"2025-10-23","decision_date":"2025-12-01","status":"decyzja wydana","description":"Budowa budynku mieszkalnego jednorodzinnego typu\"Dom na parkowej 6\" - adaptacja projektu powtarzalnego wraz ze zbiornikiem bezodpływowym na ścieki socjalne","address":"Rdutów","city":"Rdutów","office":"Starosta Powiatu Koło","case_kind":"Budynek mieszkalny jednorodzinny","parcel_ids":["300903_2.0026.104"],"location_quality":"dokładny","gunb_url":"https://wyszukiwarka.gunb.gov.pl/","parcel_count":1,"parcel_shard":"x075-y208","parcel_id":"300903_2.0026.104","location_source":"powiat kolski (wfs)"}},{"type":"Feature","id":"ST-WK-KO/WNIOSEK/22491/2025::300904_4.0001.AR_1.417","geometry":{"type":"Polygon","coordinates":[[[18.8381793087148,52.0912405490571],[18.8372379851425,52.0933245900116],[18.8373266155953,52.0933508350811],[18.8382258700735,52.0912283662096],[18.8378572587405,52.0908562212974],[18.8377280693588,52.0907262340045],[18.8374858511568,52.090426040066],[18.8373615705865,52.090270695773],[18.8372474698892,52.0901387225072],[18.8370062566099,52.0897715208279],[18.8368894878597,52.0896507451942],[18.8367083196034,52.0895173018836],[18.8365933505026,52.0894549380052],[18.8362836396455,52.0893165647379],[18.8359409881132,52.089170071664],[18.8351230215051,52.0889045961077],[18.8350676932691,52.0889498473248],[18.8352112313125,52.0889963146386],[18.8357618123043,52.0891746107469],[18.8359747536116,52.0892436340613],[18.8363709044785,52.0894158522497],[18.8366652975856,52.0895846274701],[18.8368528211218,52.0896743453226],[18.8369780536949,52.089828324615],[18.8371192629261,52.0900168981439],[18.8372214497604,52.0901863149265],[18.8374757862025,52.0904775661388],[18.837703267541,52.0907658016433],[18.8378395164783,52.0909089669719],[18.8381793087148,52.0912405490571]]]},"properties":{"case_id":"ST-WK-KO/WNIOSEK/22491/2025","source_type":"wniosek_decyzja","received_date":"2025-11-03","decision_date":"2025-11-21","status":"decyzja wydana","description":"Budowa odcinka sieci wodociągowej  etap II","address":"Nadrzeczna, Dąbie","city":"Dąbie","office":"Starosta Powiatu Koło","case_kind":"Obiekt budowlany inny niż budynek mieszkalny jednorodzinny","parcel_ids":["300904_4.0001.AR_1.417"],"location_quality":"dokładny","gunb_url":"https://wyszukiwarka.gunb.gov.pl/","parcel_count":1,"parcel_shard":"x075-y208","parcel_id":"300904_4.0001.AR_1.417","location_source":"powiat kolski (wfs)"}},{"type":"Feature","id":"ST-WK-KO/WNIOSEK/21252/2025::300904_4.0001.AR_2.854/5","geometry":{"type":"Polygon","coordinates":[[[18.8174449669998,52.093054987061],[18.8175980429009,52.0926479314535],[18.8172833200975,52.0926098469164],[18.8171398677387,52.0930086562027],[18.8174449669998,52.093054987061]]]},"properties":{"case_id":"ST-WK-KO/WNIOSEK/21252/2025","source_type":"wniosek_decyzja","received_date":"2025-10-17","decision_date":"2025-12-01","status":"decyzja wydana","description":"Budowa budynku mieszkalnego jednorodzinnego wg projektu powtarzalnego \"DOM w Leszczynowcach\" oraz naziemnego zbiornika na gaz płynny V= 3700l","address":"Dąbie","city":"Dąbie","office":"Starosta Powiatu Koło","case_kind":"Budynek mieszkalny jednorodzinny","parcel_ids":["300904_4.0001.AR_2.854/5"],"location_quality":"dokładny","gunb_url":"https://wyszukiwarka.gunb.gov.pl/","parcel_count":1,"parcel_shard":"x075-y208","parcel_id":"300904_4.0001.AR_2.854/5","location_source":"powiat kolski (wfs)"}},{"type":"Feature","id":"ST-WK-KO/WNIOSEK/2024/2026::300904_4.0001.AR_3.1213/2","geometry":{"type":"Polygon","coordinates":[[[18.8148318927806,52.0864946589267],[18.8151358917017,52.0865152073195],[18.815121673377,52.0862633679724],[18.8149973018606,52.0851707302477],[18.8146931127614,52.0851873038717],[18.8148210539652,52.0861318824934],[18.8148231841559,52.0862248051751],[18.8148237511548,52.0862959873533],[18.8148318927806,52.0864946589267]]]},"properties":{"case_id":"ST-WK-KO/WNIOSEK/2024/2026","source_type":"wniosek_decyzja","received_date":"2026-02-04","decision_date":"2026-03-23","status":"decyzja wydana","description":"Zmiana decyzji nr 68.2022 z dnia 17.02.2022r pozwolenia na budowę budynku mieszkalnego jednorodzinnego w zakresie zmiany ogrzewania - instalacja gazowa wewnętrzna i zewnętrzna wraz z zbiornikiem naziemnym gazu płynnego V=2700dm3 dla budynku mieszkalnego jednorodzinnego  wg projektu zmian","address":"Dąbie","city":"Dąbie","office":"Starosta Powiatu Koło","case_kind":"Budynek mieszkalny jednorodzinny","parcel_ids":["300904_4.0001.AR_3.1213/2"],"location_quality":"dokładny","gunb_url":"https://wyszukiwarka.gunb.gov.pl/","parcel_count":1,"parcel_shard":"x075-y208","parcel_id":"300904_4.0001.AR_3.1213/2","location_source":"powiat kolski (wfs)"}},{"type":"Feature","id":"ST-WK-KO/WNIOSEK/1714/2026::300904_4.0001.AR_5.1087/2","geometry":{"type":"Polygon","coordinates":[[[18.8134064483774,52.0902114818779],[18.8133016229871,52.0904811301739],[18.8138596021107,52.0905450498573],[18.8139647029884,52.0902746801061],[18.8134064483774,52.0902114818779]]]},"properties":{"case_id":"ST-WK-KO/WNIOSEK/1714/2026","source_type":"wniosek_decyzja","received_date":"2026-01-30","decision_date":"2026-02-27","status":"decyzja wydana","description":"Zmiana decyzji nr 301.2023 z dnia 31.07.2023r. pozwolenia na budowę budynku mieszkalnego jednorodzinnego oraz zbiornika bezodpływowego na ścieki w zakresie zmiany ogrzewania - instalacja gazowa wewnętrzna i zewnętrzna wraz z zbiornikiem podziemnym gazu płynnego V=2700dm3 dla budynku mieszkalnego jednorodzinnego  wg projektu zmian","address":"Dąbie","city":"Dąbie","office":"Starosta Powiatu Koło","case_kind":"Budynek mieszkalny jednorodzinny","parcel_ids":["300904_4.0001.AR_5.1087/2"],"location_quality":"dokładny","gunb_url":"https://wyszukiwarka.gunb.gov.pl/","parcel_count":1,"parcel_shard":"x075-y208","parcel_id":"300904_4.0001.AR_5.1087/2","location_source":"powiat kolski (wfs)"}},{"type":"Feature","id":"ST-WK-KO/WNIOSEK/21633/2025::300904_4.0001.AR_5.1136/1","geometry":{"type":"Polygon","coordinates":[[[18.8194210965664,52.0909995151888],[18.8198443800234,52.0897947768511],[18.8197023991977,52.0897713722638],[18.8195852859671,52.089755158395],[18.8194921000165,52.0897417465017],[18.8190590974267,52.0909340595798],[18.8194210965664,52.0909995151888]]]},"properties":{"case_id":"ST-WK-KO/WNIOSEK/21633/2025","source_type":"wniosek_decyzja","received_date":"2025-10-23","decision_date":"2025-12-17","status":"decyzja wydana","description":"Przebudowa budynku handlowo-usługowego wraz z infrastrukturą towarzyszącą oraz budowa budynku technicznego","address":"Dąbie","city":"Dąbie","office":"Starosta Powiatu Koło","case_kind":"Obiekt budowlany inny niż budynek mieszkalny jednorodzinny","parcel_ids":["300904_4.0001.AR_5.1136/1","300904_4.0001.AR_5.1137/1"],"location_quality":"dokładny","gunb_url":"https://wyszukiwarka.gunb.gov.pl/","parcel_count":2,"parcel_shard":"x075-y208","parcel_id":"300904_4.0001.AR_5.1136/1","location_source":"powiat kolski (wfs)"}},{"type":"Feature","id":"ST-WK-KO/WNIOSEK/21633/2025::300904_4.0001.AR_5.1137/1","geometry":{"type":"Polygon","coordinates":[[[18.8194210965664,52.0909995151888],[18.8195168374733,52.0910113525903],[18.8197684868529,52.091044723587],[18.8201941196148,52.0898465043386],[18.8198443800234,52.0897947768511],[18.8194210965664,52.0909995151888]]]},"properties":{"case_id":"ST-WK-KO/WNIOSEK/21633/2025","source_type":"wniosek_decyzja","received_date":"2025-10-23","decision_date":"2025-12-17","status":"decyzja wydana","description":"Przebudowa budynku handlowo-usługowego wraz z infrastrukturą towarzyszącą oraz budowa budynku technicznego","address":"Dąbie","city":"Dąbie","office":"Starosta Powiatu Koło","case_kind":"Obiekt budowlany inny niż budynek mieszkalny jednorodzinny","parcel_ids":["300904_4.0001.AR_5.1136/1","300904_4.0001.AR_5.1137/1"],"location_quality":"dokładny","gunb_url":"https://wyszukiwarka.gunb.gov.pl/","parcel_count":2,"parcel_shard":"x075-y208","parcel_id":"300904_4.0001.AR_5.1137/1","location_source":"powiat kolski (wfs)"}},{"type":"Feature","id":"ST-WK-KO/WNIOSEK/5720/2026::300904_5.0004.AR_1.105/17","geometry":{"type":"Polygon","coordinates":[[[18.7525716771345,52.1154754730156],[18.7524764961951,52.1155562892711],[18.7529934115155,52.1159858546733],[18.754550638132,52.1156294580039],[18.7537141843405,52.1148110435528],[18.753487619155,52.1149295819928],[18.7534307982874,52.1148885024253],[18.7531013404011,52.1150620801249],[18.752814086866,52.1152576624658],[18.7525716771345,52.1154754730156]]]},"properties":{"case_id":"ST-WK-KO/WNIOSEK/5720/2026","source_type":"wniosek_decyzja","received_date":"2026-03-26","decision_date":"2026-04-23","status":"decyzja wydana","description":"Instalacja gazowa wewnętrzna i zewnętrzna wraz z zbiornikiem naziemnym gazu płynnego V=2700dm3 dla budynku mieszkalnego jednorodzinnego","address":"Chełmno-Parcele","city":"Chełmno-Parcele","office":"Starosta Powiatu Koło","case_kind":"Budynek mieszkalny jednorodzinny","parcel_ids":["300904_5.0004.AR_1.105/17"],"location_quality":"dokładny","gunb_url":"https://wyszukiwarka.gunb.gov.pl/","parcel_count":1,"parcel_shard":"x075-y208","parcel_id":"300904_5.0004.AR_1.105/17","location_source":"powiat kolski (wfs)"}},{"type":"Feature","id":"ST-WK-KO/WNIOSEK/10277/2026::300904_5.0007.AR_2.429/1","geometry":{"type":"Polygon","coordinates":[[[18.780847505146,52.066955172143],[18.7808197379458,52.067227392039],[18.783622971694,52.0670233097036],[18.786070689752,52.0668450328166],[18.7860734048638,52.0668221456987],[18.7858814786467,52.0666160758002],[18.7858741080439,52.0665896825592],[18.7858632007474,52.0665904171565],[18.780847505146,52.066955172143]]]},"properties":{"case_id":"ST-WK-KO/WNIOSEK/10277/2026","source_type":"wniosek_decyzja","received_date":"2026-05-29","decision_date":"2026-07-10","status":"decyzja wydana","description":"Budowa budynku gospodarczo-garażowego","address":"Cichmiana","city":"Cichmiana","office":"Starosta Powiatu Koło","case_kind":"Obiekt budowlany inny niż budynek mieszkalny jednorodzinny","parcel_ids":["300904_5.0007.AR_2.429/1","300904_5.0007.AR_2.432","300904_5.0007.AR_2.435"],"location_quality":"dokładny","gunb_url":"https://wyszukiwarka.gunb.gov.pl/","parcel_count":3,"parcel_shard":"x075-y208","parcel_id":"300904_5.0007.AR_2.429/1","location_source":"powiat kolski (wfs)"}},{"type":"Feature","id":"ST-WK-KO/WNIOSEK/10277/2026::300904_5.0007.AR_2.432","geometry":{"type":"Polygon","coordinates":[[[18.7858741080439,52.0665896825592],[18.7859345562073,52.0664761168894],[18.7861643065271,52.0662184448701],[18.78096154861,52.0665785492609],[18.780847505146,52.066955172143],[18.7858632007474,52.0665904171565],[18.7858741080439,52.0665896825592]]]},"properties":{"case_id":"ST-WK-KO/WNIOSEK/10277/2026","source_type":"wniosek_decyzja","received_date":"2026-05-29","decision_date":"2026-07-10","status":"decyzja wydana","description":"Budowa budynku gospodarczo-garażowego","address":"Cichmiana","city":"Cichmiana","office":"Starosta Powiatu Koło","case_kind":"Obiekt budowlany inny niż budynek mieszkalny jednorodzinny","parcel_ids":["300904_5.0007.AR_2.429/1","300904_5.0007.AR_2.432","300904_5.0007.AR_2.435"],"location_quality":"dokładny","gunb_url":"https://wyszukiwarka.gunb.gov.pl/","parcel_count":3,"parcel_shard":"x075-y208","parcel_id":"300904_5.0007.AR_2.432","location_source":"powiat kolski (wfs)"}},{"type":"Feature","id":"ST-WK-KO/WNIOSEK/10277/2026::300904_5.0007.AR_2.435","geometry":{"type":"Polygon","coordinates":[[[18.7810310435329,52.0662753729495],[18.78096154861,52.0665785492609],[18.7861643065271,52.0662184448701],[18.7864918035552,52.0658183954079],[18.7837460998675,52.0660154944825],[18.7837491170949,52.0660362110506],[18.7811539090807,52.0662262442225],[18.7810594993587,52.0662382694999],[18.7810310435329,52.0662753729495]]]},"properties":{"case_id":"ST-WK-KO/WNIOSEK/10277/2026","source_type":"wniosek_decyzja","received_date":"2026-05-29","decision_date":"2026-07-10","status":"decyzja wydana","description":"Budowa budynku gospodarczo-garażowego","address":"Cichmiana","city":"Cichmiana","office":"Starosta Powiatu Koło","case_kind":"Obiekt budowlany inny niż budynek mieszkalny jednorodzinny","parcel_ids":["300904_5.0007.AR_2.429/1","300904_5.0007.AR_2.432","300904_5.0007.AR_2.435"],"location_quality":"dokładny","gunb_url":"https://wyszukiwarka.gunb.gov.pl/","parcel_count":3,"parcel_shard":"x075-y208","parcel_id":"300904_5.0007.AR_2.435","location_source":"powiat kolski (wfs)"}},{"type":"Feature","id":"ST-WK-KO/WNIOSEK/21930/2025::300904_5.0008.AR_1.130","geometry":{"type":"Polygon","coordinates":[[[18.8258633863524,52.0727269124761],[18.8259493690427,52.0730723911109],[18.8260426452982,52.0734471690761],[18.8261197259383,52.0738300641299],[18.8248465565534,52.0738491373694],[18.8241339265383,52.0738598746783],[18.824246784566,52.0742537559354],[18.8262477588881,52.0742074786951],[18.8263454396745,52.0744950430757],[18.8281999518492,52.0741707875079],[18.8280516416627,52.0726966224649],[18.8277245066082,52.0725143969923],[18.827353265358,52.0723160710302],[18.8258633863524,52.0727269124761]]]},"properties":{"case_id":"ST-WK-KO/WNIOSEK/21930/2025","source_type":"wniosek_decyzja","received_date":"2025-10-27","decision_date":"2025-12-03","status":"decyzja wydana","description":"Zmiana decyzji nr 40.2024 z dnia 02.02.2024r. pozwolenia na budowę budynku mieszkalnego jednorodzinnego oraz zbiornik na nieczystości ciekłe w miejsc. Domanin, gm. Dąbie, dz. nr 130 w zakresie zmiany ogrzewania -zbiornik na gaz o poj. V=4,85m3, oczyszczalnia ścieków","address":"Domanin","city":"Domanin","office":"Starosta Powiatu Koło","case_kind":"Budynek mieszkalny jednorodzinny","parcel_ids":["300904_5.0008.AR_1.130"],"location_quality":"dokładny","gunb_url":"https://wyszukiwarka.gunb.gov.pl/","parcel_count":1,"parcel_shard":"x075-y208","parcel_id":"300904_5.0008.AR_1.130","location_source":"powiat kolski (wfs)"}},{"type":"Feature","id":"ST-WK-KO/WNIOSEK/21008/2025::300904_5.0008.AR_1.47/5","geometry":{"type":"Polygon","coordinates":[[[18.8190567064346,52.0739366109119],[18.8181947548055,52.0745242214699],[18.8192245033923,52.0748161949589],[18.8193271761908,52.0748392100575],[18.8208102916302,52.0738029821929],[18.8196025036502,52.0731310725882],[18.8187032730976,52.0737447422546],[18.8190567064346,52.0739366109119]]]},"properties":{"case_id":"ST-WK-KO/WNIOSEK/21008/2025","source_type":"wniosek_decyzja","received_date":"2025-10-15","decision_date":"2025-12-16","status":"decyzja wydana","description":"Budowa stacji bazowej telefonii komórkowej sieci Play nr KLS3044A","address":"Domanin","city":"Domanin","office":"Starosta Powiatu Koło","case_kind":"Obiekt budowlany inny niż budynek mieszkalny jednorodzinny","parcel_ids":["300904_5.0008.AR_1.47/5"],"location_quality":"dokładny","gunb_url":"https://wyszukiwarka.gunb.gov.pl/","parcel_count":1,"parcel_shard":"x075-y208","parcel_id":"300904_5.0008.AR_1.47/5","location_source":"powiat kolski (wfs)"}},{"type":"Feature","id":"ST-WK-KO/WNIOSEK/1067/2026::300904_5.0012.AR_1.12","geometry":{"type":"Polygon","coordinates":[[[18.8645452835842,52.1150882247671],[18.864667469445,52.1151101586554],[18.8648331622201,52.1135175951214],[18.8650329312565,52.1115968937873],[18.8652240220239,52.1097490590422],[18.8651058549389,52.1096851216672],[18.8649093232602,52.1115915088904],[18.8647077955383,52.1135121330179],[18.8645452835842,52.1150882247671]]]},"properties":{"case_id":"ST-WK-KO/WNIOSEK/1067/2026","source_type":"wniosek_decyzja","received_date":"2026-01-21","decision_date":"2026-03-16","status":"decyzja wydana","description":"Budowa budynku mieszkalnego jednorodzinnego, zbiornik bezodpływowy na ścieki bytowe 10m3","address":"Kupinin","city":"Kupinin","office":"Starosta Powiatu Koło","case_kind":"Budynek mieszkalny jednorodzinny","parcel_ids":["300904_5.0012.AR_1.12"],"location_quality":"dokładny","gunb_url":"https://wyszukiwarka.gunb.gov.pl/","parcel_count":1,"parcel_shard":"x075-y208","parcel_id":"300904_5.0012.AR_1.12","location_source":"powiat kolski (wfs)"}},{"type":"Feature","id":"ST-WK-KO/WNIOSEK/19346/2025::300904_5.0013.AR_1.74","geometry":{"type":"Polygon","coordinates":[[[18.9123163471563,52.1016518851789],[18.9122772500147,52.1019564596182],[18.912284974685,52.1019824794424],[18.9123942005435,52.1020060365077],[18.9138514805218,52.1017594631822],[18.913883015984,52.1017594047447],[18.9142321682729,52.1015207947176],[18.914254825298,52.1014146587776],[18.9142122777138,52.1012432531839],[18.9139400274411,52.1010949966026],[18.9129985677701,52.1012762262528],[18.9123163471563,52.1016518851789]]]},"properties":{"case_id":"ST-WK-KO/WNIOSEK/19346/2025","source_type":"wniosek_decyzja","received_date":"2025-09-23","decision_date":"2025-11-13","status":"decyzja wydana","description":"Przebudowa stawu ziemnego","address":"Krzewo","city":"Krzewo","office":"Starosta Powiatu Koło","case_kind":"Obiekt budowlany inny niż budynek mieszkalny jednorodzinny","parcel_ids":["300904_5.0013.AR_1.74"],"location_quality":"dokładny","gunb_url":"https://wyszukiwarka.gunb.gov.pl/","parcel_count":1,"parcel_shard":"x075-y208","parcel_id":"300904_5.0013.AR_1.74","location_source":"powiat kolski (wfs)"}},{"type":"Feature","id":"ST-WK-KO/WNIOSEK/829/2026::300904_5.0024.AR_1.90/2","geometry":{"type":"Polygon","coordinates":[[[18.8539647199714,52.1027715777716],[18.8536938129613,52.1033907462678],[18.8545500127634,52.103852864537],[18.8556200757839,52.1009275396819],[18.8553981253253,52.1009677992854],[18.8552996390637,52.1014958482097],[18.8548943675146,52.1014673291297],[18.8549725503296,52.1010450384872],[18.8548515379785,52.1010669482557],[18.8533990345408,52.1013225794423],[18.853390652833,52.1016309786759],[18.8534637722476,52.1017572520915],[18.8541169022576,52.1016642394557],[18.8541592319883,52.1020800203533],[18.8542103912951,52.1027155563276],[18.8539647199714,52.1027715777716]]]},"properties":{"case_id":"ST-WK-KO/WNIOSEK/829/2026","source_type":"wniosek_decyzja","received_date":"2026-01-16","decision_date":"2026-02-17","status":"decyzja wydana","description":"Zmiana sposobu użytkowania części strychu na kotłownię w budynku mieszkalnym jednorodzinnym oraz budowa naziemnego zbiornika na gaz płynny V=4850l","address":"Wiesiołów","city":"Wiesiołów","office":"Starosta Powiatu Koło","case_kind":"Budynek mieszkalny jednorodzinny","parcel_ids":["300904_5.0024.AR_1.90/2","300904_5.0024.AR_1.91/2"],"location_quality":"dokładny","gunb_url":"https://wyszukiwarka.gunb.gov.pl/","parcel_count":2,"parcel_shard":"x075-y208","parcel_id":"300904_5.0024.AR_1.90/2","location_source":"powiat kolski (wfs)"}},{"type":"Feature","id":"ST-WK-KO/WNIOSEK/829/2026::300904_5.0024.AR_1.91/2","geometry":{"type":"Polygon","coordinates":[[[18.8533990345408,52.1013225794423],[18.8533526664724,52.1013305985944],[18.8533496220257,52.1016403870659],[18.8530971208448,52.1016982853646],[18.8531203627234,52.1021229130997],[18.8541592319883,52.1020800203533],[18.8541169022576,52.1016642394557],[18.8534637722476,52.1017572520915],[18.853390652833,52.1016309786759],[18.8533990345408,52.1013225794423]]]},"properties":{"case_id":"ST-WK-KO/WNIOSEK/829/2026","source_type":"wniosek_decyzja","received_date":"2026-01-16","decision_date":"2026-02-17","status":"decyzja wydana","description":"Zmiana sposobu użytkowania części strychu na kotłownię w budynku mieszkalnym jednorodzinnym oraz budowa naziemnego zbiornika na gaz płynny V=4850l","address":"Wiesiołów","city":"Wiesiołów","office":"Starosta Powiatu Koło","case_kind":"Budynek mieszkalny jednorodzinny","parcel_ids":["300904_5.0024.AR_1.90/2","300904_5.0024.AR_1.91/2"],"location_quality":"dokładny","gunb_url":"https://wyszukiwarka.gunb.gov.pl/","parcel_count":2,"parcel_shard":"x075-y208","parcel_id":"300904_5.0024.AR_1.91/2","location_source":"powiat kolski (wfs)"}},{"type":"Feature","id":"ST-WK-KO/WNIOSEK/25116/2025::300904_5.0025.AR_1.156","geometry":{"type":"Polygon","coordinates":[[[18.8638624195508,52.1261277875511],[18.864259725048,52.1261475931062],[18.8647577875002,52.1239645039594],[18.8643341537265,52.1239754527605],[18.8639247951384,52.1257960302054],[18.8639108759204,52.1258461725852],[18.8638850811643,52.1259758595392],[18.8638796558171,52.1259993381674],[18.8638624195508,52.1261277875511]]]},"properties":{"case_id":"ST-WK-KO/WNIOSEK/25116/2025","source_type":"wniosek_decyzja","received_date":"2025-12-11","decision_date":"2026-02-04","status":"decyzja wydana","description":"Budynek mieszkalny jednorodzinny, zbiornik na gaz o poj.  2,7m3, zbiornik na ścieki sanitarne o poj. do 10m3 i rozbiórka budynku gospodarczego","address":"Zalesie","city":"Zalesie","office":"Starosta Powiatu Koło","case_kind":"Budynek mieszkalny jednorodzinny","parcel_ids":["300904_5.0025.AR_1.156"],"location_quality":"dokładny","gunb_url":"https://wyszukiwarka.gunb.gov.pl/","parcel_count":1,"parcel_shard":"x075-y208","parcel_id":"300904_5.0025.AR_1.156","location_source":"powiat kolski (wfs)"}},{"type":"Feature","id":"ST-WK-KO/WNIOSEK/23977/2025::300904_5.0025.AR_1.308","geometry":{"type":"Polygon","coordinates":[[[18.8525703917404,52.1359883665297],[18.8531659507516,52.1364115331181],[18.8545743498414,52.1362296633662],[18.8546555081187,52.1362191883431],[18.8543389585861,52.135843802357],[18.8542530604412,52.1358508061427],[18.8525703917404,52.1359883665297]]]},"properties":{"case_id":"ST-WK-KO/WNIOSEK/23977/2025","source_type":"wniosek_decyzja","received_date":"2025-11-26","decision_date":"2025-12-15","status":"decyzja wydana","description":"Zmiana decyzji nr 364.2023 z dnia 12.09.2023r. pozwolenia na budowę budynku mieszkalnego jednorodzinnego w zakresie zmiany ogrzewania - instalacja gazowa wewnętrzna i zewnętrzna wraz ze zbiornikiem naziemnym gazu płynnego V=2700dm3 dla budynku mieszkalnego jednorodzinnego wg projektu zmian","address":"Zalesie","city":"Zalesie","office":"Starosta Powiatu Koło","case_kind":"Budynek mieszkalny jednorodzinny","parcel_ids":["300904_5.0025.AR_1.308","300904_5.0025.AR_1.309"],"location_quality":"dokładny","gunb_url":"https://wyszukiwarka.gunb.gov.pl/","parcel_count":2,"parcel_shard":"x075-y208","parcel_id":"300904_5.0025.AR_1.308","location_source":"powiat kolski (wfs)"}},{"type":"Feature","id":"ST-WK-KO/WNIOSEK/23977/2025::300904_5.0025.AR_1.309","geometry":{"type":"Polygon","coordinates":[[[18.8524263085319,52.1358855956217],[18.8525703917404,52.1359883665297],[18.8542530604412,52.1358508061427],[18.8543389585861,52.135843802357],[18.8542628924476,52.1357539331801],[18.8541762487708,52.1357601333826],[18.8524263085319,52.1358855956217]]]},"properties":{"case_id":"ST-WK-KO/WNIOSEK/23977/2025","source_type":"wniosek_decyzja","received_date":"2025-11-26","decision_date":"2025-12-15","status":"decyzja wydana","description":"Zmiana decyzji nr 364.2023 z dnia 12.09.2023r. pozwolenia na budowę budynku mieszkalnego jednorodzinnego w zakresie zmiany ogrzewania - instalacja gazowa wewnętrzna i zewnętrzna wraz ze zbiornikiem naziemnym gazu płynnego V=2700dm3 dla budynku mieszkalnego jednorodzinnego wg projektu zmian","address":"Zalesie","city":"Zalesie","office":"Starosta Powiatu Koło","case_kind":"Budynek mieszkalny jednorodzinny","parcel_ids":["300904_5.0025.AR_1.308","300904_5.0025.AR_1.309"],"location_quality":"dokładny","gunb_url":"https://wyszukiwarka.gunb.gov.pl/","parcel_count":2,"parcel_shard":"x075-y208","parcel_id":"300904_5.0025.AR_1.309","location_source":"powiat kolski (wfs)"}},{"type":"Feature","id":"ST-WK-KO/WNIOSEK/25112/2025::300904_5.0025.AR_1.35","geometry":{"type":"Polygon","coordinates":[[[18.8549919321103,52.1300718584158],[18.8545264273188,52.1320801891879],[18.8548722739009,52.1321220124093],[18.8563058053364,52.1259757039148],[18.8559278817564,52.1259532809497],[18.8552821535284,52.1287920053889],[18.8549919321103,52.1300718584158]]]},"properties":{"case_id":"ST-WK-KO/WNIOSEK/25112/2025","source_type":"wniosek_decyzja","received_date":"2025-12-11","decision_date":"2026-01-14","status":"decyzja wydana","description":"Zmiana konstrukcji dachu na budynku mieszkalnym wraz z zagospodarowaniem terenu","address":"Zalesie","city":"Zalesie","office":"Starosta Powiatu Koło","case_kind":"Budynek mieszkalny jednorodzinny","parcel_ids":["300904_5.0025.AR_1.35","300904_5.0026.AR_1.36/2"],"location_quality":"dokładny","gunb_url":"https://wyszukiwarka.gunb.gov.pl/","parcel_count":1,"parcel_shard":"x075-y208","parcel_id":"300904_5.0025.AR_1.35","location_source":"powiat kolski (wfs)"}},{"type":"Feature","id":"ST-WK-KO/WNIOSEK/6807/2026::300904_5.0025.AR_1.390/1","geometry":{"type":"Polygon","coordinates":[[[18.8681972173495,52.1265834445211],[18.868494884385,52.1266760771837],[18.8685983684312,52.1262001134139],[18.8682983746539,52.1261754482875],[18.8681972173495,52.1265834445211]]]},"properties":{"case_id":"ST-WK-KO/WNIOSEK/6807/2026","source_type":"wniosek_decyzja","received_date":"2026-04-10","decision_date":"2026-05-04","status":"decyzja wydana","description":"Budowa budynku mieszkalnego jednorodzinnego wraz z naziemnym zbiornikiem na gaz płynny V=2,70m3 , szczelnego zbiornika na ścieki V=10m3 wraz z zagospodarowaniem terenu oraz infrastrukturą towarzyszącą","address":"Zalesie","city":"Zalesie","office":"Starosta Powiatu Koło","case_kind":"Budynek mieszkalny jednorodzinny","parcel_ids":["300904_5.0025.AR_1.390/1"],"location_quality":"dokładny","gunb_url":"https://wyszukiwarka.gunb.gov.pl/","parcel_count":1,"parcel_shard":"x075-y208","parcel_id":"300904_5.0025.AR_1.390/1","location_source":"powiat kolski (wfs)"}},{"type":"Feature","id":"ST-WK-KO/ZGŁOSZENIE/4106/2025::300905_2.0001.199/3","geometry":{"type":"Polygon","coordinates":[[[18.7703576952508,52.2233096141762],[18.7712134198052,52.2232802343058],[18.7712439187061,52.223119201609],[18.7702009252238,52.2229970587792],[18.7701826878511,52.2230574768948],[18.7703576952508,52.2233096141762]]]},"properties":{"case_id":"ST-WK-KO/ZGŁOSZENIE/4106/2025","source_type":"zgloszenie","received_date":"2025-12-22","decision_date":null,"status":"Brak sprzeciwu","description":"Budowa elektroenergetycznej linii kablowej niskiego napięcia","address":"Barłogi","city":"Barłogi","office":"Starosta Powiatu Koło","case_kind":"budowa nowego/nowych obiektów budowlanych","parcel_ids":["300905_2.0001.199/3","300905_2.0001.320/18","300905_2.0001.322/4"],"location_quality":"dokładny","gunb_url":"https://wyszukiwarka.gunb.gov.pl/","parcel_count":3,"parcel_shard":"x075-y208","parcel_id":"300905_2.0001.199/3","location_source":"powiat kolski (wfs)"}},{"type":"Feature","id":"ST-WK-KO/ZGŁOSZENIE/4106/2025::300905_2.0001.320/18","geometry":{"type":"Polygon","coordinates":[[[18.7699297412901,52.2228766725617],[18.7701826878511,52.2230574768948],[18.7702009252238,52.2229970587792],[18.7702247218334,52.2229176949064],[18.7702552417988,52.222816273501],[18.7703385682461,52.2225424552744],[18.7704213887386,52.2222703542269],[18.7704845435968,52.2220627084672],[18.7705472449433,52.2218568285787],[18.7706094171404,52.2216524868438],[18.7706779558238,52.221427071771],[18.7707394372121,52.2212251611982],[18.7708004961874,52.2210242420147],[18.7708328974017,52.2209177932184],[18.7708672334328,52.2208047705939],[18.7706515791161,52.2207752716561],[18.7698644056173,52.2206690037995],[18.7698514020068,52.2207132008876],[18.770564615766,52.2208094503059],[18.7706245452463,52.2208635942989],[18.770528676503,52.221181417995],[18.770475381181,52.2213574796974],[18.7704214291418,52.2215343419766],[18.7703677332148,52.2217110395842],[18.7703140368686,52.2218877371638],[18.7702603401031,52.2220644347153],[18.7700192710077,52.2228576632716],[18.7699406984996,52.2228417279765],[18.7699297412901,52.2228766725617]]]},"properties":{"case_id":"ST-WK-KO/ZGŁOSZENIE/4106/2025","source_type":"zgloszenie","received_date":"2025-12-22","decision_date":null,"status":"Brak sprzeciwu","description":"Budowa elektroenergetycznej linii kablowej niskiego napięcia","address":"Barłogi","city":"Barłogi","office":"Starosta Powiatu Koło","case_kind":"budowa nowego/nowych obiektów budowlanych","parcel_ids":["300905_2.0001.199/3","300905_2.0001.320/18","300905_2.0001.322/4"],"location_quality":"dokładny","gunb_url":"https://wyszukiwarka.gunb.gov.pl/","parcel_count":3,"parcel_shard":"x075-y208","parcel_id":"300905_2.0001.320/18","location_source":"powiat kolski (wfs)"}},{"type":"Feature","id":"ST-WK-KO/ZGŁOSZENIE/4106/2025::300905_2.0001.322/4","geometry":{"type":"Polygon","coordinates":[[[18.7704213887386,52.2222703542269],[18.7703385682461,52.2225424552744],[18.7709485147936,52.2226082942844],[18.7710358646176,52.2223367380357],[18.7704213887386,52.2222703542269]]]},"properties":{"case_id":"ST-WK-KO/ZGŁOSZENIE/4106/2025","source_type":"zgloszenie","received_date":"2025-12-22","decision_date":null,"status":"Brak sprzeciwu","description":"Budowa elektroenergetycznej linii kablowej niskiego napięcia","address":"Barłogi","city":"Barłogi","office":"Starosta Powiatu Koło","case_kind":"budowa nowego/nowych obiektów budowlanych","parcel_ids":["300905_2.0001.199/3","300905_2.0001.320/18","300905_2.0001.322/4"],"location_quality":"dokładny","gunb_url":"https://wyszukiwarka.gunb.gov.pl/","parcel_count":3,"parcel_shard":"x075-y208","parcel_id":"300905_2.0001.322/4","location_source":"powiat kolski (wfs)"}},{"type":"Feature","id":"ST-WK-KO/WNIOSEK/24902/2025::300905_2.0001.225/12","geometry":{"type":"Polygon","coordinates":[[[18.7657624362295,52.2185566409976],[18.7651936523256,52.2184426158705],[18.7652750000189,52.2182323137513],[18.7651866963531,52.2182159818699],[18.7645698888148,52.2181016336286],[18.7639309302774,52.2179830879448],[18.7634027262908,52.2178788573011],[18.7551982937843,52.216361973889],[18.754233998328,52.2171575537315],[18.7632108630382,52.2188026687328],[18.7648963382975,52.219111376789],[18.7650322698123,52.219136021437],[18.7651385788947,52.2188760308675],[18.7656279981086,52.2189652527595],[18.7657227837037,52.2189543916104],[18.766320651267,52.2190612423339],[18.7664501835657,52.2186801223849],[18.7659434596835,52.218592912146],[18.7657624362295,52.2185566409976]]]},"properties":{"case_id":"ST-WK-KO/WNIOSEK/24902/2025","source_type":"wniosek_decyzja","received_date":"2025-12-09","decision_date":"2026-01-07","status":"decyzja wydana","description":"Instalacja gazowa wewnętrzna i zewnętrzna wraz z zbiornikiem naziemnym gazu płynnego V=2700dm3 dla budynku mieszkalnego","address":"Barłogi","city":"Barłogi","office":"Starosta Powiatu Koło","case_kind":"Budynek mieszkalny jednorodzinny","parcel_ids":["300905_2.0001.AR_1.225/12"],"location_quality":"dokładny","gunb_url":"https://wyszukiwarka.gunb.gov.pl/","parcel_count":1,"parcel_shard":"x075-y208","parcel_id":"300905_2.0001.225/12","location_source":"powiat kolski (wfs)"}},{"type":"Feature","id":"ST-WK-KO/WNIOSEK/1436/2026::300905_2.0001.227/23","geometry":{"type":"Polygon","coordinates":[[[18.7659083165456,52.2181449941018],[18.7659455955901,52.2181514032325],[18.7665900708187,52.2182716117308],[18.7666659578899,52.2180301526721],[18.7660252901967,52.217909919879],[18.7659083165456,52.2181449941018]]]},"properties":{"case_id":"ST-WK-KO/WNIOSEK/1436/2026","source_type":"wniosek_decyzja","received_date":"2026-01-27","decision_date":"2026-03-05","status":"decyzja wydana","description":"Rozbudowa budynku mieszkalnego wraz ze zmianą sposobu użytkowania strychu na część mieszkalną oraz zmiana pokrycia dachu","address":"Barłogi","city":"Barłogi","office":"Starosta Powiatu Koło","case_kind":"Budynek mieszkalny jednorodzinny","parcel_ids":["300905_2.0001.AR_3.227/23"],"location_quality":"dokładny","gunb_url":"https://wyszukiwarka.gunb.gov.pl/","parcel_count":1,"parcel_shard":"x075-y208","parcel_id":"300905_2.0001.227/23","location_source":"powiat kolski (wfs)"}},{"type":"Feature","id":"ST-WK-KO/WNIOSEK/9852/2026::300905_2.0003.293/4","geometry":{"type":"Polygon","coordinates":[[[18.8215451942035,52.2398761029726],[18.8228002553591,52.2401520475417],[18.8245143708678,52.2392663389357],[18.8271307579922,52.2379136075008],[18.8267726636462,52.2376522594937],[18.8276568657713,52.2371956138448],[18.8280149615758,52.2374569591833],[18.8301672568591,52.2363453361928],[18.8318458900108,52.2354776037606],[18.8331821177544,52.234786917018],[18.8328027698922,52.2345125053865],[18.8324303293581,52.2342426990696],[18.829822396106,52.2355983758811],[18.8277803187379,52.2366496510815],[18.8266050844302,52.2372578306709],[18.8215451942035,52.2398761029726]]]},"properties":{"case_id":"ST-WK-KO/WNIOSEK/9852/2026","source_type":"wniosek_decyzja","received_date":"2026-05-25","decision_date":"2026-07-08","status":"decyzja wydana","description":"Rozbudowa budynku mieszkalnego jednorodzinnego i budowa dwóch przydomowych oczyszczalni ścieków","address":"Borysławice Kościelne","city":"Borysławice Kościelne","office":"Starosta Powiatu Koło","case_kind":"Budynek mieszkalny jednorodzinny","parcel_ids":["300905_2.0003.293/4"],"location_quality":"dokładny","gunb_url":"https://wyszukiwarka.gunb.gov.pl/","parcel_count":1,"parcel_shard":"x075-y208","parcel_id":"300905_2.0003.293/4","location_source":"powiat kolski (wfs)"}},{"type":"Feature","id":"ST-WK-KO/ZGŁOSZENIE/2940/2025::300905_2.0004.183/2","geometry":{"type":"Polygon","coordinates":[[[18.7890271681342,52.2339890386971],[18.788757182188,52.2338127926539],[18.7886275669958,52.2321916818095],[18.7883297377918,52.2321685239909],[18.7884446033065,52.2336036651235],[18.7885636012315,52.2350732917713],[18.7898390059795,52.2352167500528],[18.7897949397198,52.2350763841707],[18.7890271681342,52.2339890386971]]]},"properties":{"case_id":"ST-WK-KO/ZGŁOSZENIE/2940/2025","source_type":"zgloszenie","received_date":"2025-09-16","decision_date":null,"status":"Brak sprzeciwu","description":"Budowa linii kablowej niskiego napięcia i złącza kablowego z pomiarem","address":"Borysławice Zamkowe","city":"Borysławice Zamkowe","office":"Starosta Powiatu Koło","case_kind":"budowa nowego/nowych obiektów budowlanych","parcel_ids":["300905_2.0004.183/2","300905_2.0004.187/1","300905_2.0004.191"],"location_quality":"dokładny","gunb_url":"https://wyszukiwarka.gunb.gov.pl/","parcel_count":3,"parcel_shard":"x075-y208","parcel_id":"300905_2.0004.183/2","location_source":"powiat kolski (wfs)"}},{"type":"Feature","id":"ST-WK-KO/ZGŁOSZENIE/2940/2025::300905_2.0004.187/1","geometry":{"type":"Polygon","coordinates":[[[18.7898536670136,52.2354518573362],[18.7896374509781,52.2358749372288],[18.7921409923902,52.2361131792501],[18.792016478848,52.2359427052248],[18.7918040786487,52.2356519004575],[18.7898536670136,52.2354518573362]]]},"properties":{"case_id":"ST-WK-KO/ZGŁOSZENIE/2940/2025","source_type":"zgloszenie","received_date":"2025-09-16","decision_date":null,"status":"Brak sprzeciwu","description":"Budowa linii kablowej niskiego napięcia i złącza kablowego z pomiarem","address":"Borysławice Zamkowe","city":"Borysławice Zamkowe","office":"Starosta Powiatu Koło","case_kind":"budowa nowego/nowych obiektów budowlanych","parcel_ids":["300905_2.0004.183/2","300905_2.0004.187/1","300905_2.0004.191"],"location_quality":"dokładny","gunb_url":"https://wyszukiwarka.gunb.gov.pl/","parcel_count":3,"parcel_shard":"x075-y208","parcel_id":"300905_2.0004.187/1","location_source":"powiat kolski (wfs)"}},{"type":"Feature","id":"ST-WK-KO/ZGŁOSZENIE/2940/2025::300905_2.0004.191","geometry":{"type":"Polygon","coordinates":[[[18.7892902232933,52.2366327868408],[18.7893555304004,52.2364888185306],[18.7896374509781,52.2358749372288],[18.7898536670136,52.2354518573362],[18.78988333619,52.2352152849906],[18.7898371041291,52.235068372445],[18.7890673794612,52.2339782540465],[18.7890271681342,52.2339890386971],[18.7897949397198,52.2350763841707],[18.7898390059795,52.2352167500528],[18.7898074640248,52.2354471181356],[18.7895910240851,52.2358705186279],[18.7892468578451,52.2366219112149],[18.7892902232933,52.2366327868408]]]},"properties":{"case_id":"ST-WK-KO/ZGŁOSZENIE/2940/2025","source_type":"zgloszenie","received_date":"2025-09-16","decision_date":null,"status":"Brak sprzeciwu","description":"Budowa linii kablowej niskiego napięcia i złącza kablowego z pomiarem","address":"Borysławice Zamkowe","city":"Borysławice Zamkowe","office":"Starosta Powiatu Koło","case_kind":"budowa nowego/nowych obiektów budowlanych","parcel_ids":["300905_2.0004.183/2","300905_2.0004.187/1","300905_2.0004.191"],"location_quality":"dokładny","gunb_url":"https://wyszukiwarka.gunb.gov.pl/","parcel_count":3,"parcel_shard":"x075-y208","parcel_id":"300905_2.0004.191","location_source":"powiat kolski (wfs)"}},{"type":"Feature","id":"ST-WK-KO/WNIOSEK/18070/2025::300905_2.0010.81","geometry":{"type":"Polygon","coordinates":[[[18.7666370273408,52.1622841735171],[18.7669577016132,52.1622446899264],[18.7677640160592,52.1601216521464],[18.7674670945589,52.1600816103455],[18.7666370273408,52.1622841735171]]]},"properties":{"case_id":"ST-WK-KO/WNIOSEK/18070/2025","source_type":"wniosek_decyzja","received_date":"2025-09-05","decision_date":"2025-10-08","status":"decyzja wydana","description":"Budowa budynku mieszkalnego jednorodzinnego wraz z szambem - adaptacja projektu typowego typowego \"La Palma 2C\" oraz budynku gospodarczego","address":"Ladorudzek","city":"Ladorudzek","office":"Starosta Powiatu Koło","case_kind":"Budynek mieszkalny jednorodzinny","parcel_ids":["300905_2.0010.81","300905_2.0010.82"],"location_quality":"dokładny","gunb_url":"https://wyszukiwarka.gunb.gov.pl/","parcel_count":2,"parcel_shard":"x075-y208","parcel_id":"300905_2.0010.81","location_source":"powiat kolski (wfs)"}},{"type":"Feature","id":"ST-WK-KO/WNIOSEK/18070/2025::300905_2.0010.82","geometry":{"type":"Polygon","coordinates":[[[18.7671076260057,52.1600331663186],[18.7662240489317,52.1623350902225],[18.7666370273408,52.1622841735171],[18.7674670945589,52.1600816103455],[18.7671076260057,52.1600331663186]]]},"properties":{"case_id":"ST-WK-KO/WNIOSEK/18070/2025","source_type":"wniosek_decyzja","received_date":"2025-09-05","decision_date":"2025-10-08","status":"decyzja wydana","description":"Budowa budynku mieszkalnego jednorodzinnego wraz z szambem - adaptacja projektu typowego typowego \"La Palma 2C\" oraz budynku gospodarczego","address":"Ladorudzek","city":"Ladorudzek","office":"Starosta Powiatu Koło","case_kind":"Budynek mieszkalny jednorodzinny","parcel_ids":["300905_2.0010.81","300905_2.0010.82"],"location_quality":"dokładny","gunb_url":"https://wyszukiwarka.gunb.gov.pl/","parcel_count":2,"parcel_shard":"x075-y208","parcel_id":"300905_2.0010.82","location_source":"powiat kolski (wfs)"}},{"type":"Feature","id":"ST-WK-KO/WNIOSEK/6101/2026::300905_2.0011.AR_2.73/14","geometry":{"type":"Polygon","coordinates":[[[18.7874039343892,52.2000408634],[18.7875260886906,52.2003313479342],[18.7873316235724,52.2003607779025],[18.787476243736,52.2007388350352],[18.788048985109,52.2006516931743],[18.7887776628827,52.2025478672688],[18.7894820436094,52.2024339532338],[18.7886147090212,52.2001764954002],[18.7885090840825,52.2001922111388],[18.78833022212,52.2002188421059],[18.7882763944989,52.2002272009785],[18.7881589285336,52.1999208670828],[18.7878078337883,52.199976689941],[18.7880397294896,52.2006246113542],[18.7877911553966,52.200663121729],[18.7877874942081,52.2006546076119],[18.7877632856802,52.2005843036418],[18.7877591842043,52.2005674336629],[18.7877289657972,52.2005708710546],[18.7876389703849,52.2002792732924],[18.7877864908445,52.2002586947882],[18.7876895370952,52.1999954555717],[18.7874039343892,52.2000408634]]]},"properties":{"case_id":"ST-WK-KO/WNIOSEK/6101/2026","source_type":"wniosek_decyzja","received_date":"2026-03-31","decision_date":"2026-04-27","status":"decyzja wydana","description":"Budynek mieszkalny jednorodzinny i zbiornik na ścieki sanitarne o poj. 10m3","address":"Grzegorzew","city":"Grzegorzew","office":"Starosta Powiatu Koło","case_kind":"Budynek mieszkalny jednorodzinny","parcel_ids":["300905_2.0011.AR_2.73/14"],"location_quality":"dokładny","gunb_url":"https://wyszukiwarka.gunb.gov.pl/","parcel_count":1,"parcel_shard":"x075-y208","parcel_id":"300905_2.0011.AR_2.73/14","location_source":"powiat kolski (wfs)"}},{"type":"Feature","id":"ST-WK-KO/WNIOSEK/19706/2025::300905_2.0012.556","geometry":{"type":"Polygon","coordinates":[[[18.7651578287866,52.1928496493697],[18.7657880052516,52.1929055872039],[18.7658269454713,52.1888818355932],[18.7658845384257,52.1859407041081],[18.7658788405275,52.1856117952741],[18.7654471702778,52.1856283481338],[18.7653561334474,52.1856319946129],[18.7652699045854,52.1856346211607],[18.7652687162029,52.1858585500972],[18.7652691923619,52.1859124890414],[18.7652665492511,52.185958749034],[18.7652607792547,52.1860515522567],[18.7652625903048,52.1861277658327],[18.7651578287866,52.1928496493697]]]},"properties":{"case_id":"ST-WK-KO/WNIOSEK/19706/2025","source_type":"wniosek_decyzja","received_date":"2025-09-29","decision_date":"2025-10-30","status":"decyzja wydana","description":"Zmiana konstrukcji dachu budynku gospodarczego","address":"Tarnówka","city":"Tarnówka","office":"Starosta Powiatu Koło","case_kind":"Obiekt budowlany inny niż budynek mieszkalny jednorodzinny","parcel_ids":["300905_2.0012.AR_1.556"],"location_quality":"dokładny","gunb_url":"https://wyszukiwarka.gunb.gov.pl/","parcel_count":1,"parcel_shard":"x075-y208","parcel_id":"300905_2.0012.556","location_source":"powiat kolski (wfs)"}},{"type":"Feature","id":"ST-WK-KO/WNIOSEK/23523/2025::300905_2.0012.561/2","geometry":{"type":"Polygon","coordinates":[[[18.7668593601648,52.1860237264966],[18.7668582516883,52.1861377910146],[18.7667930188068,52.1929795825422],[18.7671693574268,52.1930070661985],[18.7672020987309,52.1888941422096],[18.7672145769744,52.1870788516041],[18.7672215578686,52.186091118474],[18.767133087114,52.1860909746893],[18.7671307612715,52.185794386857],[18.7672237655322,52.1857945910422],[18.7672253052454,52.1855697020518],[18.766864284362,52.1855789698158],[18.7668687851453,52.1857045923641],[18.7668702627156,52.1857054815574],[18.7668673566526,52.1858000538738],[18.7668613563023,52.1859442598846],[18.7668593601648,52.1860237264966]]]},"properties":{"case_id":"ST-WK-KO/WNIOSEK/23523/2025","source_type":"wniosek_decyzja","received_date":"2025-11-20","decision_date":"2025-12-01","status":"decyzja wydana","description":"Budowa myjni samochodowej bezdotykowej samoobsługowej dwustanowiskowej z kontenerem i zbiornika bezodpływowego na ścieki bytowe o poj. 10m3","address":"Tarnówka","city":"Tarnówka","office":"Starosta Powiatu Koło","case_kind":"Obiekt budowlany inny niż budynek mieszkalny jednorodzinny","parcel_ids":["300905_2.0012.AR_1.561/2","300905_2.0012.AR_1.562/1"],"location_quality":"dokładny","gunb_url":"https://wyszukiwarka.gunb.gov.pl/","parcel_count":2,"parcel_shard":"x075-y208","parcel_id":"300905_2.0012.561/2","location_source":"powiat kolski (wfs)"}},{"type":"Feature","id":"ST-WK-KO/WNIOSEK/23523/2025::300905_2.0012.562/1","geometry":{"type":"Polygon","coordinates":[[[18.7672020987309,52.1888941422096],[18.7673189497349,52.1888945507956],[18.7673347970041,52.187079867413],[18.7673454765774,52.185865433652],[18.7673455634547,52.1857345682635],[18.767341787044,52.1855661582873],[18.7672253052454,52.1855697020518],[18.7672237655322,52.1857945910422],[18.7672215578686,52.186091118474],[18.7672145769744,52.1870788516041],[18.7672020987309,52.1888941422096]]]},"properties":{"case_id":"ST-WK-KO/WNIOSEK/23523/2025","source_type":"wniosek_decyzja","received_date":"2025-11-20","decision_date":"2025-12-01","status":"decyzja wydana","description":"Budowa myjni samochodowej bezdotykowej samoobsługowej dwustanowiskowej z kontenerem i zbiornika bezodpływowego na ścieki bytowe o poj. 10m3","address":"Tarnówka","city":"Tarnówka","office":"Starosta Powiatu Koło","case_kind":"Obiekt budowlany inny niż budynek mieszkalny jednorodzinny","parcel_ids":["300905_2.0012.AR_1.561/2","300905_2.0012.AR_1.562/1"],"location_quality":"dokładny","gunb_url":"https://wyszukiwarka.gunb.gov.pl/","parcel_count":2,"parcel_shard":"x075-y208","parcel_id":"300905_2.0012.562/1","location_source":"powiat kolski (wfs)"}},{"type":"Feature","id":"ST-WK-KO/WNIOSEK/10057/2026::300905_2.0013.289/1","geometry":{"type":"Polygon","coordinates":[[[18.7606719191012,52.2384766863212],[18.7606484727016,52.2385438870351],[18.7612474804776,52.2385401155289],[18.762040595715,52.2385351779489],[18.7620267087396,52.238476576697],[18.7649483786974,52.2384482425713],[18.7652281035592,52.2384455307777],[18.7651641143872,52.2383426747374],[18.7611936043057,52.2383860510706],[18.7611894387008,52.2384848548017],[18.7606719191012,52.2384766863212]]]},"properties":{"case_id":"ST-WK-KO/WNIOSEK/10057/2026","source_type":"wniosek_decyzja","received_date":"2026-05-27","decision_date":"2026-07-08","status":"decyzja wydana","description":"Budowa dwóch  tuneli namiotowych na płody rolne","address":"Zabłocie","city":"Zabłocie","office":"Starosta Powiatu Koło","case_kind":"Obiekt budowlany inny niż budynek mieszkalny jednorodzinny","parcel_ids":["300905_2.0013.AR_1.289/1","300905_2.0013.AR_1.289/2"],"location_quality":"dokładny","gunb_url":"https://wyszukiwarka.gunb.gov.pl/","parcel_count":2,"parcel_shard":"x075-y208","parcel_id":"300905_2.0013.289/1","location_source":"powiat kolski (wfs)"}},{"type":"Feature","id":"ST-WK-KO/WNIOSEK/10057/2026::300905_2.0013.289/2","geometry":{"type":"Polygon","coordinates":[[[18.7651641143872,52.2383426747374],[18.7651020395639,52.2382149098021],[18.7611994416603,52.2382480493724],[18.7611936043057,52.2383860510706],[18.7651641143872,52.2383426747374]]]},"properties":{"case_id":"ST-WK-KO/WNIOSEK/10057/2026","source_type":"wniosek_decyzja","received_date":"2026-05-27","decision_date":"2026-07-08","status":"decyzja wydana","description":"Budowa dwóch  tuneli namiotowych na płody rolne","address":"Zabłocie","city":"Zabłocie","office":"Starosta Powiatu Koło","case_kind":"Obiekt budowlany inny niż budynek mieszkalny jednorodzinny","parcel_ids":["300905_2.0013.AR_1.289/1","300905_2.0013.AR_1.289/2"],"location_quality":"dokładny","gunb_url":"https://wyszukiwarka.gunb.gov.pl/","parcel_count":2,"parcel_shard":"x075-y208","parcel_id":"300905_2.0013.289/2","location_source":"powiat kolski (wfs)"}},{"type":"Feature","id":"ST-WK-KO/WNIOSEK/7604/2026::300905_2.0013.66","geometry":{"type":"Polygon","coordinates":[[[18.7580383299143,52.2431945590877],[18.7580879981266,52.2435143883256],[18.7622588458117,52.2434635327309],[18.7618879434086,52.2431455990916],[18.7580383299143,52.2431945590877]]]},"properties":{"case_id":"ST-WK-KO/WNIOSEK/7604/2026","source_type":"wniosek_decyzja","received_date":"2026-04-23","decision_date":"2026-06-10","status":"decyzja wydana","description":"Rozbudowa budynku gospodarczego wraz ze zmianą konstrukcji dachu","address":"Zabłocie","city":"Zabłocie","office":"Starosta Powiatu Koło","case_kind":"Obiekt budowlany inny niż budynek mieszkalny jednorodzinny","parcel_ids":["300905_2.0013.AR_1.66"],"location_quality":"dokładny","gunb_url":"https://wyszukiwarka.gunb.gov.pl/","parcel_count":1,"parcel_shard":"x075-y208","parcel_id":"300905_2.0013.66","location_source":"powiat kolski (wfs)"}},{"type":"Feature","id":"ST-WK-KO/WNIOSEK/4040/2026::300906_4.0001.AR_5.1056/4","geometry":{"type":"Polygon","coordinates":[[[18.9175931193727,52.2490049031912],[18.9175175194322,52.2489178581778],[18.9165825186102,52.2478376681112],[18.9160652563077,52.2478915663361],[18.9160831140502,52.247912549468],[18.9161037391761,52.2479363284879],[18.9161731067134,52.2480218536487],[18.9165473301868,52.2484521625242],[18.916595863011,52.2485036355603],[18.9167834200817,52.2487198657828],[18.9168700870593,52.2488198506438],[18.9169788974174,52.2489451683511],[18.9170774664582,52.2490593325712],[18.9175931193727,52.2490049031912]]]},"properties":{"case_id":"ST-WK-KO/WNIOSEK/4040/2026","source_type":"wniosek_decyzja","received_date":"2026-03-04","decision_date":"2026-05-06","status":"decyzja wydana","description":"Budowa budynku mieszkalnego wielorodzinnego wraz z obiektami i urządzeniami towarzyszącymi","address":"Czereśniowa, Kłodawa","city":"Kłodawa","office":"Starosta Powiatu Koło","case_kind":"Obiekt budowlany inny niż budynek mieszkalny jednorodzinny","parcel_ids":["300906_4.0001.AR_5.1056/4"],"location_quality":"dokładny","gunb_url":"https://wyszukiwarka.gunb.gov.pl/","parcel_count":1,"parcel_shard":"x075-y208","parcel_id":"300906_4.0001.AR_5.1056/4","location_source":"powiat kolski (wfs)"}},{"type":"Feature","id":"ST-WK-KO/WNIOSEK/1350/2026::300906_4.0001.AR_5.1061/23","geometry":{"type":"Polygon","coordinates":[[[18.9188479284869,52.2480212798081],[18.9183681638157,52.2481780918106],[18.9185529334064,52.248391531825],[18.9190326996561,52.2482347193036],[18.9188479284869,52.2480212798081]]]},"properties":{"case_id":"ST-WK-KO/WNIOSEK/1350/2026","source_type":"wniosek_decyzja","received_date":"2026-01-26","decision_date":"2026-02-27","status":"decyzja wydana","description":"Instalacja gazowa wewnętrzna i zewnętrzna wraz z zbiornikiem naziemnym gazu płynnego V=2700dm3 dla budynku mieszkalnego jednorodzinnego","address":"Kłodawa","city":"Kłodawa","office":"Starosta Powiatu Koło","case_kind":"Obiekt budowlany inny niż budynek mieszkalny jednorodzinny","parcel_ids":["300906_4.0001.AR_5.1061/23"],"location_quality":"dokładny","gunb_url":"https://wyszukiwarka.gunb.gov.pl/","parcel_count":1,"parcel_shard":"x075-y208","parcel_id":"300906_4.0001.AR_5.1061/23","location_source":"powiat kolski (wfs)"}},{"type":"Feature","id":"ST-WK-KO/WNIOSEK/9252/2026::300906_4.0001.AR_6.1102/4","geometry":{"type":"Polygon","coordinates":[[[18.908267465752,52.2499025045486],[18.9086180242921,52.2497891051928],[18.9084062392095,52.2495771214777],[18.9082657417987,52.2494378106745],[18.9079441944303,52.2495495340515],[18.908267465752,52.2499025045486]]]},"properties":{"case_id":"ST-WK-KO/WNIOSEK/9252/2026","source_type":"wniosek_decyzja","received_date":"2026-05-15","decision_date":"2026-06-17","status":"decyzja wydana","description":"Instalacja gazowa wewnętrzna i zewnętrzna wraz z zbiornikiem naziemnym gazu płynnego V=4850dm3 dla budynku mieszkalnego jednorodzinnego","address":"Kłodawa","city":"Kłodawa","office":"Starosta Powiatu Koło","case_kind":"Budynek mieszkalny jednorodzinny","parcel_ids":["300906_4.0001.AR_6.1102/4"],"location_quality":"dokładny","gunb_url":"https://wyszukiwarka.gunb.gov.pl/","parcel_count":1,"parcel_shard":"x075-y208","parcel_id":"300906_4.0001.AR_6.1102/4","location_source":"powiat kolski (wfs)"}},{"type":"Feature","id":"ST-WK-KO/WNIOSEK/5237/2026::300906_4.0001.AR_6.1107/4","geometry":{"type":"Polygon","coordinates":[[[18.904421225463,52.2485554989735],[18.9047640095042,52.2484753063034],[18.9046668066553,52.248318402544],[18.9046185147638,52.2482407571774],[18.9042761641837,52.2483205865944],[18.904421225463,52.2485554989735]]]},"properties":{"case_id":"ST-WK-KO/WNIOSEK/5237/2026","source_type":"wniosek_decyzja","received_date":"2026-03-20","decision_date":"2026-04-22","status":"decyzja wydana","description":"Budowa budynku mieszkalnego jednorodzinnego i budynku garażowego","address":"Kłodawa","city":"Kłodawa","office":"Starosta Powiatu Koło","case_kind":"Obiekt budowlany inny niż budynek mieszkalny jednorodzinny","parcel_ids":["300906_4.0001.AR_6.1107/4"],"location_quality":"dokładny","gunb_url":"https://wyszukiwarka.gunb.gov.pl/","parcel_count":1,"parcel_shard":"x075-y208","parcel_id":"300906_4.0001.AR_6.1107/4","location_source":"powiat kolski (wfs)"}},{"type":"Feature","id":"ST-WK-KO/WNIOSEK/19155/2025::300906_4.0001.AR_6.1120/9","geometry":{"type":"Polygon","coordinates":[[[18.9076349564088,52.24567199362],[18.908484942987,52.2455243993719],[18.908551289255,52.245516504785],[18.9084733909731,52.2453444455915],[18.9084058098009,52.2452058293909],[18.9090197068947,52.2450616736991],[18.9090017854904,52.2450105429078],[18.9082097507637,52.2451969267208],[18.9075121734372,52.245406004468],[18.9076349564088,52.24567199362]]]},"properties":{"case_id":"ST-WK-KO/WNIOSEK/19155/2025","source_type":"wniosek_decyzja","received_date":"2025-09-19","decision_date":"2025-10-09","status":"decyzja wydana","description":"Odbudowa dachu budynku mieszkalnego jednorodzinnego","address":"40c, Kłodawa","city":"Kłodawa","office":"Starosta Powiatu Koło","case_kind":"Budynek mieszkalny jednorodzinny","parcel_ids":["300906_4.0001.AR_6.1120/9"],"location_quality":"dokładny","gunb_url":"https://wyszukiwarka.gunb.gov.pl/","parcel_count":1,"parcel_shard":"x075-y208","parcel_id":"300906_4.0001.AR_6.1120/9","location_source":"powiat kolski (wfs)"}},{"type":"Feature","id":"ST-WK-KO/WNIOSEK/8129/2026::300906_5.0007.AR_1.22/2","geometry":{"type":"Polygon","coordinates":[[[18.854400399022,52.2343253749133],[18.8536402120252,52.2343761501136],[18.8535641203633,52.2340205033792],[18.8535197330732,52.234026176031],[18.8539471359445,52.2360606981486],[18.8539571345155,52.2361034928187],[18.8548274555689,52.2362693009742],[18.8545649738215,52.2350803891246],[18.854400399022,52.2343253749133]]]},"properties":{"case_id":"ST-WK-KO/WNIOSEK/8129/2026","source_type":"wniosek_decyzja","received_date":"2026-04-29","decision_date":"2026-06-10","status":"decyzja wydana","description":"Instalacja gaowa wewnętrzna i zewnętrzna wrazz zbiornikiem naziemnym gazu płynnego V=4850dm3 dla budynku mieszkalnego jednorodzinnego","address":"Dąbrówka","city":"Dąbrówka","office":"Starosta Powiatu Koło","case_kind":"Budynek mieszkalny jednorodzinny","parcel_ids":["300906_5.0007.AR_1.22/2"],"location_quality":"dokładny","gunb_url":"https://wyszukiwarka.gunb.gov.pl/","parcel_count":1,"parcel_shard":"x075-y208","parcel_id":"300906_5.0007.AR_1.22/2","location_source":"powiat kolski (wfs)"}},{"type":"Feature","id":"ST-WK-KO/WNIOSEK/9260/2026::300906_5.0015.AR_2.220/1","geometry":{"type":"Polygon","coordinates":[[[18.8294042608396,52.2428659239743],[18.8297588849874,52.2429998243066],[18.8303590064847,52.2431824820722],[18.8305778789886,52.2431948674591],[18.8312051028806,52.2422453731182],[18.8313495552371,52.2422031013477],[18.8315462115656,52.241985017496],[18.8316998301357,52.2416969510042],[18.8313889876624,52.2416180696162],[18.8309678667199,52.2422429088933],[18.8299532532608,52.2419857120428],[18.829734780883,52.2422067658119],[18.8295535585002,52.2425485046125],[18.8296033669211,52.242551733886],[18.8294042608396,52.2428659239743]]]},"properties":{"case_id":"ST-WK-KO/WNIOSEK/9260/2026","source_type":"wniosek_decyzja","received_date":"2026-05-15","decision_date":"2026-07-10","status":"decyzja wydana","description":"Budowa budynku mieszkalnego jednorodzinnego wraz z instalacją gazu płynnego (zbiornik naziemny 2700l) i zbiornik na ścieki bytowe o poj. 10m3","address":"Krzykosy","city":"Krzykosy","office":"Starosta Powiatu Koło","case_kind":"Budynek mieszkalny jednorodzinny","parcel_ids":["300906_5.0015.AR_2.220/1"],"location_quality":"dokładny","gunb_url":"https://wyszukiwarka.gunb.gov.pl/","parcel_count":1,"parcel_shard":"x075-y208","parcel_id":"300906_5.0015.AR_2.220/1","location_source":"powiat kolski (wfs)"}},{"type":"Feature","id":"ST-WK-KO/WNIOSEK/14746/2026::300906_5.0019.AR_1.36/1","geometry":{"type":"Polygon","coordinates":[[[18.9574700720546,52.2100737231348],[18.9578080222269,52.2099229476083],[18.9574919538483,52.2096556015551],[18.9573624376075,52.2095247078538],[18.9572274440502,52.2093908025042],[18.9567618100807,52.2095570824091],[18.9574700720546,52.2100737231348]]]},"properties":{"case_id":"ST-WK-KO/WNIOSEK/14746/2026","source_type":"wniosek_decyzja","received_date":"2026-08-03","decision_date":"2026-08-20","status":"decyzja wydana","description":"Budowa wewnętrznej i zewnętrznej instalacji gazowej ze zbiornikiem na gaz propan o poj. 2700dm3 dla budynku gospodarczego na potrzeby ogrzewania  budynku mieszkalnego","address":"Podgajew","city":"Podgajew","office":"Starosta Powiatu Koło","case_kind":"Budynek mieszkalny jednorodzinny","parcel_ids":["300906_5.0019.AR_1.36/1"],"location_quality":"dokładny","gunb_url":"https://wyszukiwarka.gunb.gov.pl/","parcel_count":1,"parcel_shard":"x075-y208","parcel_id":"300906_5.0019.AR_1.36/1","location_source":"powiat kolski (wfs)"}},{"type":"Feature","id":"ST-WK-KO/WNIOSEK/26297/2025::300906_5.0020.AR_4.128/1","geometry":{"type":"Polygon","coordinates":[[[18.8864336571755,52.2280039781918],[18.8864350109932,52.2279515327155],[18.8864517997266,52.2278559991923],[18.8861466917369,52.2278478612179],[18.8861180716366,52.2282807957686],[18.8860785170594,52.2288712877096],[18.8865264481357,52.2288834071204],[18.8864918635401,52.2284057123157],[18.8864705762579,52.2281107351976],[18.8864697015435,52.2280842267731],[18.8864445004612,52.2280454956167],[18.8864463046479,52.2280050902365],[18.8864336571755,52.2280039781918]]]},"properties":{"case_id":"ST-WK-KO/WNIOSEK/26297/2025","source_type":"wniosek_decyzja","received_date":"2025-12-30","decision_date":"2026-01-28","status":"decyzja wydana","description":"Zmiana decyzji nr 23.2023 z dnia 19.01.2023r. pozwolenia na rozbudowę budynku mieszkalnego wraz z zagospodarowaniem terenu wg projektu zmian","address":"Pomarzany","city":"Pomarzany","office":"Starosta Powiatu Koło","case_kind":"Budynek mieszkalny jednorodzinny","parcel_ids":["300906_5.0020.AR_4.128/1"],"location_quality":"dokładny","gunb_url":"https://wyszukiwarka.gunb.gov.pl/","parcel_count":1,"parcel_shard":"x075-y208","parcel_id":"300906_5.0020.AR_4.128/1","location_source":"powiat kolski (wfs)"}},{"type":"Feature","id":"ST-WK-KO/WNIOSEK/18890/2025::300906_5.0021.AR_3.22","geometry":{"type":"Polygon","coordinates":[[[18.9758818627621,52.2315211619537],[18.9767401875693,52.2320058869253],[18.9774227272381,52.2318815124052],[18.9769731885828,52.2315941062925],[18.9771430997353,52.2315098733323],[18.9770669861901,52.2314538074048],[18.9772582212353,52.2313188686324],[18.9739577217932,52.2292024972626],[18.9719876228589,52.2292191867273],[18.971838651169,52.2292731817907],[18.9758818627621,52.2315211619537]]]},"properties":{"case_id":"ST-WK-KO/WNIOSEK/18890/2025","source_type":"wniosek_decyzja","received_date":"2025-09-16","decision_date":"2025-10-31","status":"decyzja wydana","description":"Budowa budynku mieszkalnego jednorodzinnego","address":"Rgielew","city":"Rgielew","office":"Starosta Powiatu Koło","case_kind":"Budynek mieszkalny jednorodzinny","parcel_ids":["300906_5.0021.AR_3.22"],"location_quality":"dokładny","gunb_url":"https://wyszukiwarka.gunb.gov.pl/","parcel_count":1,"parcel_shard":"x075-y208","parcel_id":"300906_5.0021.AR_3.22","location_source":"powiat kolski (wfs)"}},{"type":"Feature","id":"ST-WK-KO/WNIOSEK/826/2026::300906_5.0027.AR_5.16/2","geometry":{"type":"Polygon","coordinates":[[[18.9443089485521,52.2284887639153],[18.944948639483,52.2285045598039],[18.9451079447344,52.226525660847],[18.9452232222169,52.2250237674262],[18.9446296587841,52.2250323885531],[18.9437068726779,52.2251040634573],[18.9436337133128,52.225981932901],[18.9431920481408,52.2260072785432],[18.9430187690593,52.2284617455822],[18.9443089485521,52.2284887639153]]]},"properties":{"case_id":"ST-WK-KO/WNIOSEK/826/2026","source_type":"wniosek_decyzja","received_date":"2026-01-16","decision_date":"2026-02-06","status":"decyzja wydana","description":"Budynek mieszkalny jednorodzinny","address":"Wólka Czepowa","city":"Wólka Czepowa","office":"Starosta Powiatu Koło","case_kind":"Budynek mieszkalny jednorodzinny","parcel_ids":["300906_5.0027.AR_5.16/2"],"location_quality":"dokładny","gunb_url":"https://wyszukiwarka.gunb.gov.pl/","parcel_count":1,"parcel_shard":"x075-y208","parcel_id":"300906_5.0027.AR_5.16/2","location_source":"powiat kolski (wfs)"}},{"type":"Feature","id":"ST-WK-KO/ZGŁOSZENIE/1169/2026::300909_2.0001.57/1","geometry":{"type":"Polygon","coordinates":[[[18.8383239683172,52.166670480255],[18.8386939676353,52.1670620655226],[18.8394924458501,52.1668351903704],[18.8390961548412,52.1664526028719],[18.8383239683172,52.166670480255]]]},"properties":{"case_id":"ST-WK-KO/ZGŁOSZENIE/1169/2026","source_type":"zgloszenie","received_date":"2026-04-15","decision_date":null,"status":"Brak sprzeciwu","description":"Budowa sieci kablowej nn 0,4kv wraz ze złączem kablowo-pomiarowym dla zasilania domu jednorodzinnego w miejsc. Adamin, gm. Olszówka","address":"Adamin","city":"Adamin","office":"Starosta Powiatu Koło","case_kind":"budowa nowego/nowych obiektów budowlanych","parcel_ids":["300909_2.0001.57/1","300909_2.0001.76"],"location_quality":"dokładny","gunb_url":"https://wyszukiwarka.gunb.gov.pl/","parcel_count":2,"parcel_shard":"x075-y208","parcel_id":"300909_2.0001.57/1","location_source":"powiat kolski (wfs)"}},{"type":"Feature","id":"ST-WK-KO/ZGŁOSZENIE/1169/2026::300909_2.0001.76","geometry":{"type":"Polygon","coordinates":[[[18.836431418835,52.163770801816],[18.8367194178889,52.1641954215772],[18.8370757053371,52.1649252392365],[18.8373597908143,52.1653508738454],[18.8375940226118,52.1655498239303],[18.8384066774695,52.1659772743604],[18.8384470949725,52.1660046702499],[18.8390684646858,52.1664258357206],[18.8390961548412,52.1664526028719],[18.8394924458501,52.1668351903704],[18.839622262287,52.1669605483826],[18.8398627158468,52.1672172427493],[18.8402241448381,52.1676029521446],[18.8405651238488,52.16795265639],[18.8407900003184,52.1682097473377],[18.8408535443453,52.1682851534374],[18.8408737288042,52.1683090974974],[18.8410230992222,52.1684865350595],[18.8412831850444,52.1688300008389],[18.8416188750223,52.1692291917719],[18.8417612903398,52.1693945087949],[18.8419420036629,52.169604280467],[18.8420285148003,52.1697047016163],[18.8423267261336,52.1700072670223],[18.8425644845172,52.1702433924898],[18.8427471276048,52.170424904459],[18.8428525859083,52.1705443210403],[18.8429279601772,52.1706342919819],[18.8430061692305,52.1707582173805],[18.8430703575915,52.1708827822073],[18.8431047296699,52.1710075600912],[18.8431275041441,52.171152913564],[18.8431359441405,52.1713983163907],[18.8431243606659,52.1715511058315],[18.8431943049769,52.171400146279],[18.8431857644153,52.1711494412356],[18.8431629897533,52.1710040877748],[18.8431261396509,52.1708719574312],[18.8430607411065,52.1707452441548],[18.8429825319252,52.1706213187927],[18.8429040084142,52.1705271460118],[18.8427985500147,52.1704077294765],[18.8426141189433,52.1702244327504],[18.8423765065571,52.1699883063392],[18.842314064641,52.1699250142171],[18.8420803870076,52.1696881528951],[18.8419932220868,52.1695851430335],[18.8418487910296,52.1694142327275],[18.8416770009372,52.1692109807636],[18.8413352043666,52.1688135412721],[18.8410817888226,52.1684786071633],[18.8410751199371,52.168470165476],[18.8408418712592,52.1681931991624],[18.8404569289143,52.1677803092304],[18.8402748190098,52.167584974654],[18.8399133897295,52.167199265414],[18.8396729359774,52.1669425711507],[18.8395417787622,52.1668158745302],[18.8391454875055,52.1664332871973],[18.8391117124036,52.1664016199209],[18.8388752737847,52.1662413966081],[18.8384903443138,52.1659805445449],[18.8384446048251,52.1659499508033],[18.8376319501077,52.165522500632],[18.8374645671459,52.1653658765006],[18.8374196479643,52.1653238443482],[18.8371601654218,52.1649163708793],[18.8367995808294,52.1641757084264],[18.8367982520969,52.164173929484],[18.836332728956,52.1635506654242],[18.8362554955501,52.1635862663243],[18.836431418835,52.163770801816]]]},"properties":{"case_id":"ST-WK-KO/ZGŁOSZENIE/1169/2026","source_type":"zgloszenie","received_date":"2026-04-15","decision_date":null,"status":"Brak sprzeciwu","description":"Budowa sieci kablowej nn 0,4kv wraz ze złączem kablowo-pomiarowym dla zasilania domu jednorodzinnego w miejsc. Adamin, gm. Olszówka","address":"Adamin","city":"Adamin","office":"Starosta Powiatu Koło","case_kind":"budowa nowego/nowych obiektów budowlanych","parcel_ids":["300909_2.0001.57/1","300909_2.0001.76"],"location_quality":"dokładny","gunb_url":"https://wyszukiwarka.gunb.gov.pl/","parcel_count":2,"parcel_shard":"x075-y208","parcel_id":"300909_2.0001.76","location_source":"powiat kolski (wfs)"}},{"type":"Feature","id":"ST-WK-KO/WNIOSEK/12383/2026::300909_2.0003.144","geometry":{"type":"Polygon","coordinates":[[[18.8805742508121,52.1571438689407],[18.8801746118015,52.1572466980404],[18.8804075262938,52.1585591773443],[18.8807783451153,52.1583995969022],[18.8806688662637,52.1577099505321],[18.8806554907175,52.1576394041335],[18.8805742508121,52.1571438689407]]]},"properties":{"case_id":"ST-WK-KO/WNIOSEK/12383/2026","source_type":"wniosek_decyzja","received_date":"2026-07-01","decision_date":"2026-08-07","status":"decyzja wydana","description":"Instalacja gazowa wewnętrzna i zewnętrzna wraz z zbiornikiem naziemnym gazu płynnego V=2700dm3 dla budynku mieszkalnego jednorodzinnego","address":"Drzewce","city":"Drzewce","office":"Starosta Powiatu Koło","case_kind":"Budynek mieszkalny jednorodzinny","parcel_ids":["300909_2.0003.144"],"location_quality":"dokładny","gunb_url":"https://wyszukiwarka.gunb.gov.pl/","parcel_count":1,"parcel_shard":"x075-y208","parcel_id":"300909_2.0003.144","location_source":"powiat kolski (wfs)"}},{"type":"Feature","id":"ST-WK-KO/WNIOSEK/25205/2025::300909_2.0003.152/1","geometry":{"type":"Polygon","coordinates":[[[18.8825321874243,52.1565983103071],[18.8825731870253,52.1568315137694],[18.8826072369063,52.1570088633787],[18.8827342092869,52.1576727611851],[18.8831084499763,52.1575317233051],[18.8830037212067,52.1568548962888],[18.8828294989514,52.1565135748999],[18.8825321874243,52.1565983103071]]]},"properties":{"case_id":"ST-WK-KO/WNIOSEK/25205/2025","source_type":"wniosek_decyzja","received_date":"2025-12-12","decision_date":"2026-01-15","status":"decyzja wydana","description":"Budowa budynku mieszkalnego jednorodzinnego i zbiornika naziemnego na gaz płynny o poj. V=2700l","address":"Drzewce","city":"Drzewce","office":"Starosta Powiatu Koło","case_kind":"Budynek mieszkalny jednorodzinny","parcel_ids":["300909_2.0003.AR_1.152/1"],"location_quality":"dokładny","gunb_url":"https://wyszukiwarka.gunb.gov.pl/","parcel_count":1,"parcel_shard":"x075-y208","parcel_id":"300909_2.0003.152/1","location_source":"powiat kolski (wfs)"}},{"type":"Feature","id":"ST-WK-KO/WNIOSEK/3631/2026::300909_2.0005.141/3","geometry":{"type":"Polygon","coordinates":[[[18.8903481881541,52.1800427023895],[18.8899952284853,52.1803490957822],[18.8901548563193,52.1809636469361],[18.890760479419,52.1809031132353],[18.8906596940799,52.1805048764668],[18.8904571768596,52.1805061543335],[18.8903481881541,52.1800427023895]]]},"properties":{"case_id":"ST-WK-KO/WNIOSEK/3631/2026","source_type":"wniosek_decyzja","received_date":"2026-02-27","decision_date":"2026-04-07","status":"decyzja wydana","description":"Rozbudowa budynku mieszkalnego wraz ze zmianą konstrukcji dachu","address":"Głębokie","city":"Głębokie","office":"Starosta Powiatu Koło","case_kind":"Budynek mieszkalny jednorodzinny","parcel_ids":["300909_2.0005.141/3"],"location_quality":"dokładny","gunb_url":"https://wyszukiwarka.gunb.gov.pl/","parcel_count":1,"parcel_shard":"x075-y208","parcel_id":"300909_2.0005.141/3","location_source":"powiat kolski (wfs)"}},{"type":"Feature","id":"ST-WK-KO/WNIOSEK/572/2026::300909_2.0005.150/3","geometry":{"type":"Polygon","coordinates":[[[18.8813430736613,52.1843734609054],[18.8824804049792,52.1841962540835],[18.8823006938487,52.1837602403203],[18.8817915075028,52.1838394566397],[18.8818716856085,52.1840340774993],[18.8812377313136,52.1841484683433],[18.8813430736613,52.1843734609054]]]},"properties":{"case_id":"ST-WK-KO/WNIOSEK/572/2026","source_type":"wniosek_decyzja","received_date":"2026-01-14","decision_date":"2026-01-29","status":"decyzja wydana","description":"Budowa budynku mieszkalnego jednorodzinnego wg projektu typowego \"Dom w renklodach 15 (G2)\" wraz z infrastrukturą towarzyszącą","address":"Głębokie","city":"Głębokie","office":"Starosta Powiatu Koło","case_kind":"Budynek mieszkalny jednorodzinny","parcel_ids":["300909_2.0005.AR_1.150/3"],"location_quality":"dokładny","gunb_url":"https://wyszukiwarka.gunb.gov.pl/","parcel_count":1,"parcel_shard":"x075-y208","parcel_id":"300909_2.0005.150/3","location_source":"powiat kolski (wfs)"}},{"type":"Feature","id":"ST-WK-KO/WNIOSEK/20283/2025::300909_2.0005.23/2","geometry":{"type":"Polygon","coordinates":[[[18.8677044491193,52.1896798229005],[18.8684516097401,52.1895258509836],[18.8672008911131,52.1867865861063],[18.8663498754403,52.1867765438426],[18.8666274238748,52.1873745099113],[18.8670964953416,52.1883846786523],[18.8673637251666,52.1889593588555],[18.8677044491193,52.1896798229005]]]},"properties":{"case_id":"ST-WK-KO/WNIOSEK/20283/2025","source_type":"wniosek_decyzja","received_date":"2025-10-07","decision_date":"2025-11-26","status":"decyzja wydana","description":"Rozbudowa i nadbudowa części mieszkalnej w budynku mieszkalno-gospodarczym oraz zmiana dachu w części gospodarczej wraz z zagospodarowaniem terenu","address":"Głębokie","city":"Głębokie","office":"Starosta Powiatu Koło","case_kind":"Budynek mieszkalny jednorodzinny","parcel_ids":["300909_2.0005.AR_2.23/2"],"location_quality":"dokładny","gunb_url":"https://wyszukiwarka.gunb.gov.pl/","parcel_count":1,"parcel_shard":"x075-y208","parcel_id":"300909_2.0005.23/2","location_source":"powiat kolski (wfs)"}},{"type":"Feature","id":"ST-WK-KO/WNIOSEK/4755/2026::300909_2.0007.AR_3.152/1","geometry":{"type":"Polygon","coordinates":[[[18.9125810904185,52.2122108146165],[18.9126760206957,52.2125806562102],[18.9129825741999,52.2125102457774],[18.9129703637132,52.21247133227],[18.9131162947494,52.212445396318],[18.913030595221,52.2121548477925],[18.9125810904185,52.2122108146165]]]},"properties":{"case_id":"ST-WK-KO/WNIOSEK/4755/2026","source_type":"wniosek_decyzja","received_date":"2026-03-16","decision_date":"2026-04-17","status":"decyzja wydana","description":"Przebudowa i zmiana sposobu użytkowania budynku gospodarczego na cele mieszkalne oraz rozbudowa i przebudowa budynku mieszkalnego wraz z zagospodarowaniem terenu","address":"Krzewata","city":"Krzewata","office":"Starosta Powiatu Koło","case_kind":"Budynek mieszkalny jednorodzinny","parcel_ids":["300909_2.0007.AR_3.152/1"],"location_quality":"dokładny","gunb_url":"https://wyszukiwarka.gunb.gov.pl/","parcel_count":1,"parcel_shard":"x075-y208","parcel_id":"300909_2.0007.AR_3.152/1","location_source":"powiat kolski (wfs)"}},{"type":"Feature","id":"ST-WK-KO/WNIOSEK/5107/2026::300909_2.0007.AR_4.15/2","geometry":{"type":"Polygon","coordinates":[[[18.8954416751596,52.1994277081956],[18.8945625583098,52.1995580380068],[18.8949791328574,52.2013509066713],[18.8948981492255,52.2013585408627],[18.8955043616246,52.2040059485905],[18.896021101186,52.2039426403959],[18.8959280041378,52.2031906010419],[18.8961463155883,52.2031714167048],[18.8954416751596,52.1994277081956]]]},"properties":{"case_id":"ST-WK-KO/WNIOSEK/5107/2026","source_type":"wniosek_decyzja","received_date":"2026-03-19","decision_date":"2026-04-20","status":"decyzja wydana","description":"Budowa budynku gospodarczego","address":"Krzewata","city":"Krzewata","office":"Starosta Powiatu Koło","case_kind":"Obiekt budowlany inny niż budynek mieszkalny jednorodzinny","parcel_ids":["300908_2.0007.AR_4.16/1","300909_2.0007.AR_4.15/2"],"location_quality":"dokładny","gunb_url":"https://wyszukiwarka.gunb.gov.pl/","parcel_count":1,"parcel_shard":"x075-y208","parcel_id":"300909_2.0007.AR_4.15/2","location_source":"powiat kolski (wfs)"}},{"type":"Feature","id":"ST-WK-KO/WNIOSEK/20032/2025::300909_2.0009.128/1","geometry":{"type":"Polygon","coordinates":[[[18.9029313335122,52.1510516927037],[18.9031718119996,52.1517724046181],[18.9036865837378,52.1517074774727],[18.9034207207925,52.1509097083114],[18.9029313335122,52.1510516927037]]]},"properties":{"case_id":"ST-WK-KO/WNIOSEK/20032/2025","source_type":"wniosek_decyzja","received_date":"2025-10-03","decision_date":"2025-11-13","status":"decyzja wydana","description":"Zmiana decyzji nr 648.2018 z dnia 18.12.2018r. pozwolenia na budowę budynku mieszkalnego jednorodzinnego, budynku gospodarczo-garażowego i przydomowej oczyszczalni ścieków w zakresie zmiany ogrzewania - instalacja  gazowa wewnętrzna i zewnętrzna wraz ze zbiornikiem naziemnym gazu płynnego V=3700 dm3 dla budynku mieszkalnego jednorodzinnego w miejsc. Mniewo, gm. Olszówka, dz. nr  128/1 wg projektu zmian","address":"Mniewo","city":"Mniewo","office":"Starosta Powiatu Koło","case_kind":"Budynek mieszkalny jednorodzinny","parcel_ids":["300909_2.0009.AR_1.128/1"],"location_quality":"dokładny","gunb_url":"https://wyszukiwarka.gunb.gov.pl/","parcel_count":1,"parcel_shard":"x075-y208","parcel_id":"300909_2.0009.128/1","location_source":"powiat kolski (wfs)"}},{"type":"Feature","id":"ST-WK-KO/WNIOSEK/11039/2026::300909_2.0014.226/1","geometry":{"type":"Polygon","coordinates":[[[18.8407453639693,52.1936224222022],[18.8415247563336,52.1935375022046],[18.8415466710625,52.1935362673489],[18.8416191318196,52.1935319755703],[18.8416555084266,52.1935298286213],[18.8417610827578,52.1935751839375],[18.841990888209,52.1935618599042],[18.841962712769,52.1934329933091],[18.841613106693,52.193453014047],[18.8406454971919,52.1935151878981],[18.8407453639693,52.1936224222022]]]},"properties":{"case_id":"ST-WK-KO/WNIOSEK/11039/2026","source_type":"wniosek_decyzja","received_date":"2026-06-11","decision_date":"2026-08-05","status":"decyzja wydana","description":"Rozbudowa budynku gospodarczego","address":"Olszówka","city":"Olszówka","office":"Starosta Powiatu Koło","case_kind":"Obiekt budowlany inny niż budynek mieszkalny jednorodzinny","parcel_ids":["300909_2.0014.226/1"],"location_quality":"dokładny","gunb_url":"https://wyszukiwarka.gunb.gov.pl/","parcel_count":1,"parcel_shard":"x075-y208","parcel_id":"300909_2.0014.226/1","location_source":"powiat kolski (wfs)"}},{"type":"Feature","id":"ST-WK-KO/WNIOSEK/6894/2026::300909_2.0014.7/1","geometry":{"type":"Polygon","coordinates":[[[18.842229554049,52.1937516541175],[18.8423499165504,52.1941099021063],[18.8448343296644,52.1941546066306],[18.8446889724798,52.1938199045283],[18.8431793614934,52.1937842321605],[18.8431348098138,52.1937827113998],[18.842229554049,52.1937516541175]]]},"properties":{"case_id":"ST-WK-KO/WNIOSEK/6894/2026","source_type":"wniosek_decyzja","received_date":"2026-04-13","decision_date":"2026-08-03","status":"decyzja wydana","description":"Dokończenie budowy budynku mieszkalnego jednorodzinnego","address":"Olszówka","city":"Olszówka","office":"Starosta Powiatu Koło","case_kind":"Budynek mieszkalny jednorodzinny","parcel_ids":["300909_2.0014.7/1"],"location_quality":"dokładny","gunb_url":"https://wyszukiwarka.gunb.gov.pl/","parcel_count":1,"parcel_shard":"x075-y208","parcel_id":"300909_2.0014.7/1","location_source":"powiat kolski (wfs)"}},{"type":"Feature","id":"ST-WK-KO/WNIOSEK/21934/2025::300909_2.0014.62","geometry":{"type":"Polygon","coordinates":[[[18.8546834826662,52.1907190515073],[18.8552011510266,52.1907008691258],[18.8554523190162,52.1876998337752],[18.8549718491725,52.187689100093],[18.8549524493483,52.1877555884787],[18.8547393591176,52.1902290174781],[18.8546834826662,52.1907190515073]]]},"properties":{"case_id":"ST-WK-KO/WNIOSEK/21934/2025","source_type":"wniosek_decyzja","received_date":"2025-10-27","decision_date":"2025-11-13","status":"decyzja wydana","description":"Zmiana decyzji nr 336.2022 z dnia 07.07.2022r. pozwolenia na budowę budynku mieszkalnego jednorodzinnego w miejsc. Olszówka, gm. Olszówka, dz. nr 62  w zakresie zmiany ogrzewania - instalacja gazowa wewnętrzna i zewnętrzna wraz z zbiornikiem naziemnym gazu płynnego o poj. V=2700dm3 dla budynku mieszkalnego jednorodzinnego wg projektu zmian","address":"Olszówka","city":"Olszówka","office":"Starosta Powiatu Koło","case_kind":"Budynek mieszkalny jednorodzinny","parcel_ids":["300909_2.0014.AR_1.62"],"location_quality":"dokładny","gunb_url":"https://wyszukiwarka.gunb.gov.pl/","parcel_count":1,"parcel_shard":"x075-y208","parcel_id":"300909_2.0014.62","location_source":"powiat kolski (wfs)"}},{"type":"Feature","id":"ST-WK-KO/WNIOSEK/3347/2026::300909_2.0015.101/2","geometry":{"type":"Polygon","coordinates":[[[18.9160998624806,52.198771381591],[18.9156519802628,52.2017145305103],[18.9163794867977,52.2017187220112],[18.9166379113135,52.2002115134674],[18.9167262618566,52.2001962606252],[18.9169285682631,52.1989619307779],[18.9165955004445,52.1988710497117],[18.9160998624806,52.198771381591]]]},"properties":{"case_id":"ST-WK-KO/WNIOSEK/3347/2026","source_type":"wniosek_decyzja","received_date":"2026-02-24","decision_date":"2026-04-13","status":"decyzja wydana","description":"Budowa napowietrznej stacji transformatorowej SN/nn oraz linii kablowych SN-15kV i nn 0,4kV","address":"Przybyszew","city":"Przybyszew","office":"Starosta Powiatu Koło","case_kind":"Obiekt budowlany inny niż budynek mieszkalny jednorodzinny","parcel_ids":["300909_2.0015.101/2","300909_2.0015.104","300909_2.0015.114","300909_2.0015.5","300909_2.0015.7/1"],"location_quality":"dokładny","gunb_url":"https://wyszukiwarka.gunb.gov.pl/","parcel_count":5,"parcel_shard":"x075-y208","parcel_id":"300909_2.0015.101/2","location_source":"powiat kolski (wfs)"}},{"type":"Feature","id":"ST-WK-KO/WNIOSEK/3347/2026::300909_2.0015.104","geometry":{"type":"Polygon","coordinates":[[[18.9127650682351,52.1981353308509],[18.9136337213314,52.2017266911902],[18.9139601215145,52.2017245132985],[18.9130987312447,52.1980444708783],[18.9129160578819,52.1981168832249],[18.9127650682351,52.1981353308509]]]},"properties":{"case_id":"ST-WK-KO/WNIOSEK/3347/2026","source_type":"wniosek_decyzja","received_date":"2026-02-24","decision_date":"2026-04-13","status":"decyzja wydana","description":"Budowa napowietrznej stacji transformatorowej SN/nn oraz linii kablowych SN-15kV i nn 0,4kV","address":"Przybyszew","city":"Przybyszew","office":"Starosta Powiatu Koło","case_kind":"Obiekt budowlany inny niż budynek mieszkalny jednorodzinny","parcel_ids":["300909_2.0015.101/2","300909_2.0015.104","300909_2.0015.114","300909_2.0015.5","300909_2.0015.7/1"],"location_quality":"dokładny","gunb_url":"https://wyszukiwarka.gunb.gov.pl/","parcel_count":5,"parcel_shard":"x075-y208","parcel_id":"300909_2.0015.104","location_source":"powiat kolski (wfs)"}},{"type":"Feature","id":"ST-WK-KO/WNIOSEK/3347/2026::300909_2.0015.114","geometry":{"type":"Polygon","coordinates":[[[18.9207400721466,52.202880125568],[18.9208046362783,52.2028253987551],[18.9204959323401,52.2025562997042],[18.9201681985588,52.2023917744228],[18.9195162060806,52.202140432961],[18.9191243141453,52.2020036486448],[18.9190890058704,52.2019911912496],[18.9189552319398,52.2019441872209],[18.9184664883177,52.2018223671145],[18.9180231320707,52.2017737743419],[18.9164671676985,52.2017192174615],[18.9163794867977,52.2017187220112],[18.9156519802628,52.2017145305103],[18.9155398308037,52.2017125514494],[18.9139601215145,52.2017245132985],[18.9136337213314,52.2017266911902],[18.912786837722,52.2017319349509],[18.9121447668498,52.2017359943867],[18.9094633947315,52.201755772176],[18.9085238316966,52.2017688501746],[18.9085439405841,52.201857845348],[18.9096172117363,52.2018682653695],[18.9096909242573,52.2018676072527],[18.9106178984672,52.2018598282821],[18.9108890509983,52.2018588357134],[18.9111770971702,52.201856984422],[18.9127463647956,52.2018470730347],[18.9138185989279,52.2018299195178],[18.9145456351463,52.201830535256],[18.9148746292878,52.2018223241503],[18.9159678795871,52.2018215662163],[18.9170552832901,52.2018180311721],[18.918220905664,52.2019033663843],[18.9184162660371,52.2019324780935],[18.9188811522713,52.2020483673758],[18.9189702947452,52.202080843184],[18.9191040132366,52.202129646609],[18.9194084220219,52.2022407577635],[18.9200363532466,52.2024821266957],[18.9203829591302,52.2026814511228],[18.9206149765741,52.2028777365576],[18.9206040945468,52.2029494266687],[18.9205959232472,52.2030022727977],[18.9206569773134,52.2029504901124],[18.9207400721466,52.202880125568]]]},"properties":{"case_id":"ST-WK-KO/WNIOSEK/3347/2026","source_type":"wniosek_decyzja","received_date":"2026-02-24","decision_date":"2026-04-13","status":"decyzja wydana","description":"Budowa napowietrznej stacji transformatorowej SN/nn oraz linii kablowych SN-15kV i nn 0,4kV","address":"Przybyszew","city":"Przybyszew","office":"Starosta Powiatu Koło","case_kind":"Obiekt budowlany inny niż budynek mieszkalny jednorodzinny","parcel_ids":["300909_2.0015.101/2","300909_2.0015.104","300909_2.0015.114","300909_2.0015.5","300909_2.0015.7/1"],"location_quality":"dokładny","gunb_url":"https://wyszukiwarka.gunb.gov.pl/","parcel_count":5,"parcel_shard":"x075-y208","parcel_id":"300909_2.0015.114","location_source":"powiat kolski (wfs)"}},{"type":"Feature","id":"ST-WK-KO/WNIOSEK/3347/2026::300909_2.0015.5","geometry":{"type":"Polygon","coordinates":[[[18.9127463647956,52.2018470730347],[18.9111770971702,52.201856984422],[18.9124286729578,52.207156907604],[18.9139318157014,52.2070678551304],[18.9127463647956,52.2018470730347]]]},"properties":{"case_id":"ST-WK-KO/WNIOSEK/3347/2026","source_type":"wniosek_decyzja","received_date":"2026-02-24","decision_date":"2026-04-13","status":"decyzja wydana","description":"Budowa napowietrznej stacji transformatorowej SN/nn oraz linii kablowych SN-15kV i nn 0,4kV","address":"Przybyszew","city":"Przybyszew","office":"Starosta Powiatu Koło","case_kind":"Obiekt budowlany inny niż budynek mieszkalny jednorodzinny","parcel_ids":["300909_2.0015.101/2","300909_2.0015.104","300909_2.0015.114","300909_2.0015.5","300909_2.0015.7/1"],"location_quality":"dokładny","gunb_url":"https://wyszukiwarka.gunb.gov.pl/","parcel_count":5,"parcel_shard":"x075-y208","parcel_id":"300909_2.0015.5","location_source":"powiat kolski (wfs)"}},{"type":"Feature","id":"ST-WK-KO/WNIOSEK/3347/2026::300909_2.0015.7/1","geometry":{"type":"Polygon","coordinates":[[[18.9138185989279,52.2018299195178],[18.9139447803881,52.2024202510853],[18.9146538553343,52.2023659988283],[18.9145456351463,52.201830535256],[18.9138185989279,52.2018299195178]]]},"properties":{"case_id":"ST-WK-KO/WNIOSEK/3347/2026","source_type":"wniosek_decyzja","received_date":"2026-02-24","decision_date":"2026-04-13","status":"decyzja wydana","description":"Budowa napowietrznej stacji transformatorowej SN/nn oraz linii kablowych SN-15kV i nn 0,4kV","address":"Przybyszew","city":"Przybyszew","office":"Starosta Powiatu Koło","case_kind":"Obiekt budowlany inny niż budynek mieszkalny jednorodzinny","parcel_ids":["300909_2.0015.101/2","300909_2.0015.104","300909_2.0015.114","300909_2.0015.5","300909_2.0015.7/1"],"location_quality":"dokładny","gunb_url":"https://wyszukiwarka.gunb.gov.pl/","parcel_count":5,"parcel_shard":"x075-y208","parcel_id":"300909_2.0015.7/1","location_source":"powiat kolski (wfs)"}},{"type":"Feature","id":"ST-WK-KO/WNIOSEK/6388/2026::300909_2.0016.39/3","geometry":{"type":"Polygon","coordinates":[[[18.8050724810663,52.1930729865504],[18.8049888438779,52.1933493083259],[18.8058415986289,52.1934519724357],[18.8059750873049,52.1929888089916],[18.8051236798535,52.1928954841659],[18.8050724810663,52.1930729865504]]]},"properties":{"case_id":"ST-WK-KO/WNIOSEK/6388/2026","source_type":"wniosek_decyzja","received_date":"2026-04-03","decision_date":"2026-05-14","status":"decyzja wydana","description":"Budowa budynku gospodarczego","address":"Ponętów Górny Drugi","city":"Ponętów Górny Drugi","office":"Starosta Powiatu Koło","case_kind":"Obiekt budowlany inny niż budynek mieszkalny jednorodzinny","parcel_ids":["300909_2.0016.39/3"],"location_quality":"dokładny","gunb_url":"https://wyszukiwarka.gunb.gov.pl/","parcel_count":1,"parcel_shard":"x075-y208","parcel_id":"300909_2.0016.39/3","location_source":"powiat kolski (wfs)"}},{"type":"Feature","id":"ST-WK-KO/WNIOSEK/8226/2026::300909_2.0016.427/3","geometry":{"type":"Polygon","coordinates":[[[18.8265299016775,52.1815238951079],[18.8258059902737,52.1814051994518],[18.825856939297,52.1813219734024],[18.8251652904385,52.1812081711499],[18.8251827100967,52.1811776698522],[18.8235849795245,52.1808339873634],[18.8235159849742,52.1808190994795],[18.823514334896,52.180848501778],[18.8232655977602,52.1812506533775],[18.8228499726902,52.1818638383773],[18.8244083925909,52.1821990871752],[18.825633889523,52.1824627642682],[18.8265299016775,52.1815238951079]]]},"properties":{"case_id":"ST-WK-KO/WNIOSEK/8226/2026","source_type":"wniosek_decyzja","received_date":"2026-04-30","decision_date":"2026-06-16","status":"decyzja wydana","description":"Zmiana sposobu użytkowania budynku gospodarczego na mieszkalny z rozbudową i zbiornik na nieczystości ciekłe opoj. 10m3","address":"Ponętów Górny Drugi","city":"Ponętów Górny Drugi","office":"Starosta Powiatu Koło","case_kind":"Budynek mieszkalny jednorodzinny","parcel_ids":["300909_2.0016.427/3"],"location_quality":"dokładny","gunb_url":"https://wyszukiwarka.gunb.gov.pl/","parcel_count":1,"parcel_shard":"x075-y208","parcel_id":"300909_2.0016.427/3","location_source":"powiat kolski (wfs)"}},{"type":"Feature","id":"ST-WK-KO/WNIOSEK/14883/2026::300909_2.0016.45/15","geometry":{"type":"Polygon","coordinates":[[[18.8110235731221,52.1899284367822],[18.8095344585264,52.1899808643825],[18.8096268808929,52.1909871217229],[18.8096946832156,52.1909854481016],[18.811107233298,52.1909098562857],[18.8110993123416,52.1908176585583],[18.8110948813028,52.1907647797461],[18.8110888213717,52.1906931385135],[18.8107678642583,52.1907057698048],[18.8107535585869,52.190522875101],[18.8110725542029,52.1905029063697],[18.8110314023311,52.1900615466891],[18.8110235731221,52.1899284367822]]]},"properties":{"case_id":"ST-WK-KO/WNIOSEK/14883/2026","source_type":"wniosek_decyzja","received_date":"2026-08-04","decision_date":"2026-08-19","status":"decyzja wydana","description":"Rozbudowa i przebudowa budynku Szkoły Podstawowej im. Henryka Sienkiewicza","address":"Ponętów Górny Drugi","city":"Ponętów Górny Drugi","office":"Starosta Powiatu Koło","case_kind":"Obiekt budowlany inny niż budynek mieszkalny jednorodzinny","parcel_ids":["300909_2.0016.45/15"],"location_quality":"dokładny","gunb_url":"https://wyszukiwarka.gunb.gov.pl/","parcel_count":1,"parcel_shard":"x075-y208","parcel_id":"300909_2.0016.45/15","location_source":"powiat kolski (wfs)"}},{"type":"Feature","id":"ST-WK-KO/WNIOSEK/18008/2025::300909_2.0016.168/2","geometry":{"type":"Polygon","coordinates":[[[18.8053058034385,52.2064744452583],[18.8052958118346,52.206510410653],[18.8052937647094,52.206510447524],[18.805291086569,52.2065309959578],[18.8052320724642,52.2065333177453],[18.8052244774528,52.2065336343817],[18.8052554405735,52.2068819394213],[18.8058654833188,52.2067175575826],[18.805788574864,52.2066822587492],[18.8053058034385,52.2064744452583]]]},"properties":{"case_id":"ST-WK-KO/WNIOSEK/18008/2025","source_type":"wniosek_decyzja","received_date":"2025-09-04","decision_date":"2025-10-03","status":"decyzja wydana","description":"Budowa instalacji zbiornikowej gazu płynnego ze zbiornikiem naziemnym o poj. V=2700dm3 wraz z wewnętrzna instalacją gazową do budynku świetlicy wiejskiej","address":"Ponętów Górny Pierwszy","city":"Ponętów Górny Pierwszy","office":"Starosta Powiatu Koło","case_kind":"Obiekt budowlany inny niż budynek mieszkalny jednorodzinny","parcel_ids":["300909_2.0016.AR_2.168/2"],"location_quality":"dokładny","gunb_url":"https://wyszukiwarka.gunb.gov.pl/","parcel_count":1,"parcel_shard":"x075-y208","parcel_id":"300909_2.0016.168/2","location_source":"powiat kolski (wfs)"}},{"type":"Feature","id":"ST-WK-KO/WNIOSEK/6481/2026::300909_2.0017.26","geometry":{"type":"Polygon","coordinates":[[[18.7985028084899,52.1750144121679],[18.8007382810355,52.1782992314103],[18.8013737723048,52.1786835097801],[18.8018651127742,52.1789828030417],[18.8023740623056,52.1792923871782],[18.8024604737867,52.1793347995906],[18.7992262606046,52.1746413144108],[18.7989935519698,52.174791842921],[18.7985028084899,52.1750144121679]]]},"properties":{"case_id":"ST-WK-KO/WNIOSEK/6481/2026","source_type":"wniosek_decyzja","received_date":"2026-04-07","decision_date":"2026-05-06","status":"decyzja wydana","description":"Budynek mieszkalny jednorodzinny, zbiornik na ścieki bytowe V=10,0m3 i zbiornik na gaz płynny V=2700l","address":"Szczepanów","city":"Szczepanów","office":"Starosta Powiatu Koło","case_kind":"Budynek mieszkalny jednorodzinny","parcel_ids":["300909_2.0017.AR_1.26"],"location_quality":"dokładny","gunb_url":"https://wyszukiwarka.gunb.gov.pl/","parcel_count":1,"parcel_shard":"x075-y208","parcel_id":"300909_2.0017.26","location_source":"powiat kolski (wfs)"}},{"type":"Feature","id":"ST-WK-KO/WNIOSEK/5249/2026::300909_2.0019.56","geometry":{"type":"Polygon","coordinates":[[[18.8236785206479,52.1702086135842],[18.8237845644283,52.1701711455136],[18.8224599905161,52.1690873834707],[18.8214847869414,52.1682906604059],[18.821388504298,52.1683610994097],[18.8221026713446,52.1689394927675],[18.8236785206479,52.1702086135842]]]},"properties":{"case_id":"ST-WK-KO/WNIOSEK/5249/2026","source_type":"wniosek_decyzja","received_date":"2026-03-20","decision_date":"2026-05-13","status":"decyzja wydana","description":"Rozbudowa, przebudowa i nadbudowa oraz zmiana sposobu użytkowania budynku gospodarczego na mieszkalny","address":"Umień","city":"Umień","office":"Starosta Powiatu Koło","case_kind":"Budynek mieszkalny jednorodzinny","parcel_ids":["300909_2.0019.56"],"location_quality":"dokładny","gunb_url":"https://wyszukiwarka.gunb.gov.pl/","parcel_count":1,"parcel_shard":"x075-y208","parcel_id":"300909_2.0019.56","location_source":"powiat kolski (wfs)"}},{"type":"Feature","id":"ST-WK-KO/WNIOSEK/2865/2026::300909_2.0020.15/4","geometry":{"type":"Polygon","coordinates":[[[18.8305412030017,52.2223598399588],[18.8306664240321,52.2235255942609],[18.8307916536401,52.2246914380408],[18.8309121219586,52.225813543716],[18.8316242286567,52.2258249763484],[18.8324281726501,52.2258460678687],[18.8324432555476,52.2256674974606],[18.8327411113867,52.2256746534322],[18.8328080116847,52.2252779101985],[18.8328174982951,52.2252772876259],[18.8325457894714,52.2226046535097],[18.8325305396802,52.2225708547891],[18.8325135836755,52.2225592955866],[18.83179147769,52.2224784842987],[18.8305412030017,52.2223598399588]]]},"properties":{"case_id":"ST-WK-KO/WNIOSEK/2865/2026","source_type":"wniosek_decyzja","received_date":"2026-02-17","decision_date":"2026-03-30","status":"decyzja wydana","description":"Budowa naziemnej instalacji jednozbiornikowej gazu o poj. do 6400l wraz z siecią gazową , instalacją parownika oraz infrastrukturą towarzyszącą - płyta fundamentową i parownikiem oraz budowa naziemnej instalacji gazu wraz z 5 zbiornikami na gaz","address":"Złota","city":"Złota","office":"Starosta Powiatu Koło","case_kind":"Obiekt budowlany inny niż budynek mieszkalny jednorodzinny","parcel_ids":["300909_2.0020.15/4","300909_2.0020.168","300909_2.0020.17/5"],"location_quality":"dokładny","gunb_url":"https://wyszukiwarka.gunb.gov.pl/","parcel_count":3,"parcel_shard":"x075-y208","parcel_id":"300909_2.0020.15/4","location_source":"powiat kolski (wfs)"}},{"type":"Feature","id":"ST-WK-KO/WNIOSEK/2865/2026::300909_2.0020.168","geometry":{"type":"Polygon","coordinates":[[[18.8325945390766,52.2225985494441],[18.8325135836755,52.2225592955866],[18.8325305396802,52.2225708547891],[18.8325457894714,52.2226046535097],[18.8328174982951,52.2252772876259],[18.8327896093556,52.2256753873762],[18.8328772648829,52.2256774751058],[18.8329058221135,52.2252568850703],[18.832923504839,52.2252562029067],[18.8327610773022,52.2238140956655],[18.8326457892433,52.222686538192],[18.8326558043277,52.2226120877583],[18.8326929550195,52.2225780525783],[18.8325945390766,52.2225985494441]]]},"properties":{"case_id":"ST-WK-KO/WNIOSEK/2865/2026","source_type":"wniosek_decyzja","received_date":"2026-02-17","decision_date":"2026-03-30","status":"decyzja wydana","description":"Budowa naziemnej instalacji jednozbiornikowej gazu o poj. do 6400l wraz z siecią gazową , instalacją parownika oraz infrastrukturą towarzyszącą - płyta fundamentową i parownikiem oraz budowa naziemnej instalacji gazu wraz z 5 zbiornikami na gaz","address":"Złota","city":"Złota","office":"Starosta Powiatu Koło","case_kind":"Obiekt budowlany inny niż budynek mieszkalny jednorodzinny","parcel_ids":["300909_2.0020.15/4","300909_2.0020.168","300909_2.0020.17/5"],"location_quality":"dokładny","gunb_url":"https://wyszukiwarka.gunb.gov.pl/","parcel_count":3,"parcel_shard":"x075-y208","parcel_id":"300909_2.0020.168","location_source":"powiat kolski (wfs)"}},{"type":"Feature","id":"ST-WK-KO/WNIOSEK/2865/2026::300909_2.0020.17/5","geometry":{"type":"Polygon","coordinates":[[[18.8327610773022,52.2238140956655],[18.8332013933406,52.223797432129],[18.8332707898627,52.2237981703583],[18.8331238151928,52.2226052588661],[18.8327702104774,52.22257106884],[18.8326929550195,52.2225780525783],[18.8326558043277,52.2226120877583],[18.8326457892433,52.222686538192],[18.8327610773022,52.2238140956655]]]},"properties":{"case_id":"ST-WK-KO/WNIOSEK/2865/2026","source_type":"wniosek_decyzja","received_date":"2026-02-17","decision_date":"2026-03-30","status":"decyzja wydana","description":"Budowa naziemnej instalacji jednozbiornikowej gazu o poj. do 6400l wraz z siecią gazową , instalacją parownika oraz infrastrukturą towarzyszącą - płyta fundamentową i parownikiem oraz budowa naziemnej instalacji gazu wraz z 5 zbiornikami na gaz","address":"Złota","city":"Złota","office":"Starosta Powiatu Koło","case_kind":"Obiekt budowlany inny niż budynek mieszkalny jednorodzinny","parcel_ids":["300909_2.0020.15/4","300909_2.0020.168","300909_2.0020.17/5"],"location_quality":"dokładny","gunb_url":"https://wyszukiwarka.gunb.gov.pl/","parcel_count":3,"parcel_shard":"x075-y208","parcel_id":"300909_2.0020.17/5","location_source":"powiat kolski (wfs)"}},{"type":"Feature","id":"ST-WK-KO/WNIOSEK/7598/2026::300909_2.0021.335","geometry":{"type":"Polygon","coordinates":[[[18.8672859747225,52.2060114934057],[18.8677685651551,52.2060070388232],[18.8677881299662,52.2051030462703],[18.8672379845803,52.2051415370064],[18.8672859747225,52.2060114934057]]]},"properties":{"case_id":"ST-WK-KO/WNIOSEK/7598/2026","source_type":"wniosek_decyzja","received_date":"2026-04-23","decision_date":"2026-06-02","status":"decyzja wydana","description":"Budowa budynku mieszkalnego jednorodzinnego i szczelnego zbiornika na ścieki bytowe o poj. V=10,0m3","address":"Zawadka","city":"Zawadka","office":"Starosta Powiatu Koło","case_kind":"Budynek mieszkalny jednorodzinny","parcel_ids":["300909_2.0021.335"],"location_quality":"dokładny","gunb_url":"https://wyszukiwarka.gunb.gov.pl/","parcel_count":1,"parcel_shard":"x075-y208","parcel_id":"300909_2.0021.335","location_source":"powiat kolski (wfs)"}}]}