{"type":"FeatureCollection","features":[{"type":"Feature","id":"ST-WK-KO/WNIOSEK/24188/2025::300902_2.0009.AR_2.5112","geometry":{"type":"Polygon","coordinates":[[[18.7760051892666,52.3153399044112],[18.7763943870688,52.3150774207596],[18.77681756277,52.3147302269464],[18.7771657081735,52.3144032983539],[18.7777154323189,52.313819407594],[18.7801662771572,52.3109495567869],[18.7791970715027,52.309847760704],[18.7787364781284,52.3094320176191],[18.7786474892621,52.309222040199],[18.7786088498902,52.3091307486539],[18.7785028642912,52.3088807933792],[18.7783702635056,52.3087070148771],[18.7783371370844,52.3086839869567],[18.7728064169593,52.3099674425446],[18.7760051892666,52.3153399044112]]]},"properties":{"case_id":"ST-WK-KO/WNIOSEK/24188/2025","source_type":"wniosek_decyzja","received_date":"2025-11-27","decision_date":"2026-01-21","status":"decyzja wydana","description":"Budowa dajazdu pożarowego nr 47 - Leśnictwo Lipie Góry","address":"Kiejsze","city":"Kiejsze","office":"Starosta Powiatu Koło","case_kind":"Obiekt budowlany inny niż budynek mieszkalny jednorodzinny","parcel_ids":["300902_2.0009.AR_2.5112","300902_2.0009.AR_2.5113","300902_2.0009.AR_2.5124","300902_2.0009.AR_2.5125"],"location_quality":"dokładny","gunb_url":"https://wyszukiwarka.gunb.gov.pl/","parcel_count":4,"parcel_shard":"x075-y209","parcel_id":"300902_2.0009.AR_2.5112","location_source":"powiat kolski (wfs)"}},{"type":"Feature","id":"ST-WK-KO/WNIOSEK/24188/2025::300902_2.0009.AR_2.5113","geometry":{"type":"Polygon","coordinates":[[[18.7706144554,52.317437522181],[18.7715637586678,52.3171111681071],[18.7734625331367,52.3164714566862],[18.7743697479221,52.316159849224],[18.7750040442469,52.3159190668683],[18.7759465239374,52.3153791704721],[18.7760051892666,52.3153399044112],[18.7728064169593,52.3099674425446],[18.7668322835789,52.3113540953651],[18.7706144554,52.317437522181]]]},"properties":{"case_id":"ST-WK-KO/WNIOSEK/24188/2025","source_type":"wniosek_decyzja","received_date":"2025-11-27","decision_date":"2026-01-21","status":"decyzja wydana","description":"Budowa dajazdu pożarowego nr 47 - Leśnictwo Lipie Góry","address":"Kiejsze","city":"Kiejsze","office":"Starosta Powiatu Koło","case_kind":"Obiekt budowlany inny niż budynek mieszkalny jednorodzinny","parcel_ids":["300902_2.0009.AR_2.5112","300902_2.0009.AR_2.5113","300902_2.0009.AR_2.5124","300902_2.0009.AR_2.5125"],"location_quality":"dokładny","gunb_url":"https://wyszukiwarka.gunb.gov.pl/","parcel_count":4,"parcel_shard":"x075-y209","parcel_id":"300902_2.0009.AR_2.5113","location_source":"powiat kolski (wfs)"}},{"type":"Feature","id":"ST-WK-KO/WNIOSEK/24188/2025::300902_2.0009.AR_2.5124","geometry":{"type":"Polygon","coordinates":[[[18.7728064169593,52.3099674425446],[18.7783371370844,52.3086839869567],[18.778018400687,52.3084624147485],[18.7777402436227,52.3082689224912],[18.7774918457298,52.3070969511245],[18.7772503156731,52.3066042167592],[18.7770148845696,52.3061131719029],[18.7768494136777,52.3057523871671],[18.7768566304404,52.305734403033],[18.777078814707,52.305150000859],[18.7770921207173,52.3051149695293],[18.7771342260962,52.3050028190394],[18.7775914341269,52.3038522209511],[18.7776023884856,52.3038230556602],[18.7778830786506,52.3031157552071],[18.778063448474,52.3026660760439],[18.778437845512,52.3017385102331],[18.7786378249593,52.3012339498117],[18.7749826869211,52.3021394167435],[18.7718593835413,52.30283997465],[18.7688533842905,52.3035560657746],[18.7728064169593,52.3099674425446]]]},"properties":{"case_id":"ST-WK-KO/WNIOSEK/24188/2025","source_type":"wniosek_decyzja","received_date":"2025-11-27","decision_date":"2026-01-21","status":"decyzja wydana","description":"Budowa dajazdu pożarowego nr 47 - Leśnictwo Lipie Góry","address":"Kiejsze","city":"Kiejsze","office":"Starosta Powiatu Koło","case_kind":"Obiekt budowlany inny niż budynek mieszkalny jednorodzinny","parcel_ids":["300902_2.0009.AR_2.5112","300902_2.0009.AR_2.5113","300902_2.0009.AR_2.5124","300902_2.0009.AR_2.5125"],"location_quality":"dokładny","gunb_url":"https://wyszukiwarka.gunb.gov.pl/","parcel_count":4,"parcel_shard":"x075-y209","parcel_id":"300902_2.0009.AR_2.5124","location_source":"powiat kolski (wfs)"}},{"type":"Feature","id":"ST-WK-KO/WNIOSEK/24188/2025::300902_2.0009.AR_2.5125","geometry":{"type":"Polygon","coordinates":[[[18.7668322835789,52.3113540953651],[18.7728064169593,52.3099674425446],[18.7688533842905,52.3035560657746],[18.7688064250843,52.3035672516313],[18.7658068896531,52.3042715022097],[18.7628922686194,52.3049503855344],[18.7668322835789,52.3113540953651]]]},"properties":{"case_id":"ST-WK-KO/WNIOSEK/24188/2025","source_type":"wniosek_decyzja","received_date":"2025-11-27","decision_date":"2026-01-21","status":"decyzja wydana","description":"Budowa dajazdu pożarowego nr 47 - Leśnictwo Lipie Góry","address":"Kiejsze","city":"Kiejsze","office":"Starosta Powiatu Koło","case_kind":"Obiekt budowlany inny niż budynek mieszkalny jednorodzinny","parcel_ids":["300902_2.0009.AR_2.5112","300902_2.0009.AR_2.5113","300902_2.0009.AR_2.5124","300902_2.0009.AR_2.5125"],"location_quality":"dokładny","gunb_url":"https://wyszukiwarka.gunb.gov.pl/","parcel_count":4,"parcel_shard":"x075-y209","parcel_id":"300902_2.0009.AR_2.5125","location_source":"powiat kolski (wfs)"}},{"type":"Feature","id":"ST-WK-KO/WNIOSEK/9729/2026::300903_2.0035.17/2","geometry":{"type":"Polygon","coordinates":[[[18.992123681521,52.2553476551816],[18.9912339422813,52.2552274165973],[18.9908708792476,52.2578076083243],[18.9921817209061,52.257892638659],[18.9924157327131,52.2563004123829],[18.9919856096079,52.2562756162957],[18.992123681521,52.2553476551816]]]},"properties":{"case_id":"ST-WK-KO/WNIOSEK/9729/2026","source_type":"wniosek_decyzja","received_date":"2026-05-22","decision_date":"2026-07-01","status":"decyzja wydana","description":"Instalacja gazowa wewnętrzna i zewnętrzna wraz z zbiornikiem naziemnym gazu plynnego V=2700dm3 dla budynku mieszkalnego jednorodzinnego","address":"Zieleniec","city":"Zieleniec","office":"Starosta Powiatu Koło","case_kind":"Budynek mieszkalny jednorodzinny","parcel_ids":["300903_2.0035.17/2"],"location_quality":"dokładny","gunb_url":"https://wyszukiwarka.gunb.gov.pl/","parcel_count":1,"parcel_shard":"x075-y209","parcel_id":"300903_2.0035.17/2","location_source":"powiat kolski (wfs)"}},{"type":"Feature","id":"ST-WK-KO/WNIOSEK/3774/2026::300905_2.0006.AR_1.148/2","geometry":{"type":"Polygon","coordinates":[[[18.7851188555085,52.2589688305646],[18.7974317849462,52.2597782600518],[18.7976537318013,52.2590083256758],[18.7955717538159,52.2588728502115],[18.7923886341262,52.2586643330913],[18.7896901806157,52.2584874492097],[18.7872335243321,52.2583264188121],[18.7853307060919,52.2582023054607],[18.7851188555085,52.2589688305646]]]},"properties":{"case_id":"ST-WK-KO/WNIOSEK/3774/2026","source_type":"wniosek_decyzja","received_date":"2026-03-03","decision_date":"2026-04-10","status":"decyzja wydana","description":"Budynek mieszkalny jednorodzinny i zbiornik na ścieki sanitarne o poj. 10m3","address":"Bylice","city":"Bylice","office":"Starosta Powiatu Koło","case_kind":"Budynek mieszkalny jednorodzinny","parcel_ids":["300905_2.0006.AR_1.148/2"],"location_quality":"dokładny","gunb_url":"https://wyszukiwarka.gunb.gov.pl/","parcel_count":1,"parcel_shard":"x075-y209","parcel_id":"300905_2.0006.AR_1.148/2","location_source":"powiat kolski (wfs)"}},{"type":"Feature","id":"ST-WK-KO/WNIOSEK/20174/2025::300905_2.0006.AR_1.177/1","geometry":{"type":"Polygon","coordinates":[[[18.7829796515597,52.2667675702914],[18.7828688784704,52.2671571194014],[18.7838030308443,52.2672208475152],[18.7838747458148,52.2668266134978],[18.7829796515597,52.2667675702914]]]},"properties":{"case_id":"ST-WK-KO/WNIOSEK/20174/2025","source_type":"wniosek_decyzja","received_date":"2025-10-06","decision_date":"2025-10-23","status":"decyzja wydana","description":"Budowa budynku mieszkalnego jednorodzinnego- adaptacja projektu typowego \"Dom w Lucernie 11","address":"Bylice","city":"Bylice","office":"Starosta Powiatu Koło","case_kind":"Budynek mieszkalny jednorodzinny","parcel_ids":["300905_2.0006.AR_1.177/1"],"location_quality":"dokładny","gunb_url":"https://wyszukiwarka.gunb.gov.pl/","parcel_count":1,"parcel_shard":"x075-y209","parcel_id":"300905_2.0006.AR_1.177/1","location_source":"powiat kolski (wfs)"}},{"type":"Feature","id":"ST-WK-KO/WNIOSEK/2505/2026::300905_2.0006.AR_2.201","geometry":{"type":"Polygon","coordinates":[[[18.7823785724863,52.2516773322683],[18.7823886886124,52.2516779842577],[18.7855623188323,52.2518872687717],[18.785868746749,52.2519075193319],[18.7862400981061,52.2519304824976],[18.7865737701591,52.2519509991803],[18.7868621946628,52.2519717266272],[18.7868730446478,52.2519724632203],[18.7869114075729,52.2518397261751],[18.7824135554829,52.2515431810518],[18.7824032929604,52.2515425300348],[18.7823785724863,52.2516773322683]]]},"properties":{"case_id":"ST-WK-KO/WNIOSEK/2505/2026","source_type":"wniosek_decyzja","received_date":"2026-02-12","decision_date":"2026-04-08","status":"decyzja wydana","description":"Zmiana decyzji nr 612.2020 z dnia 06.11.2020r. pozwolenia na budowę  budynku gospodarczego  wg projektu zmian","address":"Bylice","city":"Bylice","office":"Starosta Powiatu Koło","case_kind":"Obiekt budowlany inny niż budynek mieszkalny jednorodzinny","parcel_ids":["300905_2.0006.AR_2.201"],"location_quality":"dokładny","gunb_url":"https://wyszukiwarka.gunb.gov.pl/","parcel_count":1,"parcel_shard":"x075-y209","parcel_id":"300905_2.0006.AR_2.201","location_source":"powiat kolski (wfs)"}},{"type":"Feature","id":"ST-WK-KO/WNIOSEK/7599/2026::300906_4.0001.AR_1.97/4","geometry":{"type":"Polygon","coordinates":[[[18.9031129375803,52.2576632564427],[18.9028723895827,52.2577130504024],[18.9028892682822,52.2577484542986],[18.9031405224162,52.2577136651822],[18.9031129375803,52.2576632564427]]]},"properties":{"case_id":"ST-WK-KO/WNIOSEK/7599/2026","source_type":"wniosek_decyzja","received_date":"2026-04-23","decision_date":"2026-06-10","status":"decyzja wydana","description":"Instalacja gazowa wewnętrzna i zewnętrzna wraz z zbiornikiem naziemnym gazu płynnego V=4850dm3 w budynku gospodarczym na cele budynku mieszkalnego jednorodzinnego","address":"Kłodawa","city":"Kłodawa","office":"Starosta Powiatu Koło","case_kind":"Budynek mieszkalny jednorodzinny","parcel_ids":["300906_4.0001.AR_1.97/4","300906_4.0001.AR_1.98"],"location_quality":"dokładny","gunb_url":"https://wyszukiwarka.gunb.gov.pl/","parcel_count":2,"parcel_shard":"x075-y209","parcel_id":"300906_4.0001.AR_1.97/4","location_source":"powiat kolski (wfs)"}},{"type":"Feature","id":"ST-WK-KO/WNIOSEK/7599/2026::300906_4.0001.AR_1.98","geometry":{"type":"Polygon","coordinates":[[[18.9026443216016,52.2572585544322],[18.9027002408765,52.2573713251875],[18.9027260708353,52.2574222739555],[18.9028723895827,52.2577130504024],[18.9031129375803,52.2576632564427],[18.902906341911,52.2572883809544],[18.9026443216016,52.2572585544322]]]},"properties":{"case_id":"ST-WK-KO/WNIOSEK/7599/2026","source_type":"wniosek_decyzja","received_date":"2026-04-23","decision_date":"2026-06-10","status":"decyzja wydana","description":"Instalacja gazowa wewnętrzna i zewnętrzna wraz z zbiornikiem naziemnym gazu płynnego V=4850dm3 w budynku gospodarczym na cele budynku mieszkalnego jednorodzinnego","address":"Kłodawa","city":"Kłodawa","office":"Starosta Powiatu Koło","case_kind":"Budynek mieszkalny jednorodzinny","parcel_ids":["300906_4.0001.AR_1.97/4","300906_4.0001.AR_1.98"],"location_quality":"dokładny","gunb_url":"https://wyszukiwarka.gunb.gov.pl/","parcel_count":2,"parcel_shard":"x075-y209","parcel_id":"300906_4.0001.AR_1.98","location_source":"powiat kolski (wfs)"}},{"type":"Feature","id":"ST-WK-KO/WNIOSEK/249/2026::300906_4.0001.AR_2.424","geometry":{"type":"Polygon","coordinates":[[[18.9099966958097,52.2515584591681],[18.9103159061962,52.2514351759839],[18.9100222122598,52.2511136487703],[18.9096811552465,52.2512130335006],[18.9098796019888,52.2514302763598],[18.9099966958097,52.2515584591681]]]},"properties":{"case_id":"ST-WK-KO/WNIOSEK/249/2026","source_type":"wniosek_decyzja","received_date":"2026-01-07","decision_date":"2026-02-16","status":"decyzja wydana","description":"Instalacja gazowa wewnętrzna i zewnętrzna wraz z zbiornikiem naziemnym gazu płynnego V=2700dm3 dla budynku mieszkalnego jednorodzinnego","address":"Kłodawa","city":"Kłodawa","office":"Starosta Powiatu Koło","case_kind":"Budynek mieszkalny jednorodzinny","parcel_ids":["300906_4.0001.AR_2.424"],"location_quality":"dokładny","gunb_url":"https://wyszukiwarka.gunb.gov.pl/","parcel_count":1,"parcel_shard":"x075-y209","parcel_id":"300906_4.0001.AR_2.424","location_source":"powiat kolski (wfs)"}},{"type":"Feature","id":"ST-WK-KO/WNIOSEK/7601/2026::300906_4.0001.AR_4.883/15","geometry":{"type":"Polygon","coordinates":[[[18.9130309326174,52.2523881990705],[18.913290909483,52.2523327098376],[18.9132256102045,52.2522323361352],[18.9131908186185,52.2521738482571],[18.9130461664511,52.2519247523029],[18.912945416806,52.2519392830297],[18.9127996960364,52.2519603630808],[18.9129171975664,52.2521768730776],[18.9130309326174,52.2523881990705]]]},"properties":{"case_id":"ST-WK-KO/WNIOSEK/7601/2026","source_type":"wniosek_decyzja","received_date":"2026-04-23","decision_date":"2026-05-15","status":"decyzja wydana","description":"Instalacja gazowa wewnętrzna i zewnętrzna wraz z zbiornikiem naziemnym gazu płynnego V=2700dm3 dla budynku mieszkalnego jednorodzinnego","address":"Kłodawa","city":"Kłodawa","office":"Starosta Powiatu Koło","case_kind":"Budynek mieszkalny jednorodzinny","parcel_ids":["300906_4.0001.AR_4.883/15"],"location_quality":"dokładny","gunb_url":"https://wyszukiwarka.gunb.gov.pl/","parcel_count":1,"parcel_shard":"x075-y209","parcel_id":"300906_4.0001.AR_4.883/15","location_source":"powiat kolski (wfs)"}},{"type":"Feature","id":"ST-WK-KO/WNIOSEK/10573/2026::300906_4.0001.AR_5.922","geometry":{"type":"Polygon","coordinates":[[[18.9147723990485,52.2506040010037],[18.9146367729427,52.2506179153505],[18.9148362426857,52.2509639311449],[18.9150366069919,52.2513120137547],[18.9151418862895,52.2514941482793],[18.9152402866689,52.251664458563],[18.9154079396747,52.2519548178113],[18.9154295031921,52.2519921303738],[18.9155582703918,52.2519730612883],[18.915550786947,52.2519621003713],[18.9153832918532,52.2516704475501],[18.9151967148469,52.2513479747388],[18.9151484110333,52.2512633193471],[18.9149642279366,52.2509380347992],[18.9147723990485,52.2506040010037]]]},"properties":{"case_id":"ST-WK-KO/WNIOSEK/10573/2026","source_type":"wniosek_decyzja","received_date":"2026-06-03","decision_date":"2026-08-04","status":"decyzja wydana","description":"Budowa ulic: Zawodniej, Jasnej oraz Zielonej w Kłodawie","address":"Kłodawa","city":"Kłodawa","office":"Starosta Powiatu Koło","case_kind":"Obiekt budowlany inny niż budynek mieszkalny jednorodzinny","parcel_ids":["300906_4.0001.AR_5.922","300906_4.0001.AR_5.930","300906_4.0001.AR_5.944/9","300906_4.0001.AR_5.945/13","300906_4.0001.AR_5.945/5","300906_4.0001.AR_5.945/8"],"location_quality":"dokładny","gunb_url":"https://wyszukiwarka.gunb.gov.pl/","parcel_count":6,"parcel_shard":"x075-y209","parcel_id":"300906_4.0001.AR_5.922","location_source":"powiat kolski (wfs)"}},{"type":"Feature","id":"ST-WK-KO/WNIOSEK/10573/2026::300906_4.0001.AR_5.930","geometry":{"type":"Polygon","coordinates":[[[18.9177202059517,52.2510616045293],[18.9176676675257,52.2509775089813],[18.9175391253091,52.2509919562447],[18.9172486601709,52.2510245523889],[18.916814862946,52.2510732189446],[18.9163955558034,52.2511216958719],[18.9159788619996,52.2511692462843],[18.9159645442609,52.2511708853264],[18.9151484110333,52.2512633193471],[18.9151967148469,52.2513479747388],[18.9157185349446,52.2512887547876],[18.9159779772975,52.2512593245896],[18.9164174987258,52.2512094012073],[18.9168649152917,52.2511586633671],[18.9172151136639,52.2511189379872],[18.9175934203912,52.2510759608897],[18.9177202059517,52.2510616045293]]]},"properties":{"case_id":"ST-WK-KO/WNIOSEK/10573/2026","source_type":"wniosek_decyzja","received_date":"2026-06-03","decision_date":"2026-08-04","status":"decyzja wydana","description":"Budowa ulic: Zawodniej, Jasnej oraz Zielonej w Kłodawie","address":"Kłodawa","city":"Kłodawa","office":"Starosta Powiatu Koło","case_kind":"Obiekt budowlany inny niż budynek mieszkalny jednorodzinny","parcel_ids":["300906_4.0001.AR_5.922","300906_4.0001.AR_5.930","300906_4.0001.AR_5.944/9","300906_4.0001.AR_5.945/13","300906_4.0001.AR_5.945/5","300906_4.0001.AR_5.945/8"],"location_quality":"dokładny","gunb_url":"https://wyszukiwarka.gunb.gov.pl/","parcel_count":6,"parcel_shard":"x075-y209","parcel_id":"300906_4.0001.AR_5.930","location_source":"powiat kolski (wfs)"}},{"type":"Feature","id":"ST-WK-KO/WNIOSEK/10573/2026::300906_4.0001.AR_5.944/9","geometry":{"type":"Polygon","coordinates":[[[18.9191856718849,52.2511676915469],[18.9190459272833,52.2501745299773],[18.9188461669214,52.2501950495358],[18.9189461755913,52.2502394816981],[18.9190229078642,52.2505372900763],[18.9191083427482,52.2508681712996],[18.9191659359775,52.2510913960147],[18.9191856718849,52.2511676915469]]]},"properties":{"case_id":"ST-WK-KO/WNIOSEK/10573/2026","source_type":"wniosek_decyzja","received_date":"2026-06-03","decision_date":"2026-08-04","status":"decyzja wydana","description":"Budowa ulic: Zawodniej, Jasnej oraz Zielonej w Kłodawie","address":"Kłodawa","city":"Kłodawa","office":"Starosta Powiatu Koło","case_kind":"Obiekt budowlany inny niż budynek mieszkalny jednorodzinny","parcel_ids":["300906_4.0001.AR_5.922","300906_4.0001.AR_5.930","300906_4.0001.AR_5.944/9","300906_4.0001.AR_5.945/13","300906_4.0001.AR_5.945/5","300906_4.0001.AR_5.945/8"],"location_quality":"dokładny","gunb_url":"https://wyszukiwarka.gunb.gov.pl/","parcel_count":6,"parcel_shard":"x075-y209","parcel_id":"300906_4.0001.AR_5.944/9","location_source":"powiat kolski (wfs)"}},{"type":"Feature","id":"ST-WK-KO/WNIOSEK/10573/2026::300906_4.0001.AR_5.945/13","geometry":{"type":"Polygon","coordinates":[[[18.91918861776,52.2511792841972],[18.9193599144852,52.2511599580955],[18.919314983309,52.2509827434308],[18.9192674138859,52.2508063394559],[18.9191776909002,52.2504511039989],[18.9191183384056,52.250221772138],[18.9190996364344,52.2501489829525],[18.9190433595952,52.2501565740483],[18.9190459272833,52.2501745299773],[18.9191856718849,52.2511676915469],[18.91918861776,52.2511792841972]]]},"properties":{"case_id":"ST-WK-KO/WNIOSEK/10573/2026","source_type":"wniosek_decyzja","received_date":"2026-06-03","decision_date":"2026-08-04","status":"decyzja wydana","description":"Budowa ulic: Zawodniej, Jasnej oraz Zielonej w Kłodawie","address":"Kłodawa","city":"Kłodawa","office":"Starosta Powiatu Koło","case_kind":"Obiekt budowlany inny niż budynek mieszkalny jednorodzinny","parcel_ids":["300906_4.0001.AR_5.922","300906_4.0001.AR_5.930","300906_4.0001.AR_5.944/9","300906_4.0001.AR_5.945/13","300906_4.0001.AR_5.945/5","300906_4.0001.AR_5.945/8"],"location_quality":"dokładny","gunb_url":"https://wyszukiwarka.gunb.gov.pl/","parcel_count":6,"parcel_shard":"x075-y209","parcel_id":"300906_4.0001.AR_5.945/13","location_source":"powiat kolski (wfs)"}},{"type":"Feature","id":"ST-WK-KO/WNIOSEK/10573/2026::300906_4.0001.AR_5.945/5","geometry":{"type":"Polygon","coordinates":[[[18.9194444143389,52.2515678694085],[18.9192574206935,52.2516000812034],[18.919246769059,52.2516019617353],[18.9192544930826,52.2516568180094],[18.9193087825409,52.2520444053605],[18.9193118640375,52.2520659524603],[18.9203699362706,52.2518819266173],[18.9203531916237,52.2518476035765],[18.9199734074706,52.2519170241164],[18.9195653521392,52.2519896089716],[18.9194909150524,52.2519569340106],[18.9194639704278,52.2517331465995],[18.9194444143389,52.2515678694085]]]},"properties":{"case_id":"ST-WK-KO/WNIOSEK/10573/2026","source_type":"wniosek_decyzja","received_date":"2026-06-03","decision_date":"2026-08-04","status":"decyzja wydana","description":"Budowa ulic: Zawodniej, Jasnej oraz Zielonej w Kłodawie","address":"Kłodawa","city":"Kłodawa","office":"Starosta Powiatu Koło","case_kind":"Obiekt budowlany inny niż budynek mieszkalny jednorodzinny","parcel_ids":["300906_4.0001.AR_5.922","300906_4.0001.AR_5.930","300906_4.0001.AR_5.944/9","300906_4.0001.AR_5.945/13","300906_4.0001.AR_5.945/5","300906_4.0001.AR_5.945/8"],"location_quality":"dokładny","gunb_url":"https://wyszukiwarka.gunb.gov.pl/","parcel_count":6,"parcel_shard":"x075-y209","parcel_id":"300906_4.0001.AR_5.945/5","location_source":"powiat kolski (wfs)"}},{"type":"Feature","id":"ST-WK-KO/WNIOSEK/10573/2026::300906_4.0001.AR_5.945/8","geometry":{"type":"Polygon","coordinates":[[[18.91918861776,52.2511792841972],[18.9192260129545,52.2514550803719],[18.919246769059,52.2516019617353],[18.9192574206935,52.2516000812034],[18.9194444143389,52.2515678694085],[18.9193599144852,52.2511599580955],[18.91918861776,52.2511792841972]]]},"properties":{"case_id":"ST-WK-KO/WNIOSEK/10573/2026","source_type":"wniosek_decyzja","received_date":"2026-06-03","decision_date":"2026-08-04","status":"decyzja wydana","description":"Budowa ulic: Zawodniej, Jasnej oraz Zielonej w Kłodawie","address":"Kłodawa","city":"Kłodawa","office":"Starosta Powiatu Koło","case_kind":"Obiekt budowlany inny niż budynek mieszkalny jednorodzinny","parcel_ids":["300906_4.0001.AR_5.922","300906_4.0001.AR_5.930","300906_4.0001.AR_5.944/9","300906_4.0001.AR_5.945/13","300906_4.0001.AR_5.945/5","300906_4.0001.AR_5.945/8"],"location_quality":"dokładny","gunb_url":"https://wyszukiwarka.gunb.gov.pl/","parcel_count":6,"parcel_shard":"x075-y209","parcel_id":"300906_4.0001.AR_5.945/8","location_source":"powiat kolski (wfs)"}},{"type":"Feature","id":"ST-WK-KO/WNIOSEK/447/2026::300906_5.0001.AR_1.153/1","geometry":{"type":"Polygon","coordinates":[[[18.8890923245346,52.2829066399921],[18.8914741627659,52.2830084583791],[18.8915927137527,52.2826917564538],[18.8905454271797,52.2825919959232],[18.8891599234315,52.2827471699978],[18.8890923245346,52.2829066399921]]]},"properties":{"case_id":"ST-WK-KO/WNIOSEK/447/2026","source_type":"wniosek_decyzja","received_date":"2026-01-12","decision_date":"2026-02-16","status":"decyzja wydana","description":"Rozbudowa budynku gospodarczego wraz z zagospodarowaniem terenu i infrastrukturą towarzyszącą i rozbiórka budynku gospodarczego","address":"Bierzwienna Długa-Kolonia","city":"Bierzwienna Długa-Kolonia","office":"Starosta Powiatu Koło","case_kind":"Obiekt budowlany inny niż budynek mieszkalny jednorodzinny","parcel_ids":["300906_5.0001.AR_1.153/1","300906_5.0001.AR_1.154/1"],"location_quality":"dokładny","gunb_url":"https://wyszukiwarka.gunb.gov.pl/","parcel_count":2,"parcel_shard":"x075-y209","parcel_id":"300906_5.0001.AR_1.153/1","location_source":"powiat kolski (wfs)"}},{"type":"Feature","id":"ST-WK-KO/WNIOSEK/447/2026::300906_5.0001.AR_1.154/1","geometry":{"type":"Polygon","coordinates":[[[18.8905454271797,52.2825919959232],[18.8915927137527,52.2826917564538],[18.8916404477562,52.2824527500184],[18.8910287471175,52.2825242499192],[18.8909848078933,52.2825426938528],[18.8905454271797,52.2825919959232]]]},"properties":{"case_id":"ST-WK-KO/WNIOSEK/447/2026","source_type":"wniosek_decyzja","received_date":"2026-01-12","decision_date":"2026-02-16","status":"decyzja wydana","description":"Rozbudowa budynku gospodarczego wraz z zagospodarowaniem terenu i infrastrukturą towarzyszącą i rozbiórka budynku gospodarczego","address":"Bierzwienna Długa-Kolonia","city":"Bierzwienna Długa-Kolonia","office":"Starosta Powiatu Koło","case_kind":"Obiekt budowlany inny niż budynek mieszkalny jednorodzinny","parcel_ids":["300906_5.0001.AR_1.153/1","300906_5.0001.AR_1.154/1"],"location_quality":"dokładny","gunb_url":"https://wyszukiwarka.gunb.gov.pl/","parcel_count":2,"parcel_shard":"x075-y209","parcel_id":"300906_5.0001.AR_1.154/1","location_source":"powiat kolski (wfs)"}},{"type":"Feature","id":"ST-WK-KO/WNIOSEK/23118/2025::300906_5.0001.AR_2.346/9","geometry":{"type":"Polygon","coordinates":[[[18.8977292806951,52.266950143233],[18.8972524675099,52.2667412032658],[18.8971146750037,52.2668602616986],[18.8969980487817,52.2669610934468],[18.8974750096288,52.267170033315],[18.8977292806951,52.266950143233]]]},"properties":{"case_id":"ST-WK-KO/WNIOSEK/23118/2025","source_type":"wniosek_decyzja","received_date":"2025-11-14","decision_date":"2025-12-01","status":"decyzja wydana","description":"Zmiana decyzji nr 62.2021 z dnia 26.01.2021r. Pozwolenia na budowę budynku mieszkalnego jednorodzinnego, zbiornika bezodplywowego na ścieki o poj. V=10,0m3 w zakresie zmiany ogrzewania - instalacja gazowa wewnętrzna i zewnętrzna wraz z zbiornikiem naziemnym gazu płynnego V=3650dm3 do budynku mieszkalnego jednorodzinnego wg projektu zmian","address":"Kościelna, Kłodawa","city":"Kłodawa","office":"Starosta Powiatu Koło","case_kind":"Budynek mieszkalny jednorodzinny","parcel_ids":["300906_5.0001.AR_2.346/9"],"location_quality":"dokładny","gunb_url":"https://wyszukiwarka.gunb.gov.pl/","parcel_count":1,"parcel_shard":"x075-y209","parcel_id":"300906_5.0001.AR_2.346/9","location_source":"powiat kolski (wfs)"}},{"type":"Feature","id":"ST-WK-KO/WNIOSEK/2869/2026::300906_5.0002.AR_1.464","geometry":{"type":"Polygon","coordinates":[[[18.856339396633,52.2923773177523],[18.854441156448,52.293123200842],[18.8550003580259,52.2936611955371],[18.8569374597564,52.292919718908],[18.856339396633,52.2923773177523]]]},"properties":{"case_id":"ST-WK-KO/WNIOSEK/2869/2026","source_type":"wniosek_decyzja","received_date":"2026-02-17","decision_date":"2026-04-14","status":"decyzja wydana","description":"Rozbudowa budynku inwentarskiego wraz z zagospodarowaniem terenu i infrastrukturą towarzyszącą","address":"Bierzwienna Długa","city":"Bierzwienna Długa","office":"Starosta Powiatu Koło","case_kind":"Budynek mieszkalny jednorodzinny","parcel_ids":["300906_5.0002.AR_1.464"],"location_quality":"dokładny","gunb_url":"https://wyszukiwarka.gunb.gov.pl/","parcel_count":1,"parcel_shard":"x075-y209","parcel_id":"300906_5.0002.AR_1.464","location_source":"powiat kolski (wfs)"}},{"type":"Feature","id":"ST-WK-KO/WNIOSEK/5901/2026::300906_5.0003.AR_1.60/3","geometry":{"type":"Polygon","coordinates":[[[18.8206477937152,52.2959162576356],[18.8206507136556,52.2961456068171],[18.8211049615451,52.2961435281571],[18.8211017460343,52.2958745446942],[18.8206477937152,52.2959162576356]]]},"properties":{"case_id":"ST-WK-KO/WNIOSEK/5901/2026","source_type":"wniosek_decyzja","received_date":"2026-03-30","decision_date":"2026-05-18","status":"decyzja wydana","description":"Instalacja gazowa wewnętrzna i zewnętrzna wraz z zbiornikiem naziemnym gazu płynnego V=6400dm3 dla dwóch budynków usługowych i dwóch budynków mieszkalnych jednorodzinnych","address":"Bierzwienna Krótka","city":"Bierzwienna Krótka","office":"Starosta Powiatu Koło","case_kind":"Obiekt budowlany inny niż budynek mieszkalny jednorodzinny","parcel_ids":["300901_1.0003.AR_1.60/1","300901_1.0003.AR_1.60/5","300901_1.0003.AR_1.60/8","300906_5.0003.AR_1.60/3"],"location_quality":"dokładny","gunb_url":"https://wyszukiwarka.gunb.gov.pl/","parcel_count":1,"parcel_shard":"x075-y209","parcel_id":"300906_5.0003.AR_1.60/3","location_source":"powiat kolski (wfs)"}},{"type":"Feature","id":"ST-WK-KO/WNIOSEK/17405/2025::300906_5.0003.AR_2.85","geometry":{"type":"Polygon","coordinates":[[[18.8464949310293,52.298108991857],[18.8469606268029,52.2980427954179],[18.8477201980527,52.2979224813302],[18.8475408502966,52.2974586475055],[18.8474894037005,52.296975290833],[18.8473747473874,52.2962667647461],[18.8468614447688,52.296220791524],[18.8463474592777,52.2981312953113],[18.8464949310293,52.298108991857]]]},"properties":{"case_id":"ST-WK-KO/WNIOSEK/17405/2025","source_type":"wniosek_decyzja","received_date":"2025-08-26","decision_date":"2025-09-25","status":"decyzja wydana","description":"Hala namiotowa do jazdy konnej","address":"Bierzwienna Krótka","city":"Bierzwienna Krótka","office":"Starosta Powiatu Koło","case_kind":"Obiekt budowlany inny niż budynek mieszkalny jednorodzinny","parcel_ids":["300906_5.0003.AR_2.85"],"location_quality":"dokładny","gunb_url":"https://wyszukiwarka.gunb.gov.pl/","parcel_count":1,"parcel_shard":"x075-y209","parcel_id":"300906_5.0003.AR_2.85","location_source":"powiat kolski (wfs)"}},{"type":"Feature","id":"ST-WK-KO/WNIOSEK/21945/2025::300906_5.0006.AR_1.275/1","geometry":{"type":"Polygon","coordinates":[[[18.9121611444765,52.2774928615184],[18.9109324679438,52.2774116231014],[18.9100615525725,52.2773502100413],[18.9099160436232,52.2781146009518],[18.9120352332147,52.2782668459146],[18.9121611444765,52.2774928615184]]]},"properties":{"case_id":"ST-WK-KO/WNIOSEK/21945/2025","source_type":"wniosek_decyzja","received_date":"2025-10-27","decision_date":"2025-12-04","status":"decyzja wydana","description":"Budynek mieszkalny jednorodzinny z instalacją zbiornikową gazu płynnego z podziemnym zbiornikiem o poj. 2700l oraz zbiornikiem bezodpływowym na ścieki bytowe o poj. 10m3","address":"Dębina","city":"Dębina","office":"Starosta Powiatu Koło","case_kind":"Budynek mieszkalny jednorodzinny","parcel_ids":["300906_5.0006.AR_1.275/1"],"location_quality":"dokładny","gunb_url":"https://wyszukiwarka.gunb.gov.pl/","parcel_count":1,"parcel_shard":"x075-y209","parcel_id":"300906_5.0006.AR_1.275/1","location_source":"powiat kolski (wfs)"}},{"type":"Feature","id":"ST-WK-KO/WNIOSEK/3059/2026::300906_5.0009.AR_1.239","geometry":{"type":"Polygon","coordinates":[[[18.9251555022154,52.2653419111626],[18.925676277196,52.2662804916622],[18.9286314262807,52.2662333260041],[18.9289881836921,52.2653361909719],[18.9292028971279,52.2649802628905],[18.9297326621764,52.2641750514996],[18.9251555022154,52.2653419111626]]]},"properties":{"case_id":"ST-WK-KO/WNIOSEK/3059/2026","source_type":"wniosek_decyzja","received_date":"2026-02-19","decision_date":"2026-03-31","status":"decyzja wydana","description":"Budowa budynku gospodarczego","address":"Głogowa","city":"Głogowa","office":"Starosta Powiatu Koło","case_kind":"Obiekt budowlany inny niż budynek mieszkalny jednorodzinny","parcel_ids":["300906_5.0009.AR_1.239"],"location_quality":"dokładny","gunb_url":"https://wyszukiwarka.gunb.gov.pl/","parcel_count":1,"parcel_shard":"x075-y209","parcel_id":"300906_5.0009.AR_1.239","location_source":"powiat kolski (wfs)"}},{"type":"Feature","id":"ST-WK-KO/WNIOSEK/19309/2025::300906_5.0012.AR_1.152","geometry":{"type":"Polygon","coordinates":[[[18.8366246500037,52.3240536900866],[18.8340445017724,52.3241637895851],[18.83394132677,52.3254636140473],[18.8368312737864,52.3255202036715],[18.8392703648017,52.3255875660804],[18.8392862052225,52.3255880033921],[18.8391866049832,52.3252831238021],[18.8388521189582,52.3242592101988],[18.8383936380524,52.3231216071199],[18.8378574441232,52.3231449052289],[18.8369584634927,52.3231839612377],[18.8370698729463,52.3240641866434],[18.8366285186662,52.3240811488704],[18.8366246500037,52.3240536900866]]]},"properties":{"case_id":"ST-WK-KO/WNIOSEK/19309/2025","source_type":"wniosek_decyzja","received_date":"2025-09-23","decision_date":"2025-10-14","status":"decyzja wydana","description":"Instalacja gazowa wewnętrzna i zewnętrzna wraz z zbiornikiem naziemnym gazu płynnego V=2700dm3 dla budynku mieszkalnego jednorodzinnego","address":"Kęcerzyn","city":"Kęcerzyn","office":"Starosta Powiatu Koło","case_kind":"Budynek mieszkalny jednorodzinny","parcel_ids":["300906_5.0012.AR_1.152"],"location_quality":"dokładny","gunb_url":"https://wyszukiwarka.gunb.gov.pl/","parcel_count":1,"parcel_shard":"x075-y209","parcel_id":"300906_5.0012.AR_1.152","location_source":"powiat kolski (wfs)"}},{"type":"Feature","id":"ST-WK-KO/WNIOSEK/5231/2026::300906_5.0014.AR_1.197","geometry":{"type":"Polygon","coordinates":[[[18.7881779555549,52.3250553601325],[18.7881401794411,52.3252903727147],[18.7880602793154,52.3257881990221],[18.7896860925121,52.3259151250945],[18.789992954008,52.3257155449467],[18.7917731586287,52.324557663661],[18.7882882814967,52.3244043587924],[18.7881779555549,52.3250553601325]]]},"properties":{"case_id":"ST-WK-KO/WNIOSEK/5231/2026","source_type":"wniosek_decyzja","received_date":"2026-03-20","decision_date":"2026-04-09","status":"decyzja wydana","description":"Zmiana sposobu użytkowania budynku gospodarczego na budynek związany z agroturystyką wraz z przebudową i nadbudową oraz budowa szczelnego zbiornika na ścieki bytowe o poj. V=10,0m3","address":"Korzecznik","city":"Korzecznik","office":"Starosta Powiatu Koło","case_kind":"Obiekt budowlany inny niż budynek mieszkalny jednorodzinny","parcel_ids":["300906_5.0014.AR_1.197"],"location_quality":"dokładny","gunb_url":"https://wyszukiwarka.gunb.gov.pl/","parcel_count":1,"parcel_shard":"x075-y209","parcel_id":"300906_5.0014.AR_1.197","location_source":"powiat kolski (wfs)"}},{"type":"Feature","id":"ST-WK-KO/WNIOSEK/10044/2026::300906_5.0014.AR_1.212/1","geometry":{"type":"Polygon","coordinates":[[[18.7983755811165,52.3266348827688],[18.7990188175759,52.3266958708857],[18.79937089462,52.3263372015062],[18.7989843906634,52.326250251506],[18.7983755811165,52.3266348827688]]]},"properties":{"case_id":"ST-WK-KO/WNIOSEK/10044/2026","source_type":"wniosek_decyzja","received_date":"2026-05-27","decision_date":"2026-06-23","status":"decyzja wydana","description":"Zmiana decyzji nr 311.2025 z dnia 21.07.2025r. pozwolenia na nadbudowę i przebudowę budynku mieszkalnego oraz zbiornika na nieczystości ciekłe o poj. 10m3 wraz z zagospodarowaniem terenu  i infrastrukturą towarzyszącą w zakresie zmiany ogrzewania - instalacja gazowa wewnętrzna i zewnętrzna wraz z zbiornikiem naziemnym gazu płynnego V=4850dm3 dla budynku mieszkalnego jednorodzinnego  wg projektu zmian","address":"Korzecznik","city":"Korzecznik","office":"Starosta Powiatu Koło","case_kind":"Budynek mieszkalny jednorodzinny","parcel_ids":["300906_5.0014.AR_1.212/1"],"location_quality":"dokładny","gunb_url":"https://wyszukiwarka.gunb.gov.pl/","parcel_count":1,"parcel_shard":"x075-y209","parcel_id":"300906_5.0014.AR_1.212/1","location_source":"powiat kolski (wfs)"}},{"type":"Feature","id":"ST-WK-KO/WNIOSEK/2928/2026::300906_5.0014.AR_1.213","geometry":{"type":"Polygon","coordinates":[[[18.8022995920363,52.3186523160725],[18.8012502011931,52.3184981720402],[18.8014348577063,52.3194256948016],[18.8014704523542,52.3196044807333],[18.8015068109318,52.3197871022978],[18.8015439754275,52.3199737700987],[18.8016220440445,52.3203658836727],[18.8016827619481,52.3206708452078],[18.8017918266424,52.3212193484919],[18.8018314583698,52.3214062436077],[18.8018667031252,52.3216143043427],[18.802905196564,52.321760731702],[18.803815520162,52.3218976908967],[18.8042491389773,52.32195219033],[18.8043016403905,52.3218445239454],[18.8046289579464,52.3210914654956],[18.8049720249551,52.3205003840336],[18.8046183807775,52.3199338955279],[18.8043518333787,52.3196539534064],[18.8034241274885,52.3187329347155],[18.803240748957,52.3187455800303],[18.8024034301469,52.3186211054602],[18.8022995920363,52.3186523160725]]]},"properties":{"case_id":"ST-WK-KO/WNIOSEK/2928/2026","source_type":"wniosek_decyzja","received_date":"2026-02-18","decision_date":"2026-03-09","status":"decyzja wydana","description":"Rozbudowa budynku gospodarczego wraz z zagospodarowaniem terenu","address":"Korzecznik","city":"Korzecznik","office":"Starosta Powiatu Koło","case_kind":"Obiekt budowlany inny niż budynek mieszkalny jednorodzinny","parcel_ids":["300906_5.0014.AR_1.213"],"location_quality":"dokładny","gunb_url":"https://wyszukiwarka.gunb.gov.pl/","parcel_count":1,"parcel_shard":"x075-y209","parcel_id":"300906_5.0014.AR_1.213","location_source":"powiat kolski (wfs)"}},{"type":"Feature","id":"ST-WK-KO/WNIOSEK/2179/2026::300906_5.0014.AR_1.271","geometry":{"type":"Polygon","coordinates":[[[18.7785626103527,52.3268897335487],[18.779452529972,52.3270496301527],[18.7796598445232,52.326840649006],[18.7795741457309,52.326741382847],[18.7803879674147,52.3262946399086],[18.781098346463,52.3261211665611],[18.7818286010849,52.3256951392855],[18.7819868211122,52.3255161929766],[18.7819819891879,52.3253367295932],[18.781395114057,52.3254034481601],[18.780862816456,52.3254762066871],[18.7806971136212,52.3254816692323],[18.7797756061524,52.3254974138375],[18.7793049257527,52.3255699697779],[18.7783666962776,52.3258217428056],[18.7778249828669,52.327657327169],[18.7778846619663,52.3276749691366],[18.7785626103527,52.3268897335487]]]},"properties":{"case_id":"ST-WK-KO/WNIOSEK/2179/2026","source_type":"wniosek_decyzja","received_date":"2026-02-06","decision_date":"2026-03-09","status":"decyzja wydana","description":"Instalacja zewnętrzna i wewnętrzna do budynku mieszkalnego jednorodzinnego","address":"Korzecznik","city":"Korzecznik","office":"Starosta Powiatu Koło","case_kind":"Budynek mieszkalny jednorodzinny","parcel_ids":["300906_5.0014.AR_1.271"],"location_quality":"dokładny","gunb_url":"https://wyszukiwarka.gunb.gov.pl/","parcel_count":1,"parcel_shard":"x075-y209","parcel_id":"300906_5.0014.AR_1.271","location_source":"powiat kolski (wfs)"}},{"type":"Feature","id":"ST-WK-KO/WNIOSEK/11825/2026::300906_5.0014.AR_1.274","geometry":{"type":"Polygon","coordinates":[[[18.7821365408398,52.325309615549],[18.7821161625057,52.3255671192016],[18.7819484145997,52.3257772539026],[18.781470997924,52.3260600735891],[18.7828052989818,52.3266327294065],[18.782814340687,52.3264676984438],[18.7826072329337,52.3259313466408],[18.7826507166731,52.3257939475688],[18.7833526703588,52.3255191890112],[18.7834268212509,52.3253810662159],[18.782276032844,52.3253053364429],[18.7821365408398,52.325309615549]]]},"properties":{"case_id":"ST-WK-KO/WNIOSEK/11825/2026","source_type":"wniosek_decyzja","received_date":"2026-06-22","decision_date":"2026-07-03","status":"decyzja wydana","description":"Budynek mieszkalny jednorodzinny i budynek gospodarczy","address":"Korzecznik","city":"Korzecznik","office":"Starosta Powiatu Koło","case_kind":"Budynek mieszkalny jednorodzinny","parcel_ids":["300906_5.0014.AR_1.274"],"location_quality":"dokładny","gunb_url":"https://wyszukiwarka.gunb.gov.pl/","parcel_count":1,"parcel_shard":"x075-y209","parcel_id":"300906_5.0014.AR_1.274","location_source":"powiat kolski (wfs)"}},{"type":"Feature","id":"ST-WK-KO/WNIOSEK/24702/2025::300906_5.0015.AR_1.131","geometry":{"type":"Polygon","coordinates":[[[18.8407406062384,52.2624166126983],[18.8408103264855,52.2621205138978],[18.8408776007062,52.2618253588598],[18.8409493347834,52.2615104312571],[18.8410211886782,52.2611829135901],[18.8410296925488,52.2611438258184],[18.8391599295329,52.2607956257535],[18.8391296585454,52.260863253944],[18.8386476734374,52.2620483001564],[18.8392520071908,52.2621546786214],[18.8407406062384,52.2624166126983]]]},"properties":{"case_id":"ST-WK-KO/WNIOSEK/24702/2025","source_type":"wniosek_decyzja","received_date":"2025-12-05","decision_date":"2026-01-07","status":"decyzja wydana","description":"Rozbudowa budynku mieszkalnego jednorodzinnego","address":"Krzykosy","city":"Krzykosy","office":"Starosta Powiatu Koło","case_kind":"Budynek mieszkalny jednorodzinny","parcel_ids":["300906_5.0015.AR_1.131"],"location_quality":"dokładny","gunb_url":"https://wyszukiwarka.gunb.gov.pl/","parcel_count":1,"parcel_shard":"x075-y209","parcel_id":"300906_5.0015.AR_1.131","location_source":"powiat kolski (wfs)"}},{"type":"Feature","id":"ST-WK-KO/WNIOSEK/2384/2026::300906_5.0017.AR_2.160","geometry":{"type":"Polygon","coordinates":[[[18.806839530901,52.2971165391641],[18.8064820932423,52.2970739514505],[18.8064200639238,52.2971535577116],[18.8063511864147,52.2972435466888],[18.805656914232,52.2979544577676],[18.8054460597367,52.29816998578],[18.8059019974934,52.2983325211229],[18.8069743960041,52.2973342016056],[18.8071759250259,52.2971465967871],[18.807049175338,52.2971415310012],[18.806839530901,52.2971165391641]]]},"properties":{"case_id":"ST-WK-KO/WNIOSEK/2384/2026","source_type":"wniosek_decyzja","received_date":"2026-02-10","decision_date":"2026-03-16","status":"decyzja wydana","description":"Instalacja gazowa wewnętrzna i zewnętrzna wraz z zbiornikiem naziemnym gazu płynnego V=2700dm3do budynku gospodarczego na cele budynku mieszkalnego jednorodzinnego","address":"Luboniek","city":"Luboniek","office":"Starosta Powiatu Koło","case_kind":"Budynek mieszkalny jednorodzinny","parcel_ids":["300906_5.0017.AR_2.160"],"location_quality":"dokładny","gunb_url":"https://wyszukiwarka.gunb.gov.pl/","parcel_count":1,"parcel_shard":"x075-y209","parcel_id":"300906_5.0017.AR_2.160","location_source":"powiat kolski (wfs)"}},{"type":"Feature","id":"ST-WK-KO/WNIOSEK/10153/2026::300906_5.0017.AR_2.50/5","geometry":{"type":"Polygon","coordinates":[[[18.8042326861885,52.2976650352255],[18.8054460597367,52.29816998578],[18.805656914232,52.2979544577676],[18.8050146197241,52.297677323747],[18.8047855240891,52.297581642879],[18.80452428236,52.2974485079332],[18.8046248988936,52.29736910773],[18.8047717177305,52.2972530929582],[18.804685380467,52.2972078921925],[18.8047699151618,52.2971448746067],[18.804606979914,52.2970587934452],[18.8042156738945,52.2968693758496],[18.8041056470866,52.2969527756012],[18.8040493776389,52.2969921533297],[18.8037455275683,52.2971988899268],[18.8035714782107,52.297318988883],[18.8034654493697,52.2974688105474],[18.803548716615,52.2974902870246],[18.8029752969887,52.2982323835174],[18.8025982767749,52.2986811355875],[18.8023044894671,52.2989940128896],[18.802008861852,52.2993100307955],[18.8023377936377,52.2995123544301],[18.8030270356511,52.2999350494623],[18.803067493422,52.2999929439074],[18.8040678117086,52.3006118096286],[18.8046237543239,52.3003993447658],[18.8041676462891,52.3001172199915],[18.8041009537479,52.3000842523497],[18.80460194978,52.299606192942],[18.8056642080129,52.2985923407509],[18.8058742498707,52.2983663075008],[18.8053934559744,52.2981839850401],[18.8041987485071,52.2976944160349],[18.8042326861885,52.2976650352255]]]},"properties":{"case_id":"ST-WK-KO/WNIOSEK/10153/2026","source_type":"wniosek_decyzja","received_date":"2026-05-28","decision_date":"2026-06-26","status":"decyzja wydana","description":"Nadbudowa budynku mieszkalnego jednorodzinnego","address":"Luboniek","city":"Luboniek","office":"Starosta Powiatu Koło","case_kind":"Budynek mieszkalny jednorodzinny","parcel_ids":["300906_5.0017.AR_2.50/5"],"location_quality":"dokładny","gunb_url":"https://wyszukiwarka.gunb.gov.pl/","parcel_count":1,"parcel_shard":"x075-y209","parcel_id":"300906_5.0017.AR_2.50/5","location_source":"powiat kolski (wfs)"}},{"type":"Feature","id":"ST-WK-KO/WNIOSEK/1734/2026::300906_5.0023.AR_1.7/4","geometry":{"type":"Polygon","coordinates":[[[18.7838921993517,52.3083583248082],[18.7835917856938,52.3086986794609],[18.7840300911068,52.3087671185874],[18.7841819314677,52.3086469017748],[18.7845440775469,52.3084578437078],[18.7838921993517,52.3083583248082]]]},"properties":{"case_id":"ST-WK-KO/WNIOSEK/1734/2026","source_type":"wniosek_decyzja","received_date":"2026-02-02","decision_date":"2026-02-27","status":"decyzja wydana","description":"Instalacja gazowa wewnętrzna i zewnętrzna wraz z zbiornikiem naziemnym gazu płynnego V=2700dm3 do budynku mieszkalnego jednorodzinnego","address":"Rysiny","city":"Rysiny","office":"Starosta Powiatu Koło","case_kind":"Budynek mieszkalny jednorodzinny","parcel_ids":["300906_5.0023.AR_1.7/4"],"location_quality":"dokładny","gunb_url":"https://wyszukiwarka.gunb.gov.pl/","parcel_count":1,"parcel_shard":"x075-y209","parcel_id":"300906_5.0023.AR_1.7/4","location_source":"powiat kolski (wfs)"}},{"type":"Feature","id":"ST-WK-KO/WNIOSEK/25709/2025::300906_5.0025.AR_1.137/2","geometry":{"type":"Polygon","coordinates":[[[18.8304539829827,52.2672432215229],[18.83112204385,52.268639731416],[18.8319979809389,52.2704714038227],[18.8331677148693,52.2702617374914],[18.8323156687938,52.2684799676594],[18.8316429718342,52.2670724419441],[18.8304539829827,52.2672432215229]]]},"properties":{"case_id":"ST-WK-KO/WNIOSEK/25709/2025","source_type":"wniosek_decyzja","received_date":"2025-12-19","decision_date":"2026-01-14","status":"decyzja wydana","description":"Przebudowa i zmiana sposobu użytkowania  budynku gospodarczego na mieszkalny wraz z budową szczelnego szamba V=10m3 , zagospodarowaniem terenu i infrastrukturą techniczną","address":"Tarnówka","city":"Tarnówka","office":"Starosta Powiatu Koło","case_kind":"Budynek mieszkalny jednorodzinny","parcel_ids":["300906_5.0025.AR_1.137/2"],"location_quality":"dokładny","gunb_url":"https://wyszukiwarka.gunb.gov.pl/","parcel_count":1,"parcel_shard":"x075-y209","parcel_id":"300906_5.0025.AR_1.137/2","location_source":"powiat kolski (wfs)"}},{"type":"Feature","id":"ST-WK-KO/WNIOSEK/5153/2026::300906_5.0025.AR_1.192","geometry":{"type":"Polygon","coordinates":[[[18.8351427856865,52.2627738842065],[18.8340098906166,52.262618773099],[18.835039305897,52.2644058820715],[18.8362944884453,52.2663947069342],[18.8373295997847,52.26625080278],[18.835657439663,52.2628439686027],[18.8351427856865,52.2627738842065]]]},"properties":{"case_id":"ST-WK-KO/WNIOSEK/5153/2026","source_type":"wniosek_decyzja","received_date":"2026-03-19","decision_date":"2026-05-08","status":"decyzja wydana","description":"Odbudowa dachu budynku gospodarczego","address":"Tarnówka","city":"Tarnówka","office":"Starosta Powiatu Koło","case_kind":"Obiekt budowlany inny niż budynek mieszkalny jednorodzinny","parcel_ids":["300906_5.0025.AR_1.192"],"location_quality":"dokładny","gunb_url":"https://wyszukiwarka.gunb.gov.pl/","parcel_count":1,"parcel_shard":"x075-y209","parcel_id":"300906_5.0025.AR_1.192","location_source":"powiat kolski (wfs)"}},{"type":"Feature","id":"ST-WK-KO/WNIOSEK/11334/2026::300906_5.0029.AR_1.6/7","geometry":{"type":"Polygon","coordinates":[[[18.9434293433476,52.2579916903163],[18.943559565133,52.2584255516808],[18.9450358355967,52.2582817916473],[18.9449112758899,52.2578673347865],[18.9434293433476,52.2579916903163]]]},"properties":{"case_id":"ST-WK-KO/WNIOSEK/11334/2026","source_type":"wniosek_decyzja","received_date":"2026-06-15","decision_date":"2026-07-23","status":"decyzja wydana","description":"Zmiana sposobu użytkowania budynku gospodarczego na budynek mieszkalny jednorodzinny wraz z rozbudową","address":"Łążek","city":"Łążek","office":"Starosta Powiatu Koło","case_kind":"Budynek mieszkalny jednorodzinny","parcel_ids":["300906_5.0029.AR_1.6/7"],"location_quality":"dokładny","gunb_url":"https://wyszukiwarka.gunb.gov.pl/","parcel_count":1,"parcel_shard":"x075-y209","parcel_id":"300906_5.0029.AR_1.6/7","location_source":"powiat kolski (wfs)"}},{"type":"Feature","id":"ST-WK-KO/WNIOSEK/18221/2025::300911_4.0001.AR_1.90","geometry":{"type":"Polygon","coordinates":[[[18.8930642817492,52.3380350416103],[18.8931291705992,52.3382188012537],[18.8935397357453,52.3381684210632],[18.8939134146055,52.3381225427999],[18.8938496926937,52.3379385949902],[18.8930642817492,52.3380350416103]]]},"properties":{"case_id":"ST-WK-KO/WNIOSEK/18221/2025","source_type":"wniosek_decyzja","received_date":"2025-09-08","decision_date":"2025-09-22","status":"decyzja wydana","description":"Budynek mieszkalny jednorodzinny","address":"Przedecz","city":"Przedecz","office":"Starosta Powiatu Koło","case_kind":"Budynek mieszkalny jednorodzinny","parcel_ids":["300911_4.0001.AR_1.90"],"location_quality":"dokładny","gunb_url":"https://wyszukiwarka.gunb.gov.pl/","parcel_count":1,"parcel_shard":"x075-y209","parcel_id":"300911_4.0001.AR_1.90","location_source":"powiat kolski (wfs)"}},{"type":"Feature","id":"ST-WK-KO/WNIOSEK/18383/2025::300911_4.0001.AR_1.90","geometry":{"type":"Polygon","coordinates":[[[18.8930642817492,52.3380350416103],[18.8931291705992,52.3382188012537],[18.8935397357453,52.3381684210632],[18.8939134146055,52.3381225427999],[18.8938496926937,52.3379385949902],[18.8930642817492,52.3380350416103]]]},"properties":{"case_id":"ST-WK-KO/WNIOSEK/18383/2025","source_type":"wniosek_decyzja","received_date":"2025-09-10","decision_date":"2025-09-22","status":"decyzja wydana","description":"Budowa budynku gospodarczego","address":"Przedecz","city":"Przedecz","office":"Starosta Powiatu Koło","case_kind":"Obiekt budowlany inny niż budynek mieszkalny jednorodzinny","parcel_ids":["300911_4.0001.AR_1.90"],"location_quality":"dokładny","gunb_url":"https://wyszukiwarka.gunb.gov.pl/","parcel_count":1,"parcel_shard":"x075-y209","parcel_id":"300911_4.0001.AR_1.90","location_source":"powiat kolski (wfs)"}},{"type":"Feature","id":"ST-WK-KO/WNIOSEK/3847/2026::300911_4.0001.AR_11.26/1","geometry":{"type":"Polygon","coordinates":[[[18.8984012753693,52.3266943690369],[18.8987165258843,52.3267526390846],[18.8987783242289,52.3266533027879],[18.8989935746154,52.3265328458331],[18.8987040542327,52.3263181722591],[18.8982375954043,52.3264061155925],[18.8984379731796,52.3265724845842],[18.8984012753693,52.3266943690369]]]},"properties":{"case_id":"ST-WK-KO/WNIOSEK/3847/2026","source_type":"wniosek_decyzja","received_date":"2026-03-03","decision_date":"2026-04-02","status":"decyzja wydana","description":"Budowa budynku mieszkalnego jednorodzinnego","address":"Przedecz","city":"Przedecz","office":"Starosta Powiatu Koło","case_kind":"Budynek mieszkalny jednorodzinny","parcel_ids":["300911_4.0001.AR_11.26/1"],"location_quality":"dokładny","gunb_url":"https://wyszukiwarka.gunb.gov.pl/","parcel_count":1,"parcel_shard":"x075-y209","parcel_id":"300911_4.0001.AR_11.26/1","location_source":"powiat kolski (wfs)"}},{"type":"Feature","id":"ST-WK-KO/WNIOSEK/12984/2026::300911_4.0001.AR_5.16/3","geometry":{"type":"Polygon","coordinates":[[[18.9166757518385,52.3336509595787],[18.91675410539,52.333864172159],[18.9168913357888,52.3338453113159],[18.917221936948,52.3338050861123],[18.917700485621,52.3337605651312],[18.9176663023041,52.3335408983568],[18.9171840646532,52.333591379817],[18.9169103389034,52.3336219959376],[18.9166757518385,52.3336509595787]]]},"properties":{"case_id":"ST-WK-KO/WNIOSEK/12984/2026","source_type":"wniosek_decyzja","received_date":"2026-07-09","decision_date":"2026-08-03","status":"decyzja wydana","description":"Budowa budynku mieszkalnego jednorodzinnego z instalacją zbiornikową gazu płynnego ze zbiornikiem podziemnym o poj. 2700l","address":"Przedecz","city":"Przedecz","office":"Starosta Powiatu Koło","case_kind":"Budynek mieszkalny jednorodzinny","parcel_ids":["300911_4.0001.AR_5.16/3"],"location_quality":"dokładny","gunb_url":"https://wyszukiwarka.gunb.gov.pl/","parcel_count":1,"parcel_shard":"x075-y209","parcel_id":"300911_4.0001.AR_5.16/3","location_source":"powiat kolski (wfs)"}},{"type":"Feature","id":"ST-WK-KO/WNIOSEK/21245/2025::300911_4.0001.AR_6.8/3","geometry":{"type":"Polygon","coordinates":[[[18.9005215844731,52.3350898331705],[18.9005945274552,52.3352420301179],[18.9009876309549,52.3351721526419],[18.9009619642134,52.3351110462491],[18.9009233240533,52.3350195242821],[18.9005215844731,52.3350898331705]]]},"properties":{"case_id":"ST-WK-KO/WNIOSEK/21245/2025","source_type":"wniosek_decyzja","received_date":"2025-10-17","decision_date":"2025-12-12","status":"decyzja wydana","description":"Budowa instalacji zbiornikowej z naziemnym zbiornikiem o poj. V=4,85m3 na gaz płynny propan z przyłączem do użytkowanego budynku zakładu produkcyjnego- szwalnia i budowa instalacji gazowej wewnątrz tego budynku","address":"Przedecz","city":"Przedecz","office":"Starosta Powiatu Koło","case_kind":"Obiekt budowlany inny niż budynek mieszkalny jednorodzinny","parcel_ids":["300911_4.0001.AR_6.8/3","300911_4.0001.AR_6.8/4","300911_4.0001.AR_6.9/3"],"location_quality":"dokładny","gunb_url":"https://wyszukiwarka.gunb.gov.pl/","parcel_count":3,"parcel_shard":"x075-y209","parcel_id":"300911_4.0001.AR_6.8/3","location_source":"powiat kolski (wfs)"}},{"type":"Feature","id":"ST-WK-KO/WNIOSEK/21245/2025::300911_4.0001.AR_6.8/4","geometry":{"type":"Polygon","coordinates":[[[18.9009233240533,52.3350195242821],[18.9008880513708,52.3349336933995],[18.9004773103051,52.3349971580297],[18.9005215844731,52.3350898331705],[18.9009233240533,52.3350195242821]]]},"properties":{"case_id":"ST-WK-KO/WNIOSEK/21245/2025","source_type":"wniosek_decyzja","received_date":"2025-10-17","decision_date":"2025-12-12","status":"decyzja wydana","description":"Budowa instalacji zbiornikowej z naziemnym zbiornikiem o poj. V=4,85m3 na gaz płynny propan z przyłączem do użytkowanego budynku zakładu produkcyjnego- szwalnia i budowa instalacji gazowej wewnątrz tego budynku","address":"Przedecz","city":"Przedecz","office":"Starosta Powiatu Koło","case_kind":"Obiekt budowlany inny niż budynek mieszkalny jednorodzinny","parcel_ids":["300911_4.0001.AR_6.8/3","300911_4.0001.AR_6.8/4","300911_4.0001.AR_6.9/3"],"location_quality":"dokładny","gunb_url":"https://wyszukiwarka.gunb.gov.pl/","parcel_count":3,"parcel_shard":"x075-y209","parcel_id":"300911_4.0001.AR_6.8/4","location_source":"powiat kolski (wfs)"}},{"type":"Feature","id":"ST-WK-KO/WNIOSEK/21245/2025::300911_4.0001.AR_6.9/3","geometry":{"type":"Polygon","coordinates":[[[18.9011051357953,52.3350846807958],[18.9009619642134,52.3351110462491],[18.9009876309549,52.3351721526419],[18.9011354110978,52.3351478223432],[18.9011051357953,52.3350846807958]]]},"properties":{"case_id":"ST-WK-KO/WNIOSEK/21245/2025","source_type":"wniosek_decyzja","received_date":"2025-10-17","decision_date":"2025-12-12","status":"decyzja wydana","description":"Budowa instalacji zbiornikowej z naziemnym zbiornikiem o poj. V=4,85m3 na gaz płynny propan z przyłączem do użytkowanego budynku zakładu produkcyjnego- szwalnia i budowa instalacji gazowej wewnątrz tego budynku","address":"Przedecz","city":"Przedecz","office":"Starosta Powiatu Koło","case_kind":"Obiekt budowlany inny niż budynek mieszkalny jednorodzinny","parcel_ids":["300911_4.0001.AR_6.8/3","300911_4.0001.AR_6.8/4","300911_4.0001.AR_6.9/3"],"location_quality":"dokładny","gunb_url":"https://wyszukiwarka.gunb.gov.pl/","parcel_count":3,"parcel_shard":"x075-y209","parcel_id":"300911_4.0001.AR_6.9/3","location_source":"powiat kolski (wfs)"}},{"type":"Feature","id":"ST-WK-KO/WNIOSEK/11019/2026::300911_4.0001.AR_7.5","geometry":{"type":"Polygon","coordinates":[[[18.9096820500296,52.3333909251816],[18.9096914478515,52.3334902808769],[18.9096946800183,52.3335808515347],[18.9096853497406,52.3336258936811],[18.9097899884879,52.3336462192864],[18.9098329912284,52.3336520620752],[18.9098463322061,52.3336546877524],[18.9097862099894,52.3333141544537],[18.9097618372093,52.333203032922],[18.909579515606,52.3325746582659],[18.9094400445243,52.33222348433],[18.9093262339661,52.3318718265584],[18.9092219782817,52.3318941125402],[18.9094747808416,52.3325932667546],[18.9096200194161,52.3331029371199],[18.909667404433,52.3333243965206],[18.9096820500296,52.3333909251816]]]},"properties":{"case_id":"ST-WK-KO/WNIOSEK/11019/2026","source_type":"wniosek_decyzja","received_date":"2026-06-10","decision_date":"2026-07-03","status":"decyzja wydana","description":"Instalacja gazowa wewnętrzna i zewnętrzna wraz z zbiornikiem naziemnym gazu płynnego V=2700dm3 dla budynku mieszkalnego jednorodzinnego","address":"Przedecz","city":"Przedecz","office":"Starosta Powiatu Koło","case_kind":"Budynek mieszkalny jednorodzinny","parcel_ids":["300911_4.0001.AR_7.5"],"location_quality":"dokładny","gunb_url":"https://wyszukiwarka.gunb.gov.pl/","parcel_count":1,"parcel_shard":"x075-y209","parcel_id":"300911_4.0001.AR_7.5","location_source":"powiat kolski (wfs)"}},{"type":"Feature","id":"ST-WK-KO/WNIOSEK/23693/2025::300911_4.0001.AR_8.2/1","geometry":{"type":"Polygon","coordinates":[[[18.8980264157166,52.3331072921603],[18.8981429476754,52.3333027313745],[18.8981952117625,52.3332924917432],[18.898214889748,52.3332897850407],[18.8983653006382,52.3332658351944],[18.8985799111281,52.3332314203027],[18.8984876997447,52.3330339958724],[18.8982371028083,52.3330736707413],[18.8980264157166,52.3331072921603]]]},"properties":{"case_id":"ST-WK-KO/WNIOSEK/23693/2025","source_type":"wniosek_decyzja","received_date":"2025-11-21","decision_date":"2025-12-03","status":"decyzja wydana","description":"Zmiana sposobu użytkowania części budynku mieszkalnego jednorodzinnego na funkcję usługową, zbiornik podziemny   na gaz płynny LPG o poj. 2700litrów i rozbiórka budynku gospodarczego","address":"Zamkowa 8, Przedecz","city":"Przedecz","office":"Starosta Powiatu Koło","case_kind":"Budynek mieszkalny jednorodzinny","parcel_ids":["300911_4.0001.AR_8.2/1"],"location_quality":"dokładny","gunb_url":"https://wyszukiwarka.gunb.gov.pl/","parcel_count":1,"parcel_shard":"x075-y209","parcel_id":"300911_4.0001.AR_8.2/1","location_source":"powiat kolski (wfs)"}},{"type":"Feature","id":"ST-WK-KO/WNIOSEK/21572/2025::300911_4.0001.AR_8.88","geometry":{"type":"Polygon","coordinates":[[[18.9048460289841,52.3316019721173],[18.9048636986077,52.3319717758064],[18.9048080058725,52.3323628133492],[18.9047821045372,52.332509872815],[18.9047684992054,52.3325836771926],[18.9051997915059,52.3326750152918],[18.9052285496861,52.3324882975251],[18.9052697979467,52.3319935610453],[18.9052235900282,52.3317207749933],[18.9054656921599,52.3302566896484],[18.9052511495911,52.3302465597133],[18.9050756521628,52.3302590492395],[18.9048460289841,52.3316019721173]]]},"properties":{"case_id":"ST-WK-KO/WNIOSEK/21572/2025","source_type":"wniosek_decyzja","received_date":"2025-10-22","decision_date":"2025-12-17","status":"decyzja wydana","description":"Budowa wiaty gospodarczej","address":"Przedecz","city":"Przedecz","office":"Starosta Powiatu Koło","case_kind":"Obiekt budowlany inny niż budynek mieszkalny jednorodzinny","parcel_ids":["300911_4.0001.AR_8.88"],"location_quality":"dokładny","gunb_url":"https://wyszukiwarka.gunb.gov.pl/","parcel_count":1,"parcel_shard":"x075-y209","parcel_id":"300911_4.0001.AR_8.88","location_source":"powiat kolski (wfs)"}},{"type":"Feature","id":"ST-WK-KO/WNIOSEK/24614/2025::300911_5.0001.5023/1","geometry":{"type":"Polygon","coordinates":[[[18.9405411330021,52.3590764010044],[18.9429131485048,52.3599434795434],[18.9429713547111,52.3599651592624],[18.9452955879842,52.3608308105152],[18.9453928583311,52.3608643740585],[18.9507591235559,52.3553953721189],[18.9498767986012,52.355112538262],[18.9506179229878,52.3549290957149],[18.9492790785787,52.3536188613391],[18.9468942771779,52.3541618154456],[18.9449299088166,52.3546092401326],[18.9405411330021,52.3590764010044]]]},"properties":{"case_id":"ST-WK-KO/WNIOSEK/24614/2025","source_type":"wniosek_decyzja","received_date":"2025-12-04","decision_date":"2026-02-03","status":"decyzja wydana","description":"Budowa punktu czerpania wody L. Rogóźno","address":"Arkuszewo","city":"Arkuszewo","office":"Starosta Powiatu Koło","case_kind":"Obiekt budowlany inny niż budynek mieszkalny jednorodzinny","parcel_ids":["300911_5.0001.5023/1","300911_5.0001.5028/3"],"location_quality":"dokładny","gunb_url":"https://wyszukiwarka.gunb.gov.pl/","parcel_count":2,"parcel_shard":"x075-y209","parcel_id":"300911_5.0001.5023/1","location_source":"powiat kolski (wfs)"}},{"type":"Feature","id":"ST-WK-KO/WNIOSEK/24614/2025::300911_5.0001.5028/3","geometry":{"type":"Polygon","coordinates":[[[18.9522088630455,52.3539411454562],[18.9520539772077,52.353784075338],[18.9516830681173,52.3535376446572],[18.9513735698308,52.3531713479389],[18.9492790785787,52.3536188613391],[18.9506179229878,52.3549290957149],[18.9498767986012,52.355112538262],[18.9507591235559,52.3553953721189],[18.9522088630455,52.3539411454562]]]},"properties":{"case_id":"ST-WK-KO/WNIOSEK/24614/2025","source_type":"wniosek_decyzja","received_date":"2025-12-04","decision_date":"2026-02-03","status":"decyzja wydana","description":"Budowa punktu czerpania wody L. Rogóźno","address":"Arkuszewo","city":"Arkuszewo","office":"Starosta Powiatu Koło","case_kind":"Obiekt budowlany inny niż budynek mieszkalny jednorodzinny","parcel_ids":["300911_5.0001.5023/1","300911_5.0001.5028/3"],"location_quality":"dokładny","gunb_url":"https://wyszukiwarka.gunb.gov.pl/","parcel_count":2,"parcel_shard":"x075-y209","parcel_id":"300911_5.0001.5028/3","location_source":"powiat kolski (wfs)"}},{"type":"Feature","id":"ST-WK-KO/WNIOSEK/3148/2026::300911_5.0001.19","geometry":{"type":"Polygon","coordinates":[[[18.9409758870794,52.3418160090652],[18.9398056892999,52.341843593672],[18.9381969099583,52.3460409288728],[18.9384036280239,52.3461949206832],[18.9384820380187,52.3461784338341],[18.9386960918811,52.3461150025087],[18.9396025652619,52.3450034385967],[18.9397619614364,52.3449277425451],[18.9400037804248,52.3443115299706],[18.9402179055169,52.3437598643756],[18.940754085137,52.3423722293102],[18.9409758870794,52.3418160090652]]]},"properties":{"case_id":"ST-WK-KO/WNIOSEK/3148/2026","source_type":"wniosek_decyzja","received_date":"2026-02-23","decision_date":"2026-06-29","status":"decyzja wydana","description":"Instalacja gazowa wewnętrzna i zewnętrznawraz z zbiornikiem naziemnym gazu płynnego V=365dm3 do budynku mieszkalnego jednorodzinnego","address":"Przedecz","city":"Przedecz","office":"Starosta Powiatu Koło","case_kind":"Budynek mieszkalny jednorodzinny","parcel_ids":["300911_5.0001.AR_1.19"],"location_quality":"dokładny","gunb_url":"https://wyszukiwarka.gunb.gov.pl/","parcel_count":1,"parcel_shard":"x075-y209","parcel_id":"300911_5.0001.19","location_source":"powiat kolski (wfs)"}},{"type":"Feature","id":"ST-WK-KO/WNIOSEK/2425/2026::300911_5.0001.57/1","geometry":{"type":"Polygon","coordinates":[[[18.9527186622414,52.3389188415615],[18.9516819348474,52.3417094551186],[18.9523104217773,52.3417073602544],[18.9533290961423,52.3389633935726],[18.9529477776103,52.3389355675174],[18.9527186622414,52.3389188415615]]]},"properties":{"case_id":"ST-WK-KO/WNIOSEK/2425/2026","source_type":"wniosek_decyzja","received_date":"2026-02-11","decision_date":"2026-02-26","status":"decyzja wydana","description":"Rozbudowa budynku mieszkalnego jednorodzinnego","address":"Arkuszewo","city":"Arkuszewo","office":"Starosta Powiatu Koło","case_kind":"Budynek mieszkalny jednorodzinny","parcel_ids":["300911_5.0001.AR_1.57/1"],"location_quality":"dokładny","gunb_url":"https://wyszukiwarka.gunb.gov.pl/","parcel_count":1,"parcel_shard":"x075-y209","parcel_id":"300911_5.0001.57/1","location_source":"powiat kolski (wfs)"}},{"type":"Feature","id":"ST-WK-KO/WNIOSEK/19263/2025::300911_5.0004.10/2","geometry":{"type":"Polygon","coordinates":[[[18.9208652926114,52.3988322352435],[18.9221158612521,52.3992447446394],[18.922814449163,52.3995425989911],[18.9243855617226,52.3998284012518],[18.9249789349759,52.3993091081459],[18.9240426078711,52.3990535096191],[18.9242804346421,52.398724792987],[18.9253164360906,52.3990137358184],[18.9256057950869,52.3987604924208],[18.9275051362435,52.3971734772477],[18.9255474026883,52.3968181765936],[18.9250477184392,52.3967321707997],[18.9218461249252,52.3961418398753],[18.9215684123586,52.3970996718579],[18.9212870691537,52.397862587207],[18.9211165686477,52.3982547027877],[18.9208652926114,52.3988322352435]]]},"properties":{"case_id":"ST-WK-KO/WNIOSEK/19263/2025","source_type":"wniosek_decyzja","received_date":"2025-09-22","decision_date":"2025-09-25","status":"decyzja wydana","description":"Rozbudowa budynku gospodarczego o wiatę na maszyny rolnicze","address":"Dziewczopólko","city":"Dziewczopólko","office":"Starosta Powiatu Koło","case_kind":"Obiekt budowlany inny niż budynek mieszkalny jednorodzinny","parcel_ids":["300911_5.0004.10/2"],"location_quality":"dokładny","gunb_url":"https://wyszukiwarka.gunb.gov.pl/","parcel_count":1,"parcel_shard":"x075-y209","parcel_id":"300911_5.0004.10/2","location_source":"powiat kolski (wfs)"}},{"type":"Feature","id":"ST-WK-KO/WNIOSEK/4747/2026::300911_5.0005.39/1","geometry":{"type":"Polygon","coordinates":[[[18.9575420433388,52.3335225537143],[18.957785454172,52.3335466374115],[18.9583276119231,52.333640582281],[18.9581298771576,52.3323648256365],[18.9576778280557,52.3291905770756],[18.9575018552191,52.3281493811564],[18.9570818066722,52.3281572559699],[18.9571075887282,52.3281162980902],[18.9574836384562,52.3280946686812],[18.9567190478218,52.3254855307384],[18.9558058978003,52.3255122740294],[18.9575420433388,52.3335225537143]]]},"properties":{"case_id":"ST-WK-KO/WNIOSEK/4747/2026","source_type":"wniosek_decyzja","received_date":"2026-03-16","decision_date":"2026-04-20","status":"decyzja wydana","description":"Rozbudowa i zmiana konstrukcji dachu budynku gospodarczego","address":"Dziwie","city":"Dziwie","office":"Starosta Powiatu Koło","case_kind":"Obiekt budowlany inny niż budynek mieszkalny jednorodzinny","parcel_ids":["300911_5.0005.39/1"],"location_quality":"dokładny","gunb_url":"https://wyszukiwarka.gunb.gov.pl/","parcel_count":1,"parcel_shard":"x075-y209","parcel_id":"300911_5.0005.39/1","location_source":"powiat kolski (wfs)"}},{"type":"Feature","id":"ST-WK-KO/WNIOSEK/2892/2026::300911_5.0005.60/2","geometry":{"type":"Polygon","coordinates":[[[18.9584746235415,52.3333502560013],[18.959030756647,52.3333132966935],[18.9589849522697,52.3330541889491],[18.9584349716554,52.3330905588696],[18.9584746235415,52.3333502560013]]]},"properties":{"case_id":"ST-WK-KO/WNIOSEK/2892/2026","source_type":"wniosek_decyzja","received_date":"2026-02-17","decision_date":"2026-03-16","status":"decyzja wydana","description":"Budynek mieszkalny jednorodzinny","address":"Dziwie","city":"Dziwie","office":"Starosta Powiatu Koło","case_kind":"Budynek mieszkalny jednorodzinny","parcel_ids":["300911_5.0005.60/2"],"location_quality":"dokładny","gunb_url":"https://wyszukiwarka.gunb.gov.pl/","parcel_count":1,"parcel_shard":"x075-y209","parcel_id":"300911_5.0005.60/2","location_source":"powiat kolski (wfs)"}},{"type":"Feature","id":"ST-WK-KO/WNIOSEK/19071/2025::300911_5.0005.94","geometry":{"type":"Polygon","coordinates":[[[18.949536575899,52.3265503570891],[18.9503560735188,52.3263935488129],[18.9487422889961,52.3210480372298],[18.9478827102835,52.3210216411559],[18.949536575899,52.3265503570891]]]},"properties":{"case_id":"ST-WK-KO/WNIOSEK/19071/2025","source_type":"wniosek_decyzja","received_date":"2025-09-18","decision_date":"2025-10-23","status":"decyzja wydana","description":"Rozbudowa budynku inwentarskiego o część gospodarczą z wiatą","address":"Dziwie","city":"Dziwie","office":"Starosta Powiatu Koło","case_kind":"Obiekt budowlany inny niż budynek mieszkalny jednorodzinny","parcel_ids":["300911_5.0005.94"],"location_quality":"dokładny","gunb_url":"https://wyszukiwarka.gunb.gov.pl/","parcel_count":1,"parcel_shard":"x075-y209","parcel_id":"300911_5.0005.94","location_source":"powiat kolski (wfs)"}},{"type":"Feature","id":"ST-WK-KO/WNIOSEK/25831/2025::300911_5.0005.35/2","geometry":{"type":"Polygon","coordinates":[[[18.9550066204914,52.332092458373],[18.9552969242468,52.332066641746],[18.9556171999578,52.3334153020542],[18.9557845517304,52.3334273665394],[18.9551079556853,52.3305706924902],[18.9540514598446,52.326209418157],[18.9538541205498,52.3262273301268],[18.9537639993184,52.3258774996076],[18.9533141665449,52.3259481005569],[18.9534251711321,52.3263619082253],[18.9535351244034,52.3263597939127],[18.9537400118307,52.327208238462],[18.9538453848744,52.3272026154099],[18.9550066204914,52.332092458373]]]},"properties":{"case_id":"ST-WK-KO/WNIOSEK/25831/2025","source_type":"wniosek_decyzja","received_date":"2025-12-22","decision_date":"2026-01-21","status":"decyzja wydana","description":"Rozbudowa budynku mieszkalnego jednorodzinnego","address":"Dziwie","city":"Dziwie","office":"Starosta Powiatu Koło","case_kind":"Budynek mieszkalny jednorodzinny","parcel_ids":["300911_5.0005.AR_1.35/2"],"location_quality":"dokładny","gunb_url":"https://wyszukiwarka.gunb.gov.pl/","parcel_count":1,"parcel_shard":"x075-y209","parcel_id":"300911_5.0005.35/2","location_source":"powiat kolski (wfs)"}},{"type":"Feature","id":"ST-WK-KO/WNIOSEK/2925/2026::300911_5.0006.41","geometry":{"type":"Polygon","coordinates":[[[18.9704541274337,52.3538068189388],[18.9712822185788,52.3538051666751],[18.9727320213761,52.3537227344929],[18.9733141061805,52.3539289840891],[18.9745210896257,52.3542512942597],[18.9748121779385,52.353122620834],[18.9745598628001,52.3531076224873],[18.9731553739323,52.3531304324747],[18.9706205901283,52.3532200542582],[18.9704541274337,52.3538068189388]]]},"properties":{"case_id":"ST-WK-KO/WNIOSEK/2925/2026","source_type":"wniosek_decyzja","received_date":"2026-02-18","decision_date":"2026-04-23","status":"decyzja wydana","description":"Budowa hali łukowej (kacznik) o obsadzie 17,7DJP, dwóch zbiorników bezodpływowych na ścieki o poj. 10m3","address":"Holenderki","city":"Holenderki","office":"Starosta Powiatu Koło","case_kind":"Obiekt budowlany inny niż budynek mieszkalny jednorodzinny","parcel_ids":["300911_5.0006.AR_1.41"],"location_quality":"dokładny","gunb_url":"https://wyszukiwarka.gunb.gov.pl/","parcel_count":1,"parcel_shard":"x075-y209","parcel_id":"300911_5.0006.41","location_source":"powiat kolski (wfs)"}},{"type":"Feature","id":"ST-WK-KO/WNIOSEK/5871/2026::300911_5.0006.41","geometry":{"type":"Polygon","coordinates":[[[18.9704541274337,52.3538068189388],[18.9712822185788,52.3538051666751],[18.9727320213761,52.3537227344929],[18.9733141061805,52.3539289840891],[18.9745210896257,52.3542512942597],[18.9748121779385,52.353122620834],[18.9745598628001,52.3531076224873],[18.9731553739323,52.3531304324747],[18.9706205901283,52.3532200542582],[18.9704541274337,52.3538068189388]]]},"properties":{"case_id":"ST-WK-KO/WNIOSEK/5871/2026","source_type":"wniosek_decyzja","received_date":"2026-03-30","decision_date":"2026-05-28","status":"decyzja wydana","description":"Rozbudowa budynku gospodarczego","address":"Holenderki","city":"Holenderki","office":"Starosta Powiatu Koło","case_kind":"Obiekt budowlany inny niż budynek mieszkalny jednorodzinny","parcel_ids":["300911_5.0006.AR_1.41"],"location_quality":"dokładny","gunb_url":"https://wyszukiwarka.gunb.gov.pl/","parcel_count":1,"parcel_shard":"x075-y209","parcel_id":"300911_5.0006.41","location_source":"powiat kolski (wfs)"}},{"type":"Feature","id":"ST-WK-KO/WNIOSEK/5861/2026::300911_5.0006.41","geometry":{"type":"Polygon","coordinates":[[[18.9704541274337,52.3538068189388],[18.9712822185788,52.3538051666751],[18.9727320213761,52.3537227344929],[18.9733141061805,52.3539289840891],[18.9745210896257,52.3542512942597],[18.9748121779385,52.353122620834],[18.9745598628001,52.3531076224873],[18.9731553739323,52.3531304324747],[18.9706205901283,52.3532200542582],[18.9704541274337,52.3538068189388]]]},"properties":{"case_id":"ST-WK-KO/WNIOSEK/5861/2026","source_type":"wniosek_decyzja","received_date":"2026-03-30","decision_date":"2026-05-28","status":"decyzja wydana","description":"Rozbudowa budynku gospodarczego","address":"Holenderki","city":"Holenderki","office":"Starosta Powiatu Koło","case_kind":"Obiekt budowlany inny niż budynek mieszkalny jednorodzinny","parcel_ids":["300911_5.0006.AR_1.41"],"location_quality":"dokładny","gunb_url":"https://wyszukiwarka.gunb.gov.pl/","parcel_count":1,"parcel_shard":"x075-y209","parcel_id":"300911_5.0006.41","location_source":"powiat kolski (wfs)"}},{"type":"Feature","id":"ST-WK-KO/WNIOSEK/2888/2026::300911_5.0009.129/2","geometry":{"type":"Polygon","coordinates":[[[18.8835301019,52.3215578124263],[18.8841015261229,52.3217776064869],[18.8845916646007,52.3219914509385],[18.8846029658971,52.3221126222752],[18.8848133188093,52.3220357986842],[18.8841172602785,52.3212446883185],[18.8832764112208,52.3202890107795],[18.8825635503739,52.3205251051409],[18.8834412253729,52.3215350127145],[18.8835301019,52.3215578124263]]]},"properties":{"case_id":"ST-WK-KO/WNIOSEK/2888/2026","source_type":"wniosek_decyzja","received_date":"2026-02-17","decision_date":"2026-04-07","status":"decyzja wydana","description":"Budowa budynku gospodarczego wraz z zagospodarowaniem terenu","address":"Katarzyna","city":"Katarzyna","office":"Starosta Powiatu Koło","case_kind":"Obiekt budowlany inny niż budynek mieszkalny jednorodzinny","parcel_ids":["300911_5.0009.129/2"],"location_quality":"dokładny","gunb_url":"https://wyszukiwarka.gunb.gov.pl/","parcel_count":1,"parcel_shard":"x075-y209","parcel_id":"300911_5.0009.129/2","location_source":"powiat kolski (wfs)"}},{"type":"Feature","id":"ST-WK-KO/WNIOSEK/11315/2026::300911_5.0012.117","geometry":{"type":"Polygon","coordinates":[[[18.9897912945973,52.3211269071162],[18.989430422712,52.3196320067349],[18.9893693355576,52.3193788797879],[18.9880530119025,52.3194793269083],[18.9881605348928,52.319921081623],[18.9883295352775,52.3206153709193],[18.9886766550237,52.3206037103904],[18.9891810878263,52.3209555895358],[18.9897912945973,52.3211269071162]]]},"properties":{"case_id":"ST-WK-KO/WNIOSEK/11315/2026","source_type":"wniosek_decyzja","received_date":"2026-06-15","decision_date":"2026-08-07","status":"decyzja wydana","description":"Rozbudowa, przebudowa i zmiana konstrukcji dachu budynku gospodarczego","address":"Nowa Wieś Wielka","city":"Nowa Wieś Wielka","office":"Starosta Powiatu Koło","case_kind":"Obiekt budowlany inny niż budynek mieszkalny jednorodzinny","parcel_ids":["300911_5.0012.117"],"location_quality":"dokładny","gunb_url":"https://wyszukiwarka.gunb.gov.pl/","parcel_count":1,"parcel_shard":"x075-y209","parcel_id":"300911_5.0012.117","location_source":"powiat kolski (wfs)"}},{"type":"Feature","id":"ST-WK-KO/WNIOSEK/19114/2025::300911_5.0013.201/2","geometry":{"type":"Polygon","coordinates":[[[18.9079144529346,52.3439613609101],[18.9078909196918,52.3439312354917],[18.9061292912186,52.3408893609445],[18.9055740037867,52.3409690604227],[18.9051551287815,52.341017412769],[18.9049504314522,52.3410717116299],[18.9048607394793,52.3410921932979],[18.9047580971278,52.3413315134704],[18.9060605256915,52.3435878809139],[18.9071623765868,52.3454734382414],[18.9086217222552,52.3451824734335],[18.9079144529346,52.3439613609101]]]},"properties":{"case_id":"ST-WK-KO/WNIOSEK/19114/2025","source_type":"wniosek_decyzja","received_date":"2025-09-19","decision_date":"2025-10-20","status":"decyzja wydana","description":"Zmiana decyzji nr 575.2024  z dnia 16.12.2024r. pozwolenia na rozbudowę i przebudowę budynku mieszkalnego w zakresie zmiany ogrzewania - instalacja gazowa wewnętrzna i zewnętrzna wraz ze zbiornikiem podziemnym gazu płynnego V=2700dm3 dla budynku mieszkalnego","address":"33, Rybno","city":"Rybno","office":"Starosta Powiatu Koło","case_kind":"Budynek mieszkalny jednorodzinny","parcel_ids":["300911_5.0013.201/2"],"location_quality":"dokładny","gunb_url":"https://wyszukiwarka.gunb.gov.pl/","parcel_count":1,"parcel_shard":"x075-y209","parcel_id":"300911_5.0013.201/2","location_source":"powiat kolski (wfs)"}},{"type":"Feature","id":"ST-WK-KO/ZGŁOSZENIE/852/2026::300911_5.0013.46/2","geometry":{"type":"Polygon","coordinates":[[[18.9111627635191,52.357962206911],[18.9095536152205,52.359283669438],[18.9125847586027,52.3616181349756],[18.9127136636455,52.3612614518262],[18.9126327951273,52.3611137256893],[18.912734635647,52.3607737374451],[18.9129367129987,52.3606161748157],[18.9124991050315,52.3601209327006],[18.9126095617163,52.3599812839085],[18.9128598412802,52.3594685620093],[18.9123728195645,52.3590416859231],[18.911897815274,52.3586199756761],[18.9113972244655,52.3581636166392],[18.9111627635191,52.357962206911]],[[18.9120849243885,52.3597700038462],[18.9116548947207,52.35997951859],[18.9108417046653,52.3593744710069],[18.9112637644105,52.359152522267],[18.9120849243885,52.3597700038462]]]},"properties":{"case_id":"ST-WK-KO/ZGŁOSZENIE/852/2026","source_type":"zgloszenie","received_date":"2026-03-20","decision_date":null,"status":"Brak sprzeciwu","description":"Budowa sieci kablowej nn 0,4kv wraz ze złączem kablowym w celu zasilenia obiektu usługowego (warsztatu) pod adresem Rybno 33, gm. Przedecz","address":"Rybno","city":"Rybno","office":"Starosta Powiatu Koło","case_kind":"budowa nowego/nowych obiektów budowlanych","parcel_ids":["300911_5.0013.46/2","300911_5.0013.59"],"location_quality":"dokładny","gunb_url":"https://wyszukiwarka.gunb.gov.pl/","parcel_count":2,"parcel_shard":"x075-y209","parcel_id":"300911_5.0013.46/2","location_source":"powiat kolski (wfs)"}},{"type":"Feature","id":"ST-WK-KO/ZGŁOSZENIE/852/2026::300911_5.0013.59","geometry":{"type":"Polygon","coordinates":[[[18.9114870521457,52.3576944489753],[18.9111627635191,52.357962206911],[18.9113972244655,52.3581636166392],[18.9121976168584,52.3578253561952],[18.9119781201124,52.357100758012],[18.9119396289876,52.3570286617772],[18.9114870521457,52.3576944489753]]]},"properties":{"case_id":"ST-WK-KO/ZGŁOSZENIE/852/2026","source_type":"zgloszenie","received_date":"2026-03-20","decision_date":null,"status":"Brak sprzeciwu","description":"Budowa sieci kablowej nn 0,4kv wraz ze złączem kablowym w celu zasilenia obiektu usługowego (warsztatu) pod adresem Rybno 33, gm. Przedecz","address":"Rybno","city":"Rybno","office":"Starosta Powiatu Koło","case_kind":"budowa nowego/nowych obiektów budowlanych","parcel_ids":["300911_5.0013.46/2","300911_5.0013.59"],"location_quality":"dokładny","gunb_url":"https://wyszukiwarka.gunb.gov.pl/","parcel_count":2,"parcel_shard":"x075-y209","parcel_id":"300911_5.0013.59","location_source":"powiat kolski (wfs)"}},{"type":"Feature","id":"ST-WK-KO/WNIOSEK/10047/2026::300911_5.0015.77","geometry":{"type":"Polygon","coordinates":[[[18.9730733274429,52.3694190294904],[18.9734775867004,52.3698508700158],[18.9775123770675,52.366527612351],[18.9766798280287,52.3663060456197],[18.9763570227192,52.3665762075257],[18.9730733274429,52.3694190294904]]]},"properties":{"case_id":"ST-WK-KO/WNIOSEK/10047/2026","source_type":"wniosek_decyzja","received_date":"2026-05-27","decision_date":"2026-06-29","status":"decyzja wydana","description":"Instalacja gazowa wewnętrzna i zewnętrzna wraz z zbiornikiem naziemnym gazu płynnego V=4850dm3 dla budynku mieszkalnego jednorodzinnego","address":"Zbijewo-Kolonia","city":"Zbijewo-Kolonia","office":"Starosta Powiatu Koło","case_kind":"Budynek mieszkalny jednorodzinny","parcel_ids":["300911_5.0015.77"],"location_quality":"dokładny","gunb_url":"https://wyszukiwarka.gunb.gov.pl/","parcel_count":1,"parcel_shard":"x075-y209","parcel_id":"300911_5.0015.77","location_source":"powiat kolski (wfs)"}},{"type":"Feature","id":"ST-WK-KO/WNIOSEK/833/2026::300911_5.0015.70","geometry":{"type":"Polygon","coordinates":[[[18.9742871620201,52.365625428176],[18.9749995849415,52.3657968323746],[18.9753682034176,52.3654724665639],[18.9754211600591,52.3654227877606],[18.9768312275287,52.364266925391],[18.9768481455413,52.3642531028931],[18.9760908020162,52.3641506761285],[18.9760738459924,52.3641645408585],[18.9756948911777,52.3644744048635],[18.9748150693836,52.365193796291],[18.9742871620201,52.365625428176]]]},"properties":{"case_id":"ST-WK-KO/WNIOSEK/833/2026","source_type":"wniosek_decyzja","received_date":"2026-01-16","decision_date":"2026-03-05","status":"decyzja wydana","description":"Budowa budynku gospodarczego","address":"Zbijewo-Kolonia","city":"Zbijewo-Kolonia","office":"Starosta Powiatu Koło","case_kind":"Obiekt budowlany inny niż budynek mieszkalny jednorodzinny","parcel_ids":["300911_5.0015.AR_1.70"],"location_quality":"dokładny","gunb_url":"https://wyszukiwarka.gunb.gov.pl/","parcel_count":1,"parcel_shard":"x075-y209","parcel_id":"300911_5.0015.70","location_source":"powiat kolski (wfs)"}},{"type":"Feature","id":"ST-WK-KO/WNIOSEK/26002/2025::300911_5.0016.139","geometry":{"type":"Polygon","coordinates":[[[18.8768740396429,52.3525422445114],[18.8774092471692,52.3517155500116],[18.8777000008387,52.3512658071138],[18.8771323719516,52.3510673988064],[18.876802667018,52.351572709573],[18.8762680676089,52.352394085289],[18.8768740396429,52.3525422445114]]]},"properties":{"case_id":"ST-WK-KO/WNIOSEK/26002/2025","source_type":"wniosek_decyzja","received_date":"2025-12-23","decision_date":"2026-01-21","status":"decyzja wydana","description":"Rozbudowa budynku mieszkalnego jednorodzinnego","address":"Żarowo","city":"Żarowo","office":"Starosta Powiatu Koło","case_kind":"Budynek mieszkalny jednorodzinny","parcel_ids":["300911_5.0016.AR_2.139"],"location_quality":"dokładny","gunb_url":"https://wyszukiwarka.gunb.gov.pl/","parcel_count":1,"parcel_shard":"x075-y209","parcel_id":"300911_5.0016.139","location_source":"powiat kolski (wfs)"}}]}