{"type":"FeatureCollection","features":[{"type":"Feature","id":"ST-WK-KO/WNIOSEK/20703/2025::300903_2.0006.59/17","geometry":{"type":"Polygon","coordinates":[[[19.0625436466018,52.2532959672418],[19.0625592473306,52.2534887981995],[19.0631819764821,52.2534759645757],[19.063166181811,52.2532841279874],[19.0625436466018,52.2532959672418]]]},"properties":{"case_id":"ST-WK-KO/WNIOSEK/20703/2025","source_type":"wniosek_decyzja","received_date":"2025-10-13","decision_date":"2025-10-20","status":"decyzja wydana","description":"Zmiana decyzji nr 435.2021 z dnia 13.07.2021r. pozwolenia na budowę budynku mieszkalnego jednorodzinnego oraz zbiornik na ścieki w zakresie zmiany ogrzewania - instalacja  gazowa wewnętrzna  wraz ze zbiornikiem naziemnym gazu płynnego V=4850 dm3 dla budynku mieszkalnego jednorodzinnego w miejsc. Chrzanowo, gm. Chodów, dz. nr  59/17 wg projektu zmian","address":"Chrzanowo","city":"Chrzanowo","office":"Starosta Powiatu Koło","case_kind":"Budynek mieszkalny jednorodzinny","parcel_ids":["300903_2.0006.59/17"],"location_quality":"dokładny","gunb_url":"https://wyszukiwarka.gunb.gov.pl/","parcel_count":1,"parcel_shard":"x076-y209","parcel_id":"300903_2.0006.59/17","location_source":"powiat kolski (wfs)"}}]}