{"type":"FeatureCollection","features":[{"type":"Feature","id":"ST-WK-KO/WNIOSEK/19000/2025::300903_2.0003.167","geometry":{"type":"Polygon","coordinates":[[[19.0817057513663,52.219969388359],[19.0818788643566,52.2200845608073],[19.0821932364139,52.2202400203329],[19.0827692421527,52.2190035874371],[19.0837583418842,52.2169044997775],[19.0825361270348,52.2169077991911],[19.081197257111,52.219852045732],[19.0817057513663,52.219969388359]]]},"properties":{"case_id":"ST-WK-KO/WNIOSEK/19000/2025","source_type":"wniosek_decyzja","received_date":"2025-09-18","decision_date":"2025-11-17","status":"decyzja wydana","description":"Rozbudowa mieszkalnego jednorodzinnego wraz z budową przydomowej oczyszczalni ścieków i zagospodarowaniem terenu","address":"Bowyczyny","city":"Bowyczyny","office":"Starosta Powiatu Koło","case_kind":"Budynek mieszkalny jednorodzinny","parcel_ids":["300903_2.0003.AR_1.167"],"location_quality":"dokładny","gunb_url":"https://wyszukiwarka.gunb.gov.pl/","parcel_count":1,"parcel_shard":"x076-y208","parcel_id":"300903_2.0003.167","location_source":"powiat kolski (wfs)"}},{"type":"Feature","id":"ST-WK-KO/WNIOSEK/1710/2026::300903_2.0003.171/1","geometry":{"type":"Polygon","coordinates":[[[19.0674457409159,52.2196593906659],[19.0680590574854,52.222032093969],[19.0687119670955,52.2219668619549],[19.0688634577315,52.2225527726514],[19.068210539774,52.2226180055427],[19.0682613683956,52.2228150140593],[19.0690838022297,52.2227939949034],[19.0682959481877,52.2196394737877],[19.0674457409159,52.2196593906659]]]},"properties":{"case_id":"ST-WK-KO/WNIOSEK/1710/2026","source_type":"wniosek_decyzja","received_date":"2026-01-30","decision_date":"2026-02-17","status":"decyzja wydana","description":"Instalacja gazowa wewnętrzna i zewnętrzna wraz z zbiornikiem naziemnym gzu płynnego V=3650dm3 do budynku mieszkalnego jednorodzinnego","address":"Gąsiory","city":"Gąsiory","office":"Starosta Powiatu Koło","case_kind":"Budynek mieszkalny jednorodzinny","parcel_ids":["300903_2.0003.AR_1.171/1"],"location_quality":"dokładny","gunb_url":"https://wyszukiwarka.gunb.gov.pl/","parcel_count":1,"parcel_shard":"x076-y208","parcel_id":"300903_2.0003.171/1","location_source":"powiat kolski (wfs)"}},{"type":"Feature","id":"ST-WK-KO/WNIOSEK/20071/2025::300903_2.0003.206","geometry":{"type":"Polygon","coordinates":[[[19.0828902667216,52.2082471284379],[19.0859222958489,52.2076056454317],[19.0856738654314,52.2044782615069],[19.0848986656683,52.2040579152995],[19.0848569110305,52.2040733992637],[19.0846467621051,52.2041123622645],[19.0845139434417,52.2041369522144],[19.0841566434302,52.2041947036752],[19.0837725358174,52.2042570145747],[19.0835410485435,52.204290868576],[19.0834625707295,52.2042881736825],[19.0832354711265,52.2042498120369],[19.0827994789365,52.204169774518],[19.0828520021294,52.2049823595578],[19.0825719622648,52.2049930183747],[19.0828902667216,52.2082471284379]]]},"properties":{"case_id":"ST-WK-KO/WNIOSEK/20071/2025","source_type":"wniosek_decyzja","received_date":"2025-10-03","decision_date":"2025-11-17","status":"decyzja wydana","description":"Zmiana sposobu użytkowania pomieszczenia gospodarczego na chłodnię wraz z adaptacją części istniejącego budynku gospodarczego na pomieszczenia sortowni i magazynu owoców","address":"Bowyczyny","city":"Bowyczyny","office":"Starosta Powiatu Koło","case_kind":"Obiekt budowlany inny niż budynek mieszkalny jednorodzinny","parcel_ids":["300903_2.0003.AR_1.206"],"location_quality":"dokładny","gunb_url":"https://wyszukiwarka.gunb.gov.pl/","parcel_count":1,"parcel_shard":"x076-y208","parcel_id":"300903_2.0003.206","location_source":"powiat kolski (wfs)"}},{"type":"Feature","id":"ST-WK-KO/WNIOSEK/3398/2026::300903_2.0005.32/2","geometry":{"type":"Polygon","coordinates":[[[19.0084619974677,52.2462072158331],[19.0094922929456,52.2463958656081],[19.0095484928782,52.246406086632],[19.0104267137309,52.2455986558618],[19.008680961146,52.245417561169],[19.0084619974677,52.2462072158331]]]},"properties":{"case_id":"ST-WK-KO/WNIOSEK/3398/2026","source_type":"wniosek_decyzja","received_date":"2026-02-25","decision_date":"2026-03-04","status":"decyzja wydana","description":"Budowa boiska wielofunkcyjnego wraz z przebudową i adaptacją pomieszczeń na zaplecze socjalno-szatniowe przy Szkole Podstawowej im. Św. Jana Pawła II w Chodowie","address":"Chodów","city":"Chodów","office":"Starosta Powiatu Koło","case_kind":"Obiekt budowlany inny niż budynek mieszkalny jednorodzinny","parcel_ids":["300903_2.0005.32/2"],"location_quality":"dokładny","gunb_url":"https://wyszukiwarka.gunb.gov.pl/","parcel_count":1,"parcel_shard":"x076-y208","parcel_id":"300903_2.0005.32/2","location_source":"powiat kolski (wfs)"}},{"type":"Feature","id":"ST-WK-KO/WNIOSEK/10778/2026::300903_2.0026.67/1","geometry":{"type":"Polygon","coordinates":[[[19.0052596048843,52.2264671746017],[19.0050431384961,52.2265192613119],[19.0048728926598,52.2265376084425],[19.0044451930884,52.2265235426401],[19.0044212145709,52.2269267708708],[19.0044191520708,52.2269586061192],[19.0052221910231,52.2270010239464],[19.0052596048843,52.2264671746017]]]},"properties":{"case_id":"ST-WK-KO/WNIOSEK/10778/2026","source_type":"wniosek_decyzja","received_date":"2026-06-08","decision_date":"2026-07-01","status":"decyzja wydana","description":"Budowa wewnętrznej i zewnętrznej instalacji gazowej dla budynku gospodarczego ze zbiornikiem na gaz propan o poj. 4850dm3","address":"Rdutów","city":"Rdutów","office":"Starosta Powiatu Koło","case_kind":"Obiekt budowlany inny niż budynek mieszkalny jednorodzinny","parcel_ids":["300903_2.0026.67/1"],"location_quality":"dokładny","gunb_url":"https://wyszukiwarka.gunb.gov.pl/","parcel_count":1,"parcel_shard":"x076-y208","parcel_id":"300903_2.0026.67/1","location_source":"powiat kolski (wfs)"}},{"type":"Feature","id":"ST-WK-KO/WNIOSEK/8715/2026::300903_2.0026.79","geometry":{"type":"Polygon","coordinates":[[[19.0107985119757,52.224870566064],[19.0108322081145,52.2244216901793],[19.0101414208421,52.2244276683859],[19.0099867063861,52.2244481659504],[19.0098642231769,52.2264630104021],[19.0098451788682,52.2267760259105],[19.0096736416225,52.2299100477975],[19.0101835882751,52.2299213673774],[19.0104834078759,52.2249469323767],[19.0107927217956,52.2249476999367],[19.0107985119757,52.224870566064]]]},"properties":{"case_id":"ST-WK-KO/WNIOSEK/8715/2026","source_type":"wniosek_decyzja","received_date":"2026-05-08","decision_date":"2026-06-16","status":"decyzja wydana","description":"Instalacja gazowa wewnętrzna i zewnętrzna wraz z zbiornikiem naziemnym gazu płynnego V=485dm3 dla budynku mieszkalnego jednorodzinnego","address":"Rdutów","city":"Rdutów","office":"Starosta Powiatu Koło","case_kind":"Budynek mieszkalny jednorodzinny","parcel_ids":["300903_2.0026.79","300903_3.0026.153"],"location_quality":"dokładny","gunb_url":"https://wyszukiwarka.gunb.gov.pl/","parcel_count":1,"parcel_shard":"x076-y208","parcel_id":"300903_2.0026.79","location_source":"powiat kolski (wfs)"}}]}